address,name,lat,lng,placement,racks,spaces
,Balboa and Great Hwy (Ocean Beach),37.775081, -122.511289,SIDEWALK,3,6
,Great Hwy and JFK (Ocean Beach),37.770474, -122.510950,SIDEWALK,3,6
,Great Hwy and JFK (Ocean Beach),37.770474, -122.510950,SIDEWALK,3,6
800 GREAT HWY,Ocean Beach,37.772707, -122.510420,SIDEWALK,3,6
,Great Hwy and Lincoln (Ocean Beach),37.764033, -122.510370,SIDEWALK,3,6
760 LA PLAYA,Ocean View Dental,37.774536, -122.509795,SIDEWALK,1,2
728 LA PLAYA,Fit Club,37.774536, -122.509795,SIDEWALK,1,2
,Judah and La Playa,37.760260, -122.509560,SIDEWALK,3,6
1301 GREAT HWY,Judah and La Playa,37.76136744, -122.50938083,SIDEWALK,1,2
1396 LA PLAYA,Java Beach Cafe,37.760451, -122.508931,SIDEWALK,1,2
,Judah and La Playa,37.760140, -122.508920,SIDEWALK,1,2
4245 LAWTON ST,Sunset Co-op Nursery School,37.756384, -122.508503,SIDEWALK,4,8
4300 JUDAH ST,Beachside Cafe,37.760569, -122.508258,SIDEWALK,2,4
4542 IRVING ST,Cajun Pacific Restaurant,37.76239130, -122.50692014,SIDEWALK,1,2
,Great Hwy and Sloat (Ocean Beach),37.735410, -122.506820,SIDEWALK,3,6
,Great Hwy and Sloat (Ocean Beach),37.735410, -122.506820,SIDEWALK,1,2
4541 IRVING ST,3 Fish Studios,37.762008, -122.506750,SIDEWALK,2,4
3620 WAWONA ST,,37.736322, -122.505751,SIDEWALK,1,2
3901 NORIEGA ST,The Pizza Place,37.752698, -122.505608,SIDEWALK,1,2
3901 NORIEGA ST,The Pizza Place,37.752698, -122.505608,SIDEWALK,2,4
4041 JUDAH ST,Thai Cottage,37.760229, -122.505550,SIDEWALK,1,2
4035 JUDAH ST,General Store and Two Birds Fly,37.760198, -122.505461,SIDEWALK,1,2
4033 JUDAH ST,Trouble Coffee Company,37.760201, -122.505375,SIDEWALK,1,2
4033 JUDAH ST,Trouble Coffee Company,37.760201, -122.505375,SIDEWALK,2,4
3639 TARAVAL ST,Riptide Bar,37.741572, -122.505326,SIDEWALK,3,6
3639 TARAVAL ST,Riptide Bar,37.741572, -122.505326,SIDEWALK,1,2
4019 JUDAH ST,Celia's By the Beach,37.760244, -122.505205,SIDEWALK,1,2
4001 JUDAH ST,Outerlands Cafe,37.760252, -122.505019,SIDEWALK,1,2
4001 JUDAH ST,Outerlands Cafe,37.760252, -122.505019,SIDEWALK,2,4
4001 JUDAH ST,Feel Real Coffee House,37.760252, -122.505019,SIDEWALK,2,4
4005 JUDAH ST,Wo's Restaurant,37.760252, -122.505019,SIDEWALK,1,2
3906 JUDAH ST,Judahlicious,37.760685, -122.504083,SIDEWALK,1,
3004 TARAVAL ST,Bike Nook,37.74225580, -122.49842544,SIDEWALK,1,2
3651 BALBOA ST,M D Salon,37.77546298, -122.49815170,SIDEWALK,1,2
3630 BALBOA ST,Balboa Theatre,37.775900, -122.497980,SIDEWALK,1,2
3625 BALBOA ST,Hockey Haven,37.775445, -122.497801,SIDEWALK,1,2
2833 VICENTE ST,"Urban Farmer Store, The",37.738095, -122.497688,SIDEWALK,2,4
3138 NORIEGA ST,,37.753546, -122.497577,SIDEWALK,1,2
3151 ORTEGA ST,A.P. Giannini MS,37.74968004, -122.49731133,SIDEWALK,2,4
550 37TH AVE,Marriot,37.778530, -122.497195,SIDEWALK,1,2
3512 BALBOA ST,The Sweet House,37.77599855, -122.49654984,SIDEWALK,1,2
3519 BALBOA ST,Cassava Bakery,37.775606, -122.496526,SIDEWALK,2,4
3434 BALBOA ST,Simple Pleasures Cafe,37.776028, -122.495814,SIDEWALK,1,2
3425 BALBOA ST,Elevation,37.775652, -122.495430,SIDEWALK,1,2
2717 JUDAH ST,Cloud Rest Healing Center,37.760824, -122.49172,SIDEWALK,1,2
2516 NORIEGA ST,,37.753837, -122.490726,SIDEWALK,1,2
2520 JUDAH ST,American Gymnastics & Raise the Bar Ftness,37.761409, -122.489206,SIDEWALK,2,4
2325 NORIEGA ST,,37.753442, -122.488793,SIDEWALK,1,2
1601 TARAVAL ST,El Burito,37.742567, -122.483403,SIDEWALK,1,
2221 CLEMENT ST,Mescolanza Restaurant?,37.781851, -122.483166,SIDEWALK,1,2
2328 IRVING ST,Irish Pub,37.763549, -122.483035,SIDEWALK,1,2
211 23RD AVE,Pizzetta 211,37.783760, -122.483031,SIDEWALK,1,2
2200 CLEMENT ST,4 Star Theater,37.782357, -122.482930,SIDEWALK,1,2
1541 TARAVAL ST,King of Thai Noodle,37.742489, -122.482813,SIDEWALK,1,2
2300 IRVING ST,Wells Fargo,37.763563, -122.482720,SIDEWALK,1,2
1311 24TH AVE,Olson's Cleaners,37.76307121, -122.48264239,SIDEWALK,1,2
2305 IRVING ST,Little Paris,37.763071, -122.482642,SIDEWALK,1,2
1750 NORIEGA ST,Walgreens,37.754273, -122.482641,SIDEWALK,1,2
1508 TARAVAL ST,Sevan Liquor and Deli,37.743002, -122.482415,SIDEWALK,1,2
5843 GEARY BLVD,Thom's Natural Food,37.779935, -122.482164,SIDEWALK,1,2
5843 GEARY BLVD,Thom's Natural Food,37.779935, -122.482164,SIDEWALK,1,2
2206 IRVING ST,Future Mobile Inc,37.763610, -122.481705,SIDEWALK,1,2
2201 IRVING ST,Supermarket,37.763119, -122.481613,SIDEWALK,1,2
1405 NORIEGA ST,,37.75389824, -122.47888473,SIDEWALK,1,2
1101 VICENTE ST,Accounting Office,37.738928, -122.478806,SIDEWALK,1,2
1916 IRVING ST,i Cafe (CLOSED),37.763713, -122.478596,SIDEWALK,1,2
1131 TARAVAL ST,Brown Owl Coffee,37.742768, -122.478566,SIDEWALK,1,2
1122 TARAVAL ST,Sterling Bank and Trust,37.743181, -122.478343,SIDEWALK,1,2
1744 CLEMENT ST,88 Laundromat & Cleaners,37.782530, -122.478189,SIDEWALK,1,2
1101 TARAVAL ST,French Bakery,37.742786, -122.478151,SIDEWALK,1,2
1899 IRVING ST,Lucca Foods,37.76328169, -122.47792223,SIDEWALK,1,2
1824 IRVING ST,Underdogs Sports Bar and Grill,37.763789, -122.477652,SIDEWALK,1,2
5411 GEARY BLVD,,37.780111, -122.477532,SIDEWALK,1,2
1816 IRVING ST,PPQ Beef Noodle House,37.763762, -122.477486,SIDEWALK,1,2
1722 IRVING ST,Test Magic,37.763839, -122.476504,SIDEWALK,1,
1555 IRVING ST,Woodside International School,37.763432, -122.474748,SIDEWALK,1,2
155 WINSTON DR,Merced Public Library,37.726590, -122.474489,SIDEWALK,1,2
730 TARAVAL ST,Safeway,37.743359, -122.474291,SIDEWALK,1,2
1501 IRVING ST,Bastet's Kindle,37.763450, -122.474073,SIDEWALK,1,2
750 16TH AVE,Argonne Community Garden,37.773969, -122.474057,SIDEWALK,2,4
600 VICENTE ST,St. Cecila's School,37.739871, -122.473601,SIDEWALK,3,6
5030 GEARY BLVD,House of Bagels,37.780910, -122.473486,SIDEWALK,1,2
2575 OCEAN AVE,World Team Kickboxing,37.731444, -122.473337,SIDEWALK,2,4
2550 OCEAN AVE,Walgreens,37.731721, -122.472737,SIDEWALK,1,2
2501 OCEAN AVE,Medical Offices,37.731212, -122.472622,SIDEWALK,1,2
1352 IRVING ST,Everybody Bikes,37.763987, -122.472606,SIDEWALK,1,2
1288 15TH AVE,Everybody Bikes,37.763987, -122.472606,SIDEWALK,1,2
1352 IRVING ST,Everybody Bikes,37.763987, -122.472606,SIDEWALK,1,2
1342 IRVING ST,Europa Express,37.763995, -122.472438,SIDEWALK,1,2
300 FUNSTON AVE,Internet Archive,37.782308, -122.471711,SIDEWALK,1,2
4829 GEARY BLVD,Pacifisia Investment & Realty,37.780397, -122.471218,SIDEWALK,1,2
1200 IRVING ST,Andronico's Market,37.764349, -122.471168,SIDEWALK,1,2
1200 IRVING ST,Andronico's Market,37.764349, -122.471168,SIDEWALK,1,2
1200 IRVING ST,Andronico's Market,37.764349, -122.471168,SIDEWALK,1,2
1042 CLEMENT ST,Healthy Spirits,37.782850, -122.470532,SIDEWALK,2,4
1032 CLEMENT ST,Cafe la Flore,37.782850, -122.470532,SIDEWALK,1,2
1019 CLEMENT ST,Standard Plumbing Ace Hardware,37.782465, -122.470288,SIDEWALK,2,4
4097 19TH AVE,Diala Pizza,37.714472, -122.470277,SIDEWALK,1,2
360 WEST PORTAL AVE,shopping complex,37.737403, -122.470191,SIDEWALK,1,2
4900 CALIFORNIA ST,San Francisco Free Clinic,37.784809, -122.470104,SIDEWALK,2,4
1112 IRVING ST,Mai Ling Hair Salon,37.764026, -122.469917,SIDEWALK,1,2
373 WEST PORTAL AVE,Healthy Pets,37.736885, -122.469889,SIDEWALK,1,2
345 WEST PORTAL AVE,West Portal Physical Therapy,37.737186, -122.469528,SIDEWALK,1,2
2381 OCEAN AVE,Comic Outpost,37.729796, -122.469478,SIDEWALK,1,2
701 11TH AVE,SFA Yoga,37.77491802, -122.46939521,SIDEWALK,1,2
1032 IRVING ST,UPS Store,37.764163, -122.469133,SIDEWALK,1,2
317 WEST PORTAL AVE,US Post Office,37.737588, -122.469041,SIDEWALK,1,2
200 WEST PORTAL AVE,Walgreens,37.738932, -122.468400,SIDEWALK,1,2
820 CLEMENT ST,Goodwill,37.783024, -122.468144,SIDEWALK,1,2
823 CLEMENT ST,Pizza Orgasmica,37.782533, -122.468065,SIDEWALK,1,2
351 09TH AVE,Richmond Library Branch,37.781861, -122.468039,SIDEWALK,1,2
351 09TH AVE,Richmond Library Branch,37.781861, -122.468039,SIDEWALK,1,2
837 CABRILLO ST,Diana Choy Hair Salon,37.775036, -122.467862,SIDEWALK,1,2
801 CLEMENT ST,Crossroads,37.782578, -122.467836,SIDEWALK,1,2
130 WEST PORTAL AVE,Citibank,37.739487, -122.467752,SIDEWALK,1,2
495 09TH AVE,Zion Lutheran Church,37.779241, -122.467633,SIDEWALK,1,2
106 WEST PORTAL AVE,Charles Schwab,37.739698, -122.467480,SIDEWALK,1,2
100 WEST PORTAL AVE,Starbucks,37.739698, -122.467480,SIDEWALK,1,2
746 CLEMENT ST,Walgreens,37.783071, -122.467376,SIDEWALK,1,2
48 VICENTE ST,dental office,37.73972768, -122.46663096,SIDEALK,1,2
1340 09TH AVE,Oriental Art Gallery,37.763293, -122.465930,SIDEWALK1,2
1340 09TH AVE,Oriental Art Gallery,37.763293, -122.465930,SIDEWALK,1,2
1348 09TH AVE,Bika Yoga Studio,37.763156, -122.465920,SIDEWALK,1,2
1348 09TH AVE,Bika Yoga Studio,37.763156, -122.465920,SIDEWALK,1,2
625 CLEMENT ST,Wycen Foods,37.782666, -122.465909,SIDEWALK,1,2
1360 09TH AVE,Nan King Road Bistro,37.762916, -122.465903,SIDEWALK,1,2
1360 09TH AVE,Nan King Road Bistro,37.762916, -122.465903,SIDEWALK,1,2
734 IRVING ST,Yancy's Saloon,37.764306, -122.465884,SIDEWALK,1,2
520 CLEMENT ST,Green Apple Books,37.783189, -122.464885,SIDEWAL,0,2
515 BALBOA ST,SF Hardware,37.777077, -122.464284,SIDEWALK,1,
4334 CALIFORNIA ST,6th Avenue Salon,37.785313, -122.464096,SIDEWALK,1,2
538 IRVING ST,Surreal You Hair Design,37.764304, -122.463898,SIDEWALK,1,2
548 IRVING ST,,37.764304, -122.463898,SIDEWALK,1,2
1320 07TH AVE,,37.763730, -122.463815,SIDEWALK,1,2
1320 07TH AVE,,37.763730, -122.463815,SIDEWALK,1,2
1318 07TH AVE,Impact Training,37.763730, -122.463815,SIDEWALK,1,2
1318 07TH AVE,Impact Training,37.763730, -122.463815,SIDEWALK,1,2
406 CLEMENT ST,Rockit Room,37.783225, -122.463777,SIDEWALK,1,2
450 BALBOA ST,Melisa's Chinese Cuisine,37.777459, -122.463741,SIDEWALK,1,2
439 BALBOA ST,Namu Restaurant,37.777068, -122.463713,SIDEWALK,1,2
535 IRVING ST,Hans Hibachi,37.763908, -122.463663,SIDEWALK,1,2
1963 OCEAN AVE,Aquatic Central,37.725547, -122.463662,SIDEWALK,1,2
1570 07TH AVE,Garden for the Environment,37.759111, -122.463573,SIDEWALK,5,10
401 CLEMENT ST,Toy Boat Dessert Cafe,37.782742, -122.463512,SIDEWALK,1,2
401 CLEMENT ST,Toy Boat Dessert Cafe,37.782742, -122.463512,SIDEWALK,1,2
1941 OCEAN AVE,Ocean Taqueria,37.725392, -122.463258,SIDEWALK,1,2
354 CLEMENT ST,Funa-ya Japanese Cuisine (closed),37.783254, -122.463150,SIDEWALK,1,2
1935 OCEAN AVE,Ocean Cyclery,37.725335, -122.463107,SIDEWALK,1,2
1920 OCEAN AVE,Franciscan Hobby Shop,37.725806, -122.462977,SIDEWALK,1,2
295 ORIZABA AVE,Hong Kong Delights,37.714077, -122.462921,SIDEWALK,1,2
316 CLEMENT ST,Chung Chou City,37.783276, -122.462662,SIDEWALK,1,2
393 ASHTON AVE,Barber Shop,37.725030, -122.462498,SIDEWALK,1,2
1901 OCEAN AVE,King's Coffee Shop,37.725030, -122.462498,SIDEWALK,1,2
4000 GEARY BLVD,Ken & Mary Hair Salon,37.781349, -122.462337,SIDEWALK,1,2
1900 OCEAN AVE,24 Hour Fitness,37.725474, -122.462196,SIDEWALK,3,6
850 HOLLOWAY AVE,Yama Sushi,37.721980, -122.462029,SIDEWALK,1,2
1827 OCEAN AVE,Kumon Reading Center,37.724882, -122.461845,SIDEWALK,1,2
212 CLEMENT ST,Seedstore & Park Life,37.783316, -122.461803,SIDEWALK,1,2
236 CLEMENT ST,Grain D'Or,37.783316, -122.461803,SIDEWALK,1,2
1290 05TH AVE,St. John of God Church.,37.764502, -122.461764,SIDEWALK,2,4
828 HOLLOWAY AVE,Touch of Heaven,37.722052, -122.461627,SIDEWALK,1,2
219 CLEMENT ST,dental office,37.782830, -122.461600,SIDEWALK,1,2
4101 CALIFORNIA ST,Third Avenue Food Market,37.785161, -122.461532,SIDEWALK,1,2
200 CLEMENT ST,Cumaica Coffee,37.783334, -122.461400,SIDEWALK,2,4
152 CLEMENT ST,CitiKids,37.783350, -122.461049,SIDEWALK,1,2
151 CLEMENT ST,Girogio's Pizzeria,37.782857, -122.461013,SIDEWALK,2,4
3848 GEARY BLVD,Buckshot Bar and Gameroom,37.781484, -122.460856,SIDEWALK,1,2
1735 OCEAN AVE,Ocean Avenue Books,37.724571, -122.460781,SIDEWALK,1,2
1760 OCEAN AVE,CVS Pharmacy,37.725357, -122.460641,SIDEWALK,1,2
1700 OCEAN AVE,Java on Ocean,37.724988, -122.460192,SIDEWALK,1,2
1708 OCEAN AVE,Miracle Cleaners,37.724988, -122.460192,SIDEWALK,1,2
1649 OCEAN AVE,Bank of America,37.724429, -122.459987,SIDEWALK,1,2
50 CLEMENT ST,Eats,37.783301, -122.459883,SIDEWALK,2,4
1631 OCEAN AVE,NCPS,37.724411, -122.459810,SIDEWALK,1,2
1607 OCEAN AVE,The Ave - Bar,37.724316, -122.459553,SIDEWALK,1,2
400 DEWEY BLVD,ChouChou French Restaurant,37.747388, -122.459522,SIDEWALK,1,2
14 CLEMENT ST,Aqua Spa,37.783399, -122.459487,SIDEWALK,1,2
1 CLEMENT ST,Village Pizzeria,37.783002, -122.459344,SIDEWALK,1,2
405 ARGUELLO BLVD,T & T Nails,37.782899, -122.459337,SIDEWALK,1,2
354 LAGUNA HONDA BLVD,Muni Laguna Honda Station,37.74786470, -122.45931869,SIDEWALK,4,8
397 ARGUELLO BLVD,Blissful Bites,37.783407, -122.459300,SIDEWALK,1,2
2 CLEMENT ST,Clement Mini Mart,37.783407, -122.459300,SIDEWALK,1,2
1552 OCEAN AVE,Thorne Hats,37.724753, -122.459052,SIDEWALK,1,2
1500 OCEAN AVE,Clean X Press,37.724587, -122.458414,SIDEWALK,1,2
1501 OCEAN AVE,Lucky Ocean Donuts,37.724092, -122.458356,SIDEWALK,1,2
746 ARGUELLO BLVD,San Francylo,37.776354, -122.458215,SIDEWALK,2,4
782 ARGUELLO BLVD,Arguello Super,37.775648, -122.458120,SIDEWALK,2,4
798 ARGUELLO BLVD,Velo Rouge Cafe,37.775411, -122.458102,SIDEWALK,3,6
798 ARGUELLO BLVD,Velo Rouge Cafe,37.775411, -122.458102,SIDEWALK,1,2
3950 SACRAMENTO ST,Claire Lillienth,37.787219, -122.458077,SIDEWALK,1,2
1443 OCEAN AVE,Ocean Pizza,37.723999, -122.457940,SIDEWALK,1,2
3838 CALIFORNIA ST,CPMC,37.786186, -122.457598,SIDEWALK,1,2
1200 ARGUELLO BLVD,Sivananda Yoga Vedanta Center?,37.765674, -122.457442,SIDEWALK,1,2
600 ARGUELLO BLVD,Rossi Pool,37.778784, -122.457436,SIDEWALK,4,8
3905 SACRAMENTO ST,Doctor's office,37.786593, -122.457195,SIDEWALK,1,2
1338 OCEAN AVE,El Jalepeno Restaurant,37.724325, -122.457036,SIDEWALK,1,2
3545 GEARY BLVD,Telegraph Crossfit,37.78104305, -122.45700623,SIDEWALK,1,2
755 FREDERICK ST,Circus Center,37.765548, -122.456964,SIDEWALK,1,2
350 PARNASSUS AVE,Parnassus Heights Exchange,37.764235, -122.456228,SIDEWALK,1,2
1298 OCEAN AVE,Ingleside Branch Library,37.724143, -122.456200,SIDEWALK,2,4
375 WOODSIDE AVE,Woodside Learning Center,37.748644, -122.456145,SIDEWALK,1,2
1201 OCEAN AVE,McDonald's,37.723447, -122.455509,SIDEWALK,1,2
1201 OCEAN AVE,McDonald's,37.723447, -122.455509,SIDEWALK,1,2
3801 SACRAMENTO ST,,37.786829, -122.455448,SIDEWALK,1,2
639 FREDERICK ST,ArcoSports,37.765769, -122.455434,SIDEWALK,1,2
639 FREDERICK ST,ArcoSports,37.765769, -122.455434,SIDEWALK,1,2
672 STANYAN ST,Flywheel Coffee Roasters,37.769707, -122.453327,SIDEWALK,0,2
675 PORTOLA DR,Prudential,37.744560, -122.452562,SIDEWALK,1,
765 MONTEREY BLVD,The Abode of Iyengar Yoga,37.731236, -122.452523,SIDEWALK,1,2
1749 WALLER ST,Funkydoor Yoga Haight,37.768057, -122.452489,SIDEWALK,2,4
1821 HAIGHT ST,The Nightbreak,37.769035, -122.452306,SIDEWALK,1,2
1816 HAIGHT ST,Shaxul Records,37.769560, -122.452290,SIDEWALK,1,2
199 PARNASSUS AVE,Walgreens,37.764286, -122.452259,SIDEWALK,1,2
3600 SACRAMENTO ST,Bathsense,37.78776064, -122.45217402,SIDEWALK,1,2
3489 SACRAMENTO ST,,37.787659, -122.450056,SIDEWALK,1,
1667 HAIGHT ST,,37.769375, -122.450051,SIDEWALK,1,2
1665 HAIGHT ST,,37.769429, -122.449896,SIDEWALK,1,2
842 COLE ST,,37.766196, -122.449777,SIDEWALK,1,2
906 COLE ST,Val De Cole Wines & Spirits,37.765578, -122.449695,SIDEWALK,1,2
86 CARL ST,Burgermeister,37.765998, -122.449678,SIDEWALK,1,2
85 CARL ST,Urban Mercantile / Vierra & Friends,37.765599, -122.449515,PARKING_LANE,3,6
3442 SACRAMENTO ST,One Smart Kid,37.788130, -122.449468,SIDEWALK,1,2
1000 COLE ST,La Boulange Cafe & Bakery,37.764769, -122.449454,SIDEWALK,2,4
956 COLE ST,Cole Hardware,37.765369, -122.449451,SIDEWALK,1,2
956 COLE ST,Cole Hardware,37.765369, -122.449451,SIDEWALK,1,2
1644 HAIGHT ST,,37.769976, -122.449428,SIDEWALK,1,2
1640 HAIGHT ST,Bia's Restaurant and Wine Bar,37.769988, -122.449334,SIDEWALK,1,2
3435 SACRAMENTO ST,,37.787613, -122.449289,SIDEWALK,1,2
1632 HAIGHT ST,FTC Skateboarding,37.770005, -122.449201,PARKING_LANE,5,10
2801 GEARY BLVD,The Pig and Whistle Bar and Restaurant,37.781888, -122.449142,SIDEWALK,1,2
547 CLAYTON ST,residential,37.770395, -122.449007,SIDEWALK,1,2
1621 HAIGHT ST,Dr. Martens,37.769550, -122.448947,SIDEWALK,1,2
250 FOERSTER ST,Sunnyside Elementary School,37.730444, -122.448734,SIDEWALK,2,4
250 FOERSTER ST,Sunnyside Elementary School,37.730444, -122.448734,SIDEWALK,1,2
1501 WALLER ST,Soulful Pilates,37.768697, -122.448646,SIDEWALK,1,2
2739 GEARY BLVD,Nani's Coffee,37.781971, -122.448492,SIDEWALK,1,2
1935 HAYES ST,Bend Yoga Studio,37.773364, -122.448352,SIDEWALK,1,2
1935 HAYES ST,Bend Yoga Studio,37.773364, -122.448352,SIDEWALK,1,2
554 CLAYTON ST,Upper Haight Post Office,37.770047, -122.448334,SIDEWALK,1,2
1597 HAIGHT ST,,37.769636, -122.448328,SIDEWALK,1,2
558 CLAYTON ST,Haight Ashbury Free Clinic,37.769965, -122.448317,SIDEWALK,1,2
1920 HAYES ST,Freewheel Hayes,37.773876, -122.448154,SIDEWALK,1,2
1573 HAIGHT ST,,37.769627, -122.448060,SIDEWALK,1,2
5 MASONIC AVE,"Corner Store, The",37.782087, -122.448016,SIDEWALK,2,4
,Golden Gate Park Panhandle Children's Playground,37.772200, -122.447940,PARCEL,6,12
1543 HAIGHT ST,,37.769627, -122.447668,SIDEWALK,1,2
1530 HAIGHT ST,Haight Street Market,37.770206, -122.447629,SIDEWALK,2,4
3326 SACRAMENTO ST,,37.788333, -122.447550,SIDEWALK,1,2
3200 CALIFORNIA ST,Jewish Communtiy Center,37.787486, -122.447385,SIDEWALK,4,8
3200 CALIFORNIA ST,Jewish Communtiy Center,37.787486, -122.447385,SIDEWALK,4,8
3200 CALIFORNIA ST,Jewish Communtiy Center,37.787486, -122.447385,SIDEWALK,5,10
1871 HAYES ST,,37.773644, -122.447374,SIDEWALK,1,2
1519 HAIGHT ST,,37.769743, -122.447269,SIDEWALK,1,2
1519 HAIGHT ST,,37.769743, -122.447269,SIDEWALK,1,2
1860 HAYES ST,CCSF John Adams Campus,37.774299, -122.447012,SIDEWALK,1,2
2930 LYON ST,,37.798024, -122.446915,SIDEWALK,1,2
100 MASONIC AVE,,37.780685, -122.446879,SIDEWALK,1,2
1813 FULTON ST,Bistro Gambrinus,37.775598, -122.446780,SIDEWALK,1,2
270 MASONIC AVE,Blood Centers of the Pacific,37.778919, -122.446749,SIDEWALK,1,2
412 PRESIDIO ST,Bath Sense and More,37.788009, -122.446726,SIDEWALK,1,2
3290 SACRAMENTO ST,,37.788453, -122.446722,SIDEWALK,1,2
444 PRESIDIO AVE,Laurel Inn Hotel,37.787588, -122.446579,SIDEWALK,2,4
5609 MISSION ST,Philippine Delicacies,37.711165, -122.446396,SIDEWALK,1,2
51 HAVELOCK ST,Balboa Park Swimming Pool,37.724772, -122.446253,SIDEWALK,2,4
51 HAVELOCK ST,Balboa Park Swimming Pool,37.724772, -122.446253,SIDEWALK,1,2
3234 SACRAMENTO ST,Vintage a la Mode,37.788561, -122.446188,SIDEWALK,1,2
1777 FULTON ST,Papalote Restaurant,37.775693, -122.446031,SIDEWALK,1,2
1428 HAIGHT ST,Squat & Gobble,37.770366, -122.445966,SIDEWALK,1,2
1025 MASONIC AVE,Saint Agnes Church,37.771618, -122.445941,SIDEWALK,2,4
800 MASONIC AVE,Amiti's Deli Cafe,37.773847, -122.445833,SIDEWALK,2,4
1400 HAIGHT ST,Positively Haight Street Business.,37.770400, -122.445700,SIDEWALK,1,2
1419 HAIGHT ST,The Red Victorian,37.769988, -122.445650,SIDEWALK,1,2
1751 FULTON ST,,37.775633, -122.445541,SIDEWALK,1,2
601 BRUNSWICK ST,Lowell Market,37.709564, -122.445534,SIDEWALK,1,2
2797 UNION ST,,37.795672, -122.445202,SIDEWALK,1,2
1398 HAIGHT ST,Magnolia Brewery,37.77040275, -122.44512989,SIDEWALK,1,2
1206 MASONIC AVE,Coffee to the People,37.770055, -122.444985,SIDEWALK,2,4
300 SENECA AVE,San Miguel CDC (PreK & SA),37.721716, -122.444903,SIDEWALK,2,4
1520 LYON ST,The Little School,37.785136, -122.444717,SIDEWALK,2,4
1364 HAIGHT ST,,37.770580, -122.444696,SIDEWALK,1,2
1714 HAYES ST,Chop Shop,37.774266, -122.444669,SIDEWALK,1,2
5507 MISSION ST,Fresh Cuts Barber,37.712440, -122.444609,SIDEWALK,1,2
500 CORBETT AVE,Rooftop ES,37.757396, -122.444500,SIDEWALK,3,6
560 CENTRAL AVE,Bistro Central Parc,37.775002, -122.444280,SIDEWALK,3,6
1324 HAIGHT ST,Braindrops,37.770594, -122.444173,PARKING_LANE,4,8
1324 HAIGHT ST,Braindrops,37.770594, -122.444173,SIDEWALK,1,2
1296 HAIGHT ST,,37.770599, -122.443370,SIDEWALK,1,2
2097 TURK BLVD,St. Cyprian's Episcopal Church,37.778902, -122.443361,SIDEWALK,2,4
1401 BAKER ST,Karen Y Uchiyama Law Offices,37.784100, -122.443244,SIDEWALK,1,2
2901 CALIFORNIA ST,DREW Prepatrory School,37.787513, -122.442360,SIDEWALK,1,2
2365 CHESTNUT ST,Asa Sushi,37.799771, -122.442225,SIDEWALK,1,2
2975 WASHINGTON ST,Bloomers,37.790428, -122.442193,SIDEWALK,1,2
1800 MCALLISTER ST,McBaker Grocery/Liquor,37.77747422, -122.44204280,SIDEWALK,1,2
5210 MISSION ST,El Pollo Supremo,37.715611, -122.442021,SIDEWALK,1,2
2938 WASHINGTON ST,San Francisco Waldorf School,37.790783, -122.441910,SIDEWALK,1,2
601 BAKER ST,Chile Pies (& Ice Cream),37.776539, -122.441854,SIDEWALK,2,4
2876 CALIFORNIA ST,The Mindful Body,37.788163, -122.441761,SIDEWALK,1,2
1501 GROVE ST,Pacific Primary School,37.775283, -122.441606,SIDEWALK,2,4
2323 CHESTNUT ST,,37.799929, -122.441487,SIDEWALK,1,2
1798 MCALLISTER ST,Workshop SF,37.777571, -122.441473,SIDEWALK,2,4
1799 MCALLISTER ST,Matching Half Cafe,37.777218, -122.441426,SIDEWALK,1,2
1799 MCALLISTER ST,Matching Half Cafe,37.777218, -122.441426,SIDEWALK,1,2
2498 SUTTER ST,Stewart's Market,37.785259, -122.441417,SIDEWALK,1,2
201 OCEAN AVE,Discovery Carpet and Flooring,37.723133, -122.441394,SIDEWALK,1,2
1901 SAN JOSE AVE,Roxie Food Center,37.72668172, -122.44121727,SIDEWALK,1,2
1901 SAN JOSE AVE,Roxie Food Center,37.72668172, -122.44121727,SIDEWALK,1,2
2200 OFARRELL ST,Kaiser,37.78246242, -122.44112487,SIDEWALK,1,2
5159 MISSION ST,Acme Surplus Store,37.716015, -122.440995,SIDEWALK,1,2
2450 SUTTER ST,Russian Center of San Francsico,37.785402, -122.440916,SIDEWALK,1,2
3248 SCOTT ST,,37.799967, -122.440817,SIDEWALK,1,2
5080 MISSION ST,Rincon Latino,37.717252, -122.440800,SIDEWALK,1,2
2825 CALIFORNIA ST,,37.787838, -122.440731,SIDEWALK,1,2
2825 CALIFORNIA ST,,37.787838, -122.440731,SIDEWALK,1,2
2238 GEARY BLVD,Kaiser,37.783512, -122.440626,SIDEWALK,1,2
2238 GEARY BLVD,Kaiser,37.783512, -122.440626,SIDEWALK,1,2
2420 SUTTER ST,UCSF Mount Zion,37.785443, -122.440590,SIDEWALK,1,2
2420 SUTTER ST,new commercial development,37.785443, -122.440590,GARAGE,15,30
2269 CHESTNUT ST,,37.799980, -122.440579,SIDEWALK,1,2
1823 DIVISADERO ST,Yoga Works,37.786437, -122.440430,SIDEWALK,2,4
2794 CALIFORNIA ST,Cal-Divis Marketplace,37.788342, -122.440297,SIDEWALK,1,2
1701 DIVISADERO ST,medical offices,37.785488, -122.440238,SIDEWALK,1,2
1701 DIVISADERO ST,medical offices,37.785488, -122.440238,SIDEWALK,1,2
2240 CHESTNUT ST,Tuttimelon,37.800482, -122.440145,SIDEWALK,1,2
1794 SAN JOSE AVE,Mission Dental,37.729197, -122.440091,SIDEWALK,1,2
1812 DIVISADERO ST,El Burrito Express,37.786461, -122.439824,SIDEWALK,1,2
2219 CHESTNUT ST,Benefit Cosemtics,37.800234, -122.439811,SIDEWALK,1,2
1836 DIVISADERO ST,Ocean Taqueria,37.786725, -122.439781,SIDEWALK,1,2
1750 DIVISADERO ST,Starbucks,37.785974, -122.439697,SIDEWALK,1,2
1363 DIVISADERO ST,Walgreens,37.782233, -122.439580,SIDEWALK,1,2
3213 PIERCE ST,,37.799676, -122.439552,SIDEWALK,1,2
981 GENEVA AVE,Streetwise Skate Shop,37.716071, -122.439534,SIDEWALK,1,2
2725 CALIFORNIA ST,Dr William Cobb (PreK and SA) CDC,37.788026, -122.439525,SIDEWALK,1,2
1221 DIVISADERO ST,Frankee Uno San Francisco,37.780905, -122.439353,SIDEWALK,1,2
1371 FULTON ST,San Francisco Pet Hospital,37.776433, -122.439247,SIDEWALK,1,2
4950 MISSION ST,Safeway,37.719660, -122.439188,SIDEWALK,1,2
3252 PIERCE ST,,37.800176, -122.439174,SIDEWALK,1,2
1600 DIVISADERO ST,Mt Zion,37.784891, -122.438928,SIDEWALK,1,2
1600 DIVISADERO ST,Mt Zion,37.784891, -122.438928,SIDEWALK,1,2
1195 OAK ST,Oakside Cafe,37.772737, -122.438887,SIDEWALK,1,2
1195 OAK ST,OakSide Cafe,37.772737, -122.438887,SIDEWALK,1,2
2156 CHESTNUT ST,Peet's Coffee,37.800706, -122.438854,SIDEWALK,1,2
60 ONONDAGA AVE,Croatian Ameriacn Cultural Center,37.722006, -122.438835,SIDEWALK,1,2
1335 FULTON ST,Candybar,37.776538, -122.438830,SIDEWALK,1,2
2159 CHESTNUT ST,Gap,37.800209, -122.438770,SIDEWALK,1,2
310 BRODERICK ST,Peet's Coffee,37.773440, -122.438756,SIDEWALK,1,2
306 BRODERICK ST,Nopalito,37.773440, -122.438756,SIDEWALK,1,2
302 BRODERICK ST,DeLessio Market and Bakery,37.773440, -122.438756,SIDEWALK,1,2
2242 LOMBARD ST,,37.799833, -122.438727,SIDEWALK,1,2
901 DIVISADERO ST,Oasis Cafe,37.777916, -122.438709,SIDEWALK,2,4
1326 GROVE ST,Basa Collective,37.776067, -122.438524,SIDEWALK,1,2
813 DIVISADERO ST,Everlasting Tattoo,37.777129, -122.438452,SIDEWALK,1,2
803 DIVISADERO ST,Film Yard Video,37.777082, -122.438440,SIDEWALK,1,2
1300 FULTON ST,Cafe Abir,37.776993, -122.438429,SIDEWALK,1,2
661 DIVISADERO ST,Plant It Earth Store,37.775744, -122.438287,SIDEWALK,1,2
2108 CHESTNUT ST,Janie and Jack,37.800799, -122.438258,SIDEWALK,1,2
4288 24TH ST,Firefly restaurant,37.751264, -122.438257,SIDEWALK,1,2
4288 24TH ST,Firefly restaurant,37.751264, -122.438257,SIDEWALK,1,2
4298 24TH ST,Philz Coffee,37.751264, -122.438257,SIDEWALK,1,2
4298 24TH ST,Philz Coffee,37.751264, -122.438257,SIDEWALK,1,2
639 DIVISADERO ST,Mojo Bicycle Cafe,37.775521, -122.438244,SIDEWALK,1,2
2125 CHESTNUT ST,Apple Store,37.800324, -122.438202,SIDEWALK,1,2
625 DOUGLASS ST,Alvarado Elementary School,37.753682, -122.438193,SIDEWALK,3,6
625 DOUGLASS ST,Alvarado Elementary School,37.753682, -122.438193,SIDEWALK,3,6
15 ONONDAGA AVE,Post Office,37.721203, -122.438120,SIDEWALK,1,2
543 DIVISADERO ST,Club Waziema,37.774620, -122.438054,SIDEWALK,1,2
621 DIVISADERO ST,Divisadero Health Haven,37.775322, -122.438045,SIDEWALK,1,2
601 DIVISADERO ST,Bean Bag Cafe,37.775154, -122.438042,SIDEWALK,1,2
537 DIVISADERO ST,Club One,37.774552, -122.438040,SIDEWALK,1,2
531 DIVISADERO ST,Herbivore: The Earthly Grill,37.774485, -122.438027,SIDEWALK,1,2
860 DIVISADERO ST,Green Earth,37.777657, -122.438009,SIDEWALK,1,2
846 DIVISADERO ST,Little Star Pizza,37.777538, -122.437986,SIDEWALK,1,2
425 DIVISADERO ST,multiple,37.773364, -122.437875,SIDEWALK,1,2
4877 MISSION ST,Katz Accident & Injury Center,37.720264, -122.437808,SIDEWALK,2,4
2068 CHESTNUT ST,Chadwick's of London,37.800848, -122.437700,SIDEWALK,1,2
321 DIVISADERO ST,Yoga Loft,37.772558, -122.437681,SIDEWALK,1,2
305 DIVISADERO ST,Comix Experience,37.772415, -122.437608,SIDEWALK,1,2
650 DIVISADERO ST,Alouis Auto Radiator,37.775742, -122.437588,SIDEWALK,1,2
2085 CHESTNUT ST,Pure Beauty,37.800516, -122.437575,SIDEWALK,1,2
3318 STEINER ST,Little Shop,37.800033, -122.437559,SIDEWALK,1,2
600 DIVISADERO ST,Rare Device,37.775177, -122.437517,SIDEWALK,1,2
295 DIVISADERO ST,Elliptical Bodywork,37.772028, -122.437516,SIDEWALK,1,2
628 DIVISADERO ST,The Independent,37.775533, -122.437510,SIDEWALK,1,2
550 DIVISADERO ST,Bi Rite Market,37.774834, -122.437469,SIDEWALK,1,2
560 DIVISADERO ST,Nopa,37.774834, -122.437469,SIDEWALK,1,2
3001 STEINER ST,City Cycle of San Francisco,37.797000, -122.437418,SIDEWALK,1,2
4304 18TH ST,US Post Office,37.760935, -122.437405,SIDEWALK,1,2
4304 18TH ST,US Post Office,37.760935, -122.437405,SIDEWALK,1,2
500 DIVISADERO ST,Madrone Lounge,37.774222, -122.437364,SIDEWALK,1,2
500 DIVISADERO ST,Madrone Lounge,37.774222, -122.437364,SIDEWALK,1,2
512 DIVISADERO ST,SF Hardware,37.774364, -122.437330,SIDEWALK,1,2
4831 MISSION ST,Excelsior Yoga,37.720941, -122.437296,SIDEWALK,1,2
4825 MISSION ST,Ricca's,37.721058, -122.437207,SIDEWALK,1,2
2040 CHESTNUT ST,GapBody,37.800897, -122.437175,SIDEWALK,1,2
1250 HAYES ST,Hayes Convalescent Hospital,37.775419, -122.437117,SIDEWALK,2,4
342 DIVISADERO ST,Black Nose Trading Co.,37.772847, -122.437032,SIDEWALK,1,2
1166 GENEVA AVE,Broken Record Bar and Grill,37.714265, -122.437001,SIDEWALK,1,2
2055 CHESTNUT ST,Wells Fargo,37.800253, -122.436919,SIDEWALK,1,2
2157 LOMBARD ST,,37.799471, -122.436911,SIDEWALK,1,2
286 DIVISADERO ST,Yoga Garden of San Francisco,37.771981, -122.436867,SIDEWALK,3,6
4243 18TH ST,Takara Sushi,37.760586, -122.436846,SIDEWALK,1,2
270 DIVISADERO ST,City Copy and Print Center,37.771708, -122.436833,SIDEWALK,1,2
2016 CHESTNUT ST,T Mobile,37.800953, -122.436738,SIDEWALK,1,2
4166 24TH ST,Swatdee Thai Cuisine,37.751451, -122.435577,SIDWALK,1,2
3130 FILLMORE ST,Espresso Roma Cafe,37.798611, -122.435534,SIDEWALK,1,2
3500 FILLMORE ST,Marina MS,37.801826, -122.435481,SIDEWALK,2,4
4121 18TH ST,Badlands,37.760668, -122.435479,SIDEWALK,1,2
4681 MISSION ST,Filipino Community Center,37.723348, -122.435475,SIDEWALK,1,2
999 OAK ST,Oak Fair Market,37.77322954, -122.43546325,SIDEWALK,1,2
456 CASTRO ST,Qbar,37.761602, -122.435432,SIDEWALK,1,2
432 CASTRO ST,Injeanious Lounge,37.761961, -122.435421,SIDEWALK,1,2
468 CASTRO ST,A.G. Ferrari Foods,37.761399, -122.435412,SIDEWALK,1,2
479 CASTRO ST,Cliff's Variety,37.761330, -122.434682,SIDEWALK,1,
3979 17TH ST,Wild Card,37.762294, -122.434608,SIDEWALK,1,2
525 CASTRO ST,MSC,37.760452, -122.434598,SIDEWALK,2,4
545 CASTRO ST,Best in Show,37.760181, -122.434573,SIDEWALK,1,2
4112 24TH ST,multiple,37.751513, -122.434569,SIDEWALK,1,2
2261 FILLMORE ST,Clay Theatre,37.790456, -122.434480,SIDEWALK,1,2
2261 FILLMORE ST,Clay Theatre,37.790456, -122.434480,SIDEWALK,1,2
2301 FILLMORE ST,Crepevine,37.790939, -122.434426,SIDEWALK,1,2
2225 FILLMORE ST,Cielo,37.790209, -122.434381,SIDEWALK,1,2
4100 24TH ST,Heroine,37.751437, -122.434380,SIDEWALK,1,2
2367 MARKET ST,Bisou French Bistro,37.762839, -122.434352,SIDEWALK,1,2
1314 CASTRO ST,Tierra Mia,37.750996, -122.434336,SIDEWALK,1,2
2344 MARKET ST,,37.763629, -122.434294,SIDEWALK,1,2
2195 FILLMORE ST,Browser Books,37.789598, -122.434286,SIDEWALK,1,2
2834 DIAMOND ST,La Corneta Taqueria,37.734059, -122.434244,SIDEWALK,1,2
4068 18TH ST,Brandy Ho's Hunan Food,37.761161, -122.434231,SIDEWALK,1,2
735 HAIGHT ST,,37.771408, -122.434230,SIDEWALK,1,2
685 CHENERY ST,Glen Park Hardware,37.734350, -122433618,SIDEWALK,1,2
2060 FILLMORE ST,Round Ground Coffee,37.788698, -122.433583,SIDEWALK,1,2
2056 FILLMORE ST,Elizabeth Charles,37.788698, -122.433583,SIDEWALK,1,2
2078 UNION ST,Contrada Bikes,37.797574, -122.433519,SIDEWALK,1,2
2083 UNION ST,Sephora,37.797088, -122.433485,SIDEWALK,1,2
25 STEINER ST,Duboce Park,37.769615, -122.433428,SIDEWALK,2,4
286 NOE ST,,37.764486, -122.433415,SIDEWALK,1,2
3600 16TH ST,Lookout/Squat & Gobble,37.764391, -122.433406,SIDEWALK,2,4
3600 16TH ST,Lookout/Squat & Gobble,37.764391, -122.433406,SIDEWALK,1,2
4068 24TH ST,Qoio,37.751581, -122.433389,SIDEWALK,1,2
1946 FILLMORE ST,Johny Rockets restaurant,37.787823, -122.433359,SIDEWALK,1,2
1501 FILLMORE ST,Starbucks,37.783481, -122.433316,SIDEWALK,1,2
1515 FILLMORE ST,Jubili,37.783481, -122.433316,SIDEWALK,1,2
1740 OFARRELL ST,Fat Angel Wine Bar,37.78348073, -122.43331592,SIDEWALK,1,2
4023 18TH ST,Philz Coffee,37.760765, -122.433295,SIDEWALK,1,2
4023 18TH ST,Philz Coffee,37.760765, -122.433295,SIDEWALK,1,2
668 HAIGHT ST,,37.771995, -122.433281,SIDEWALK,1,2
669 CHENERY ST,The Park Salon,37.734359, -122.433253,SIDEWALK,1,2
1739 OFARRELL ST,Jackson Hewitt Tax Service,37.78305462, -122.43313323,SIDEWALK,1,2
1539 FILLMORE ST,Hats on Fillmore,37.783918, -122.433120,SIDEWALK,1,2
1870 FILLMORE ST,Wine Jar,37.786590, -122.433077,SIDEWALK,1,2
1904 FILLMORE ST,Cassandria Blackmore,37.786590, -122.433077,SIDEWALK,1,2
1201 FILLMORE ST,Chemical Dependency Service,37.780858, -122.433057,SIDEWALK,2,4
653 CHENERY ST,Cara Glass & Sash,37.734302, -122.433005,SIDEWALK,1,2
659 HAIGHT ST,,37.771530, -122.432991,SIDEWALK,1,2
659 HAIGHT ST,,37.771530, -122.432991,SIDEWALK,1,2
2040 UNION ST,Milvali Salon and Cosmetics?,37.797697, -122.432964,SIDEWALK,1,2
4001 18TH ST,Kasa Indian Eatery,37.760820, -122.432958,SIDEWALK,1,2
2275 MARKET ST,,37.764555, -122.432062,SIDEWALK,1,
2275 MARKET ST,,37.764555, -122.432062,SIDEWALK,1,2
501 WALLER ST,Clipper / Wiggle Bicycles,37.770657, -122.432043,SIDEWALK,2,4
63 WALTER ST,The Independent,37.768197, -122.432042,SIDEWALK,2,4
1330 FILLMORE ST,Yoshis,37.781951, -122.431977,SIDEWALK,2,4
588 HAIGHT ST,Interstice Architects Inc.,37.772166, -122.431877,SIDEWALK,1,2
2257 MARKET ST,Peet's Coffee,37.764764, -122.431840,SIDEWALK,1,2
1981 UNION ST,lululemon athletica,37.797322, -122.431810,SIDEWALK,1,2
582 HAIGHT ST,,37.772178, -122.431787,SIDEWALK,1,2
2128 15TH ST,Stop Aids Project,37.766197, -122.431783,SIDEWALK,1,2
2128 15TH ST,stop aids project,37.766197, -122.431783,SIDEWALK,1,2
2 SANCHEZ ST,Duboce Park Cafe,37.769161, -122.431623,SIDEWALK,3,6
3991 24TH ST,Toast Eatery,37.751244, -122.431622,SIDEWALK,1,2
66 SANCHEZ ST,James Howell Yoga Studio,37.768206, -122.431610,SIDEWALK,1,2
2323 SACRAMENTO ST,CPMC,37.789874, -122.431514,SIDEWALK,1,2
1201 NOE ST,Chinese Medicine Works,37.749723, -122.431476,SIDEWALK,2,4
2333 BUCHANAN ST,California Pacific Medical Center,37.790615, -122.431434,SIDEWALK,2,4
2324 SACRAMENTO ST,California Pacific Medical Center,37.790615, -122.431434,SIDEWALK,2,4
2239 MARKET ST,Sweet Inspiration,37.765084, -122.431409,SIDEWALK,1,2
2217 MARKET ST,Bombay Indian Restaurant,37.765084, -122.431409,SIDEWALK,1,2
3979 24TH ST,Sway,37.751216, -122.431311,SIDEWALK,1,2
1345 TURK ST,residential,37.780318, -122.431231,SIDEWALK,2,4
3506 16TH ST,Ike's Place,37.764539, -122.431215,SIDEWALK,1,2
380 SANCHEZ ST,Viking Hair Salon,37.763106, -122.431077,SIDEWALK,1,2
501 FILLMORE ST,Key Food Grocery,37.774178, -122.431047,SIDEWALK,1,2
3804 17TH ST,Refried Cycles,37.762948, -122.431037,SIDEWALK,1,2
25 SANCHEZ ST,Duboce Park Cafe,37.768929, -122.430979,SIDEWALK,1,2
25 SANCHEZ ST,San Francisco Housing Authority,37.768929, -122.430979,SIDEWALK,1,2
1 SANCHEZ ST,Wiggle Rack,37.768929, -122.430979,SIDEWALK,1,2
3963 24TH ST,Vivon's Clothing Store,37.751238, -122.430953,SIDEWALK,1,2
3950 24TH ST,Whole Foods,37.751866, -122.430852,SIDEWALK,3,6
498 SANCHEZ ST,Samovar Tea Lounge,37.761261, -122.430847,SIDEWALK,1,2
525 HAIGHT ST,,37.771849, -122.430845,SIDEWALK,1,2
530 HAIGHT ST,Post All Center,37.772276, -122.430844,SIDEWALK,1,2
530 HAIGHT ST,Mad Dog in the Fog,37.772276, -122.430844,SIDEWALK,1,2
3901 18TH ST,Urban Bread,37.761018, -122.430785,SIDEWALK,1,2
4230 MISSION ST,Castro-J R Appliance Repair,37.729666, -122.430752,SIDEWALK,1,2
2193 MARKET ST,,37.765775, -122.430669,SIDEWALK,1,2
247 FILLMORE ST,Metro Cafe,37.771850, -122.430660,SIDEWALK,1,2
247 FILLMORE ST,Metro Cafe,37.771850, -122.430660,SIDEWALK,1,2
3489 16TH ST,Ike's Place,37.764158, -122.430570,SIDEWALK,2,4
3489 16TH ST,Ike's Place,37.764158, -122.430570,SIDEWALK,1,2
448 HAIGHT ST,Rooky Ricardo's Records,37.772488, -122.42970,PARKING_LANE,6,12
2124 MARKET ST,Blackbird Bar,37.767339, -122.429690,SIDEWALK,1,2
1270 SANCHEZ ST,Bethany United Methodist Church,37.748899, -122.429677,SIDEWALK,2,4
450 CHURCH ST,Everett Middle School,37.763542, -122.429646,PARCEL,10,20
1286 SANCHEZ ST,Family Practice doctor's office,37.748579, -122.429637,SIDEWALK,1,2
1501 OFARRELL ST,Rosa Parks Elementary School,37.78300893, -122.42950434,PARCEL,4,8
1501 OFARRELL ST,Raphael Weill Child Development Center,37.78300893, -122.42950434,PARCEL,8,16
130 CHURCH ST,Golden Natural Foods,37.768854, -122.429443,SIDEWALK,2,4
2100 MARKET ST,Home Restaurant,37.767509, -122.429432,SIDEWALK,2,4
136 CHURCH ST,Taqueria El Castillito,37.768723, -122.429430,SIDEWALK,1,2
3896 24TH ST,Noe Valley Pizza Restaurant,37.751811, -122.429381,SIDEWALK,1,2
172 CHURCH ST,Golden Produce Market,37.768171, -122.429378,SIDEWALK,4,8
1050 MCALLISTER ST,Ella Hill Hutch Communtiy Center,37.779421, -122.429321,SIDEWALK,1,2
762 FULTON ST,African American Arts & Culture Complex,37.778282, -122.429259,SIDEWALK,1,2
248 CHURCH ST,Thorough Bread& Pastry,37.766628, -122.429141,SIDEWALK,1,2
242 CHURCH ST,Sparky's,37.766628, -122.429141,SIDEWALK,1,2
3870 24TH ST,Ladybug Ladybug,37.751842, -122.429057,SIDEWALK,1,2
1801 GREEN ST,Golden Gate Valley Branch Library,37.796789, -122.429023,SIDEWALK,1,2
1801 GREEN ST,Golden Gate Valley Branch Library,37.796789, -122.429023,SIDEWALK,7,14
314 CHURCH ST,Chili Pie,37.765894, -122.428983,SIDEWALK,1,2
3858 24TH ST,Spectacles for Humans,37.751813, -122.428881,SIDEWALK,1,2
3705 17TH ST,Lyttle Chiropractic,37.762696, -122.428727,SIDEWALK,1,2
3705 17TH ST,Lyttle Chiropractic,37.762696, -122.428727,SIDEWALK,1,2
510 CHURCH ST,Balboa Pool,37.762712000000001, -122.428641,SIDEWALK,1,2
1579 SANCHEZ ST,Noe Valley Physical Therapy,37.743914, -122.428601,SIDEWALK,1,2
3801 18TH ST,Lilah Belle's,37.761089, -122.428521,SIDEWALK,1,2
2077 MARKET ST,Bay Liquores/Photoworks,37.767485, -122.428415,SIDEWALK,1,2
145 BOSWORTH ST,New Bosworth Market,37.733272, -122.428354,SIDEWALK,1,2
3838 24TH ST,The Dubliner,37.751832, -122.428328,SIDEWALK,1,2
445 CHURCH ST,Children's Council of San Francisco,37.763754, -122.428205,SIDEWALK,1,2
445 CHURCH ST,Children's Council of San Francisco,37.763754, -122.428205,SIDEWALK,1,2
445 CHURCH ST,Children's Council of San Francisco,37.763754, -122.428205,SIDEWALK,1,2
440 PAGE ST,Page Street Community Garden,37.77362331, -122.42810150,SIDEWALK,1,2
990 CHURCH ST,Theresa S. Mahler CDC (PreK),37.755275, -122.428095,SIDEWALK,1,2
3821 24TH ST,Noe Valley Wine Merchants,37.751419, -122.427941,SIDEWALK,1,2
698 HAYES ST,Hayes Market,37.776466, -122.427782,SIDEWALK,1,2
4056 MISSION ST,SF Electrical Training Facility,37.732813, -122.427719,SIDEWALK,2,4
3800 24TH ST,Noe Valley Fit Lite Gym,37.751925, -122.427685,SIDEWALK,1,2
3800 24TH ST,24 Hour Fitness Fit Lite,37.751925, -122.427685,SIDEWALK,2,4
1700 FILBERT ST,MJB Coffee,37.799281, -122.427674,SIDEWALK,1,2
2041 MARKET ST,salon baobao,37.768193, -122.427527,SIDEWALK,1,2
1360 CHURCH ST,,37.749049, -122.427470,SIDEWALK,1,2
1326 CHURCH ST,Valley Chiropractic,37.749529, -122.427416,SIDEWALK,1,2
1326 CHURCH ST,Valley Chiropractic,37.749529, -122.427416,SIDEWALK,1,2
1500 CHURCH ST,,37.746751, -122.427243,SIDEWALK,1,2
1508 CHURCH ST,,37.746607, -122.427228,SIDEWALK,1,2
1550 CHURCH ST,Incanto Restaurant,37.745943, -122.427201,SIDEWALK,2,4
3782 24TH ST,Basso's,37.751835, -122.427146,SIDEWALK,1,2
1694 UNION ST,Mudpie,37.798373, -122.427100,SIDEWALK,2,4
298 MUNICH ST,Golden State Market,37.721102, -122.427002,SIDEWALK,1,2
300 PAGE ST,San Francisco Zen Center,37.773884, -122.426055,PARKING_ANE,6,12
300 PAGE ST,San Francisco Zen Center,37.773884, -122.426055,SIDEWALK,2,4
570 GROVE ST,,37.777721, -122.425974,SIDEWALK,1,2
5 MURRAY ST,Metreon,37.733829, -122.425854,SIDEWALK,1,2
100 CHENERY ST,Chenery Market,37.739678, -122.425819,SIDEWALK,1,2
299 DOLORES ST,Holy Family School,37.764992, -122.425798,SIDEWALK,2,4
579 HAYES ST,Frjtz Gourmet Belgian Fies,37.776264, -122.425767,SIDEWALK,1,2
575 HAYES ST,Sean,37.776264, -122.425767,SIDEWALK,1,2
455 DOLORES ST,Dolores Park Church,37.762078, -122.425754,SIDEWALK,1,2
455 DOLORES ST,Dolores Park Church,37.762078, -122.425754,SIDEWALK,1,2
555 FULTON ST,residential,37.778168, -122.425752,SIDEWALK,1,2
555 FULTON ST,multiple,37.778168, -122.425752,SIDEWALK,1,2
3692 18TH ST,Bi-Rite Creamery,37.761586, -122.425715,PARKING_LANE,7,14
501 DOLORES ST,Dolores Park Cafe,37.761320, -122.425711,SIDEWALK,2,4
3689 18TH ST,Dolores Park Chiropractic,37.76132014, -122.42571074,SIDEWALK,1,2
3579 17TH ST,Studio For Urban Projects,37.762899, -122.425616,SIDEWALK,1,2
3579 17TH ST,Critter Salon,37.762899, -122.425616,SIDEWALK,1,2
3271 16TH ST,Laughing Lotus Yoga Center,37.764434, -122.425599,SIDEWALK,2,4
3271 16TH ST,Laughing Lotus Yoga Center,37.764434, -122.425599,SIDEWALK,2,4
1900 MARKET ST,Orbit Room,37.770641, -122.425406,SIDEWALK,2,4
1906 MARKET ST,Little Hollywood Launderette,37.770641, -122.425406,SIDEWALK,1,2
539 HAYES ST,Alla Prima Fine Lingerie,37.776398, -122.425264,SIDEWALK,1,2
1300 DOLORES ST,Luv A Java,37.748490, -122.425176,SIDEWALK,1,2
1300 DOLORES ST,Luv A Java,37.748490, -122.425176,SIDEWALK,1,2
3245 16TH ST,Creativity Explored,37.764468, -122.425015,SIDEWALK,2,4
519 HAYES ST,Yoga Tree,37.776434, -122.425002,SIDEWALK,1,2
519 HAYES ST,,37.776434, -122.425002,SIDEWALK,1,2
541 OCTAVIA ST,,37.777257, -122.424957,SIDEWALK,1,2
508 HAYES ST,Lavish,37.776816, -122.424912,SIDEWALK,1,2
506 HAYES ST,Timbuk2,37.776816, -122.424912,PARKING_LANE,6,12
516 HAYES ST,Acme Surplus,37.776816, -122.424912,SIDEWALK,1,2
3232 16TH ST,Crazy Sushi,37.764990, -122.424904,SIDEWALK,1,2
3235 16TH ST,Barnets,37.764475, -122.424884,SIDEWALK,1,2
508 14TH ST,Care Practice Medical Office,37.768190, -122.424880,SIDEWALK,1,2
449 OCTAVIA ST,Miette Confiserie candy store,37.776393, -122.424756,SIDEWALK,1,2
501 HAYES ST,Stacks Restaurant,37.776393, -122.424756,SIDEWALK,1,2
1600 DOLORES ST,O'Greenbergs,37.743675, -122.424712,SIDEWALK,1,2
198 GUERRERO ST,Mission Beach Cafe,37.768139, -122.424702,SIDEWALK,1,2
600 OCTAVIA ST,Seesaw LLC Cafe,37.777813, -122.424683,SIDEWALK,2,4
3639 18TH ST,Bi-Rite Market,37.761285, -122.424680,SIDEWALK,1,2
498 HAYES ST,Octavia's Haze gallery,37.776796, -122.424508,SIDEWALK,1,2
380 GUERRERO ST,Orange,37.765170, -122.424437,SIDEWALK,1,2
1514 UNION ST,Black Horse London Deli,37.798640, -122.424426,SIDEWALK,1,2
3839 MISSION ST,Giovanni's Pizza,37.735522, -122.424367,SIDEWALK,1,2
482 HAYES ST,Flipper's restaurant,37.776915, -122.424351,SIDEWALK,1,2
3200 16TH ST,Elixir Bar,37.76499218, -122.42433045,SIDEWALK,1,2
201 OCTAVIA ST,Mercury Cafe,37.773993, -122.424323,SIDEWALK,1,2
203 OCTAVIA ST,Straw Carnival Fare,37.773993, -122.424323,SIDEWALK,1,2
3614 18TH ST,Fayes Video,37.761733, -122.424292,SIDEWALK,1,2
42 WALLER ST,Chinese American International School,37.772228, -122.424230,SIDEWALK,1,2
1853 MARKET ST,The Dailey Method,37.770780, -122.424228,SIDEWALK,1,2
3505 17TH ST,Claire's Deli,37.763009, -122.424214,SIDEWALK,1,2
3505 17TH ST,Claire's Deli,37.763009, -122.424214,SIDEWALK,1,2
500 GUERRERO ST,500 Club,37.763009, -122.424214,SIDEWALK,2,4
3621 18TH ST,Delfina,37.761362, -122.424189,PARKING_LANE,6,12
3621 18TH ST,Delfina,37.761362, -122.424189,SIDEWALK,1,2
3605 18TH ST,residential,37.761362, -122.424189,SIDEWALK,3,6
424 OCTAVIA ST,Biergarten/Patricia's Green,37.776039, -122.424176,SIDEWALK,4,8
494 14TH ST,Box Dog Bikes / Thieve's Tavern,37.768215, -122.424173,PARKING_LANE,5,10
496 14TH ST,Thieve's Tavern,37.768215, -122.424173,SIDEWALK,2,4
201 GUERRERO ST,Studio Guell,37.767853, -122.424167,SIDEWALK,2,4
1150 FRANCISCO ST,Galileo HS,37.803790, -122.424145,PARCEL,4,8
448 GROVE ST,Oxenrose Salon,37.777885, -122.424119,SIDEWALK,1,2
448 GROVE ST,Oxenrose salon,37.777885, -122.424119,SIDEWALK,1,2
465 GROVE ST,Double Decker restaurant,37.777451, -122.424091,SIDEWALK,2,4
1551 DOLORES ST,Noeteca,37.744536, -122.424071,SIDEWALK,1,2
1800 MARKET ST,LGBT Community Center,37.771778, -122.424028,SIDEWALK,1,6
483 14TH ST,Mission Junk,37.767863, -122.423994,SIDEWALK,1,2
487 14TH ST,dreamers & make believers salon,37.767863, -122.423994,SIDEWALK,2,4
1010 GOUGH ST,Family Service Agency of SF,37.782762, -122.423925,SIDEWALK,3,6
381 GUERRERO ST,,37.765151, -122.423890,SIDEWALK,1,2
3648 24TH ST,St. James School,37.752081, -122.423851,SIDEWALK,1,2
,Lily and Octavia (Garden for SF Homeless Connect),37.77416534, -122.42383957,SIDEWALK,1,2
499 GUERRERO ST,Hom's Grocery & Liquor,37.763298, -122.423730,SIDEWALK,1,2
445 HAYES ST,Sing Lee laundry,37.776530, -122.423686,SIDEWALK,1,2
888 TURK ST,,37.781878, -122.423645,SIDEWALK,1,2
3169 16TH ST,Artist Xchange,37.76452199, -122.42364107,SIDEWALK,1,2
3189 16TH ST,Malai Thai restaurant,37.76452199, -122.42364107,SIDEWALK,1,2
599 GUERRERO ST,Pay N Save store,37.761768, -122.423615,SIDEWALK,1,2
593 GUERRERO ST,18 Reasons,37.761768, -122.423615,SIDEWALK,1,2
539 GOUGH ST,Krav Maga Institute,37.778420, -122.423562,SIDEWALK,1,2
998 GUERRERO ST,Liberties Irish Bar,37.755279, -122.423539,SIDEWALK,1,2
3416 22ND ST,Shear Delight Hair Salon,37.75527943, -122.42353557,SIDEWALK,1,2
1700 JACKSON ST,,37.794021, -122.423502,SIDEWALK,1,2
257 OAK ST,Advanced Allergy Solutions,37.774643, -122.423489,SIDEWALK,1,2
589 GUERRERO ST,Buen Dia Family School,37.761934, -122.423453,SIDEWALK,1,2
1835 VAN NESS AVE,Academy of Art University,37.792633, -122.423428,SIDEWALK,1,2
416 HAYES ST,Gimme Shoes,37.777073, -122.423408,SIDEWALK,1,2
770 GOLDEN GATE AVE,,37.780909, -122.423396,SIDEWALK,1,2
3170 16TH ST,Big Lantern restaurant,37.76508342, -122.42338851,SIDEWALK,1,2
330 FELL ST,,37.776067, -122.423369,SIDEWALK,1,2
2001 VAN NESS AVE,,37.794087, -122.423346,SIDEWALK,1,2
3159 16TH ST,Gestalt Haus,37.764570, -122.423300,SIDEWALK,1,2
1111 OFARRELL ST,Urban Life Center,37.78424924, -122.42328652,SIDEWALK,1,2
3160 16TH ST,Kilowatt Bar,37.765062, -122.423249,SIDEWALK,1,2
144 PAGE ST,Nick's Supermarket,37.774243, -122.423232,SIDEWALK,2,4
1198 GUERRERO ST,24 Guerrero Cleaners,37.752101, -122.423204,SIDEWALK,1,2
1198 GUERRERO ST,24 Guerrero Cleaners,37.752101, -122.423204,SIDEWALK,1,2
3153 16TH ST,Candystore Collective,37.764618, -122.423201,SIDEWALK,1,2
320 FELL ST,Fatted Calf Charcuterie,37.776160, -122.423195,SIDEWALK,2,4
411 HAYES ST,,37.776597, -122.423156,SIDEWALK,1,2
401 HAYES ST,Christopher Elbow Artisan Chocolates,37.776717, -122.423128,SIDEWALK,1,2
939 EDDY ST,SF Gov Offices: Senior Developments,37.782316, -122.423112,SIDEWALK,1,2
1720 MARKET ST,VACANT (was: The Happiness Institute),37.77254418, -122.42310203,SIDEWALK,1,2
1760 MARKET ST,Rebel Bar,37.772544, -122.423102,SIDEWALK,1,2
59 30TH ST,Stefano's Restaurant,37.742111, -122.423092,SIDEWALK,1,2
1821 SACRAMENTO ST,Alcholics Anonymous,37.790817, -122.422995,SIDEWALK,1,2
3141 16TH ST,Monk's Kettle,37.764631, -122.422973,SIDEWALK,1,2
1477 VAN NESS AVE,,37.789050, -122.422956,SIDEWALK,1,2
1001 GUERRERO ST,Beast and the Hare,37.754941, -122.422930,SIDEWALK,1,2
3394 22ND ST,Lone Palm Cocktail Bar,37.75539777, -122.42292181,SIDEWALK,1,2
3456 MISSION ST,El Ahorro,37.741458, -122.422902,SIDEWALK,1,2
688 SAN JOSE AVE,,37.744182, -122.422896,SIDEWALK,1,2
8 VALENCIA ST,Mission Bubbles / Verve Coffee,37.771874, -122.422866,SIDEWALK,2,4
170 VALENCIA ST,Baha'i Faith,37.770431, -122.422848,SIDEWALK,1,2
1400 GUERRERO ST,,37.748621, -122.422844,SIDEWALK,1,2
3385 22ND ST,Hazel & Gertie's Store,37.754948, -122.422801,SIDEWALK,1,2
460 GOUGH ST,Welcome Stranger,37.777604, -122.422764,SIDEWALK,1,2
399 GROVE ST,Boxing Room,37.777604, -122.422764,SIDEWALK,1,2
385 GROVE ST,,37.777604, -122.422764,SIDEWALK,1,2
399 GROVE ST,Boxing Room,37.777604, -122.422764,SIDEWALK,1,2
399 GROVE ST,Boxing Room,37.777604, -122.422764,SIDEWALK,2,4
3438 MISSION ST,Cafe St. Jorge,37.741668, -122.422726,SIDEWALK,1,2
3438 MISSION ST,Cafe St. Jorge,37.741668, -122.422726,SIDEWALK,1,2
417 14TH ST,Asta Yoga,37.767842, -122.422709,SIDEWALK,2,4
372 HAYES ST,multiple,37.777141, -122.422689,SIDEWALK,1,2
396 HAYES ST,,37.777141, -122.422689,SIDEWALK,1,2
334 GOUGH ST,Bibliohead Bookstore,37.776659, -122.422669,SIDEWALK,1,2
300 GOUGH ST,Walgreens,37.776104, -122.422666,SIDEWALK,1,2
3135 16TH ST,Sam's Shoe Service,37.764650, -122.422665,SIDEWALK,1,2
1546 GUERRERO ST,,37.746483, -122.422663,SIDEWALK,1,2
214 VALENCIA ST,"Andrew Lesko, DC",37.769548, -122.422633,SIDEWALK,1,2
220 VALENCIA ST,SF Community Acupunture,37.769443, -122.422623,SIDEWALK,1,2
1201 GUERRERO ST,Watermelon Sugar Salon,37.751836, -122.422620,SIDEWALK,1,2
228 VALENCIA ST,Fix Studios,37.769337, -122.422613,SIDEWALK,1,2
3122 16TH ST,Pork Store Cafe,37.765125, -122.422612,SIDEWALK,1,2
3376 22ND ST,Avantguard Locksmith,37.75545192, -122.42257142,SIDEWALK,1,2
1660 PACIFIC AVE,TRX Training Centers,37.79515680, -122.42256910,SIDEWALK,1,2
260 VALENCIA ST,Pauline's Pizza,37.768654, -122.422565,SIDEWALK,1,2
2323 POLK ST,,37.798223, -122.422532,SIDEWALK,1,2
298 VALENCIA ST,Carlin's Cafe,37.768304, -122.422531,SIDEWALK,1,2
360 GROVE ST,Performing Arts Garage,37.778180, -122.422523,GARAGE,6,12
1600 GUERRERO ST,New Alternatives Cafe,37.745435, -122.422521,SIDEWALK,1,2
302 VALENCIA ST,The Skunk Funk,37.767855, -122.422484,SIDEWALK,1,2
304 VALENCIA ST,Glama Rama,37.767855, -122.422484,SIDEWALK,2,4
474 VALENCIA ST,Centro del Pueblo,37.765409, -122.422417,SIDEWALK,1,2
3117 16TH ST,Roxie Theater,37.764623, -122.422415,SIDEWALK,1,2
3125 16TH ST,Little Roxie Cinema,37.76462344, -122.42241452,SIDEWALK,1,2
400 VALENCIA ST,Little Star Pizza,37.766378, -122.422413,SIDEWALK,2,4
159 LINDA ST,Mission Pool,37.75930484, -122.42238751,SIDEWALK,1,2
3555 19TH ST,Mission Playground ,37.759305, -122.422388,PARCEL,1,2
159 LINDA ST,Mission Pool,37.75930484, -122.42238751,SIDEWALK,1,2
2239 POLK ST,Greens Sports Bar,37.797548, -122.422361,SIDEWALK,1,2
2239 POLK ST,Greens Sports Bar,37.797548, -122.422361,SIDEWALK,1,2
182 GOUGH ST,Dawa Advanced Medical Clinic,37.774870, -122.422356,SIDEWALK,1,2
3471 MISSION ST,Angkor Borei,37.741203, -122.422342,SIDEWALK,1,2
1320 SUTTER ST,,37.787741, -122.422309,SIDEWALK,1,2
1303 VAN NESS AVE,,37.787741, -122.422309,SIDEWALK,1,2
2227 POLK ST,Pesce Seafood Bar,37.797249, -122.422300,SIDEWALK,1,2
94 29TH ST,New Mission Acupuncture,37.744171, -122.422276,SIDEWALK,1,2
78 29TH ST,Cafe Seventy8,37.744171, -122.422276,SIDEWALK,1,2
3100 16TH ST,Val 16 Market,37.76513944, -122.42223293,SIDEWALK,2,4
1115 GEARY BLVD,residential,37.785378, -122.422191,SIDEWALK,1,2
3398 MISSION ST,Walgreens,37.742562, -122.422191,SIDEWALK,1,2
3350 MISSION ST,Safeway,37.743213, -122.422190,SIDEWALK,1,2
2141 POLK ST,Street Restaurant,37.796487, -122.422173,SIDEWALK,1,2
177 VALENCIA ST,Chase Bank,37.770271, -122.422163,SIDEWALK,2,4
510 VALENCIA ST,Five & Diamond,37.764664, -122.422160,SIDEWALK,1,2
508 VALENCIA ST,Mariachi's Taqueria (CLOSED),37.764664, -122.422160,SIDEWALK,1,2
518 VALENCIA ST,Abandoned Planet bookstore (out of business),37.764497, -122.422144,SIDEWALK,1,2
524 VALENCIA ST,Limon Rotisserie,37.764415, -122.422136,SIDEWALK,1,2
530 VALENCIA ST,Thai House 530,37.764333, -122.422128,SIDEWALK,1,2
546 VALENCIA ST,Puero Alegre restaurant,37.764138, -122.422109,SIDEWALK,7,14
199 VALENCIA ST,Zeitgeist,37.770028, -122.422098,SIDEWALK,8,16
80 29TH ST,Rock Bar,37.744141, -122.422072,SIDEWALK,1,2
210 FELL ST,,37.776304, -122.422068,SIDEWALK,1,2
261 FELL ST,Advent of Christ the King,37.775781, -122.422067,SIDEWALK,1,2
78 GOUGH ST,Department Seventeen,37.773435, -122.422066,SIDEWALK,1,2
1686 MARKET ST,Espetus Churrascaria Brazilian Steak House,37.773435, -122.422066,SIDEWALK,2,4
66 GOUGH ST,Fecal Face Dot Gallery (closed),37.773428, -122.422063,SIDEWALK,1,2
151 VALENCIA ST,San Francisco Computer Repair,37.77115203, -122.42205937,SIDEWALK,1,2
584 VALENCIA ST,Wo Hing General Store,37.763612, -122.422059,SIDEWALK,1,2
207 VALENCIA ST,,37.769620, -122.422059,SIDEWALK,1,2
598 VALENCIA ST,El Toro Taqueria,37.763448, -122.422043,SIDEWALK,1,2
594 VALENCIA ST,residential,37.763448, -122.422043,SIDEWALK,1,2
225 VALENCIA ST,SF Independent Living Skills Program,37.769442, -122.422042,SIDEWALK,1,2
630 VALENCIA ST,SFPD Mission Station,37.762848, -122.422005,SIDEWALK,6,12
1640 VAN NESS AVE,,37.791006, -122.421999,SIDEWALK,1,2
1695 MARKET ST,Delessio Market & Bakery,37.772551, -122.421932,SIDEWALK,2,4
696 VALENCIA ST,F.S.C Barber,37.761813, -122.421906,SIDEWALK,2,4
696 VALENCIA ST,Amore Animal Supply,37.761813, -122.421906,SIDEWALK,1,2
2001 POLK ST,Cheese Plus,37.795230, -122.421832,SIDEWALK,2,4
746 VALENCIA ST,Outfit Generic,37.760957, -122.421824,SIDEWALK,1,2
2254 POLK ST,Cole Hardware,37.797497, -122.421808,SIDEWALK,1,2
2254 POLK ST,Cole Hardware,37.797497, -122.421808,SIDEWALK,1,2
2222 POLK ST,Polk & Green Produce Market,37.797497, -122.421808,SIDEWALK,1,2
766 VALENCIA ST,Mission Bicycle Company,37.760649, -122.421795,SIDEWALK,5,10
762 VALENCIA ST,Cha-Ya restaurant,37.760753, -122.421787,SIDEWALK,1,2
375 VALENCIA ST,Four Barrel Coffee,37.767017, -122.421772,SIDEWALK,4,8
395 VALENCIA ST,Nooworks,37.76681106, -122.42175253,SIDEWALK,1,2
1686 15TH ST,Bridges Architecture,37.76681106, -122.42175253,SIDEWALK,1,2
2208 POLK ST,Les Cent Culottes?,37.797161, -122.421736,SIDEWALK,1,2
405 VALENCIA ST,Hotel Royan,37.766409, -122.421714,SIDEWALK,1,2
401 VALENCIA ST,Pica Pica Maize Kitchen,37.766409, -122.421714,SIDEWALK,1,2
333 VALENCIA ST,The Fog Building,37.767685, -122.421690,SIDEWALK,1,2
333 VALENCIA ST,The Fog Building,37.76768496, -122.42169002,SIDEWALK,1,2
826 VALENCIA ST,,37.759550, -122.421689,SIDEWALK,1,2
1825 POLK ST,High Trails Cyclery,37.793836, -122.421649,SIDEWALK,2,4
1841 POLK ST,Radio Shack,37.793836, -122.421649,SIDEWALK,1,2
2164 POLK ST,Crave,37.796791, -122.421644,SIDEWALK,1,2
455 VALENCIA ST,Studio Valencia,37.765650, -122.421641,SIDEWALK,1,2
455 VALENCIA ST,Samasource,37.765650, -122.421641,SIDEWALK,1,2
866 VALENCIA ST,Peets Coffee Shop,37.758982, -122.421635,SIDEWALK,1,2
1658 MARKET ST,Zuni Caf,37.77359976, -122.42160815,SIDEWALK,3,6
1658 MARKET ST,Zuni Caf,37.77359976, -122.42160815,SIDEWALK,2,4
3602 20TH ST,Ruby,37.75870599, -122.42160813,SIDEWALK,1,2
3080 16TH ST,Forest Books,37.765176, -122.421596,SIDEWALK,1,2
40 PAGE ST,"Pilates on Page, Pop!",37.774451, -122.421596,SIDEWALK,1,2
231 FRANKLIN ST,nojo restaurant,37.776796, -122.421586,SIDEWALK,2,4
1813 POLK ST,Maneframe,37.793576, -122.421585,SIDEWALK,1,2
1414 VAN NESS AVE,,37.788846, -122.421555,SIDEWALK,1,2
155 APPLETON AVE,Juinipero Serra Annex CC,37.738777, -122.421528,SIDEWALK,1,2
900 VALENCIA ST,Dog Eared Books,37.75825474, -122.42152025,SIDEWALK,1,2
914 VALENCIA ST,Freewheel,37.758252, -122.421519,PARKING_LANE,6,12
2120 POLK ST,Walgreens,37.796372, -122.421510,SIDEWALK,1,2
815 EDDY ST,Electronic Frontier Foundation,37.782545, -122.421505,SIDEWALK,2,4
559 VALENCIA ST,Curtis Hotel,37.764010, -122.421505,SIDEWALK,6,12
2040 POLK ST,Molte Cose,37.795678, -122.421498,SIDEWALK,1,2
938 VALENCIA ST,,37.757914, -122.421498,SIDEWALK,1,2
33 GOUGH ST,San Francisco Community College Distric,37.772055, -122.421271,SIDEWALK,1,2
1900 POLK ST,Bell Tower,37.794339, -122.421240,SIDEWALK,1,2
1100 VALENCIA ST,Lucca Raviola,37.755171, -122.421210,SIDEWALK,1,2
1128 VALENCIA ST,Apt/Unknown,37.754682, -122.421200,SIDEWALK,1,2
1132 VALENCIA ST,,37.754682, -122.421200,SIDEWALK,1,2
1152 VALENCIA ST,B^3 Artisan Wine Burgers,37.754467, -122.421195,SIDEWALK,1,2
1285 SUTTER ST,multiple,37.787353, -122.421189,SIDEWALK,2,4
1285 SUTTER ST,multiple,37.787353, -122.421189,SIDEWALK,2,4
777 VALENCIA ST,multiple,37.760565, -122.421188,SIDEWALK,9,18
2055 SUNNYDALE AVE,John McLaren CDC (PreK & SA),37.712404, -122.421173,SIDEWALK,1,2
3491 19TH ST,Valencia Eyewear,37.759948, -122.421129,SIDEWALK,1,2
803 VALENCIA ST,Art Mart Store,37.759948, -122.421129,SIDEWALK,1,2
1605 POLK ST,Royal Grounds Coffee,37.791658, -122.421120,SIDEWALK,1,2
4 BRADY ST,Louie Hair Salon,37.773213, -122.421117,SIDEWALK,1,2
1651 MARKET ST,,37.773213, -122.421117,SIDEWALK,1,2
819 VALENCIA ST,,37.759764, -122.421111,SIDEWALK,1,2
3071 16TH ST,Pancho Villa Tacqueria,37.764696, -122.421082,SIDEWALK,1,2
3409 23RD ST,Quetzalcoatz Tattoo,37.753485, -122.421073,SIDEWALK,1,2
853 VALENCIA ST,Amnesia,37.759319, -122.421068,SIDEWALK,2,4
1541 POLK ST,,37.791083, -122.421055,SIDEWALK,1,2
1234 VALENCIA ST,Yoga Tree,37.753105, -122.421046,PARKING_LANE,5,10
1218 VALENCIA ST,Cut Loose,37.753346, -122.421041,SIDEWALK,1,2
3388 17TH ST,Core Pilates,37.763577, -122.421036,SIDEWALK,1,2
1270 VALENCIA ST,Heart Wine Bar / Arizmendi,37.752546, -122.421014,PARKING_LANE,6,12
1515 POLK ST,Nara Sushi,37.790828, -122.420969,SIDEWALK,1,2
44 GOUGH ST,multiple,37.772712, -122.420966,SIDEWALK,1,2
901 VALENCIA ST,La Rondalla Restaurant,37.758351, -122.420958,SIDEWALK,1,2
3409 24TH ST,Papalote Mexican Grill,37.751940, -122.420943,SIDEWALK,1,2
3409 24TH ST,Papalote,37.751940, -122.420943,SIDEWALK,1,2
3409 24TH ST,Papalote,37.751940, -122.420943,SIDEWALK,1,2
3409 24TH ST,Papalote's Restaurant,37.751940, -122.420943,SIDEWALK,1,2
1304 VALENCIA ST,Muddy Waters coffee shop,37.751851, -122.420935,SIDEWALK,1,2
1760 POLK ST,La Parilla Grill Restaurant,37.793124, -122.420907,SIDEWALK,1,2
955 VALENCIA ST,,37.757654, -122.420892,SIDEWALK,1,2
3555 CESAR CHAVEZ ST,St Lukes Hospital Main entrance,37.747165, -122.420882,SIDEWALK,1,2
1360 VALENCIA ST,Painted Bird - Clothing,37.751054, -122.420858,SIDEWALK,1,2
985 VALENCIA ST,Dosa,37.757224, -122.420850,PARKING_LANE,6,12
985 VALENCIA ST,,37.757224, -122.420850,SIDEWALK,1,2
999 VALENCIA ST,Valencia Whole Foods,37.75708270, -122.42083810,SIDEWALK,1,2
1380 VALENCIA ST,Apt/Unknown,37.750802, -122.420834,SIDEWALK,1,2
1398 VALENCIA ST,Women's Initiative for Self Employment,37.750649, -122.420820,SIDEWALK,1,2
3285 21ST ST,Jay's Cheesesteak?,37.756798, -122.420810,SIDEWALK,1,2
3464 19TH ST,Lexington Club,37.76034427, -122.42079980,SIDEWALK,1,2
1732 POLK ST,Le Petit Marchet,37.792902, -122.420796,SIDEWALK,1,2
3250 MISSION ST,Bank of America,37.744873, -122.420795,SIDEWALK,1,2
1406 VALENCIA ST,Green Chiropractic Clinic,37.750312, -122.420787,SIDEWALK,1,2
1243 SUTTER ST,Natural Mattress Store,37.787406, -122.420769,SIDEWALK,1,2
1517 PINE ST,,37.789395, -122.420757,SIDEWALK,1,2
1432 VALENCIA ST,Pi Bar,37.749908, -122.420748,SIDEWALK,1,2
1432 VALENCIA ST,Pi Bar,37.749908, -122.420748,PARKING_LANE,5,10
1452 VALENCIA ST,EHS Pilates,37.749612, -122.420720,PARKING_LANE,2,4
1452 VALENCIA ST,EHS Pilates,37.749612, -122.420720,SIDEWALK,1,2
1452 VALENCIA ST,EHS Pilates,37.749612, -122.420720,SIDEWALK,1,2
42 HOFF ST,16th & Hoff Garage,37.764367, -122.420709,GARAGE,3,6
3338 17TH ST,condos,37.763598, -122.420699,SIDEWALK,1,2
1099 VALENCIA ST,Boogaloos,37.75548474, -122.42068142,PARKING_LANE,6,12
3286 22ND ST,Latin American Club,37.75548474, -122.42068142,SIDEWALK,1,2
1055 VALENCIA ST,,37.756092, -122.420681,SIDEWALK,1,2
1630 POLK ST,True Value Hardware,37.792031, -122.420680,SIDEWALK,1,2
3042 16TH ST,Mission Hiring Hall,37.765232, -122.420676,SIDEWALK,2,4
1069 VALENCIA ST,The Lotus Center,37.755855, -122.420669,SIDEWALK,1,2
1498 VALENCIA ST,Dovre Club,37.74902617, -122.42066401,SIDEWALK,1,2
1331 POLK ST,Chai Yo Thai Restaurant,37.789246, -122.420653,SIDEWALK,1,2
3295 22ND ST,Esperpento Restaurant?,37.755158, -122.420653,SIDEWALK,1,2
1109 VALENCIA ST,,37.755158, -122.420653,SIDEWALK,1,2
3458 18TH ST,The Mission Statement,37.761966, -122.420620,SIDEWALK,1,2
1620 POLK ST,Good Vibrations,37.791912, -122.420596,SIDEWALK,1,2
3309 MISSION ST,Bad Joes Body Shop,37.743917, -122.420592,SIDEWALK,2,4
1580 VALENCIA ST,,37.747560, -122.420576,SIDEWALK,1,2
65 TIFFANY AVE,residential,37.745701, -122.420554,SIDEWALK,1,2
1199 VALENCIA ST,Beretta,37.753848, -122.420553,SIDEWALK,1,2
1592 MARKET ST,Market Street Cycles,37.774578, -122.420535,SIDEWALK,2,4
1596 MARKET ST,Cupboard Pastry,37.774578, -122.420535,SIDEWALK,3,6
20 FRANKLIN ST,,37.774578, -122.420535,SIDEWALK,1,2
3274 21ST ST,Serrano's Pizza & Pasta,37.757142, -122.420517,SIDEWALK,1,2
3266 21ST ST,Gravel & Gold,37.757142, -122.420517,SIDEWALK,1,2
155 FELL ST,Rickshaw Shop,37.775985, -122.420460,SIDEWALK,1,2
155 FELL ST,Rickshaw Shop,37.775985, -122.420460,SIDEWALK,1,2
3218 MISSION ST,Blue Plate,37.745275, -122.420435,SIDEWALK,1,2
3032 16TH ST,La Loma Produce,37.765255, -122.420415,SIDEWALK,2,4
1299 VALENCIA ST,Valencia Farmer's Market,37.75224685, -122.42037430,PARKING_LANE,4,8
3388 24TH ST,Phat Philly,37.752247, -122.420374,SIDEWALK,1,2
1498 POLK ST,Out of the Closet,37.790439, -122.420368,SIDEWALK,1,2
3202 MISSION ST,Royal Cuckoo,37.74539687, -122.42035593,SIDEWALK,1,2
790 VAN NESS AVE,Cafe Sapore,37.782695, -122.420340,SIDEWALK,1,2
1776 MISSION ST,Mr. Scooter,37.768682, -122.420335,SIDEWALK,1,2
1650 VALENCIA ST,medical building,37.746157, -122.420328,SIDEWALK,1,2
1125 VALENCIA ST,CCSF Mission Campus,37.754847, -122.420304,SIDEWALK,1,2
1436 POLK ST,Polk Street Boxing Gym,37.790266, -122.420299,SIDEWALK,1,2
1436 POLK ST,Polk Street Boxing Gym,37.790266, -122.420299,SIDEWALK,1,2
3030 16TH ST,Arman One Dollar Only,37.765372, -122.420295,SIDEWALK,1,2
50 OAK ST,SF Conservatory of Music,37.775569, -122.420277,SIDEWALK,3,6
3255 21ST ST,Mission Bartlett Garage,37.756164, -122.420259,GARAGE,9,18
1355 VALENCIA ST,Murphy Investments Property Management,37.751292, -122.420235,SIDEWALK,1,2
1365 VALENCIA ST,Dutailier,37.751155, -122.420222,SIDEWALK,1,2
3269 MISSION ST,SF Federal Credit Union,37.744415, -122.420222,SIDEWALK,2,4
1334 POLK ST,Polk Street Produce,37.789322, -122.420203,SIDEWALK,1,2
1387 VALENCIA ST,Synergy School,37.75087429, -122.42019976,SIDEWALK,2,4
1387 VALENCIA ST,Synergy School,37.75087429, -122.42019976,SIDEWALK,1,2
3380 24TH ST,Michelle's Hair Salon,37.752328, -122.420179,SIDEWALK,1,2
3324 17TH ST,Saraha Kadampa Buddhist Center,37.763602, -122.420176,SIDEWALK,1,2
748 VAN NESS AVE,Philz Coffee,37.782379, -122.420163,SIDEWALK,2,4
1415 VALENCIA ST,Speesees,37.750206, -122.420131,SIDEWALK,1,2
1417 VALENCIA ST,,37.750206, -122.420131,SIDEWALK,1,2
1572 CALIFORNIA ST,Lumiere Theatre,37.790961, -122.420113,SIDEWALK,1,2
1312 POLK ST,,37.788970, -122.420098,SIDEWALK,1,2
750 EDDY ST,,37.783255, -122.420049,SIDEWALK,1,2
750 EDDY ST,CCSF Alemany Campus,37.783255, -122.420049,SIDEWALK,2,4
1000 VAN NESS AVE,AMC Theater,37.785172, -122.420018,SIDEWALK,2,4
201 VAN NESS AVE,Davies Symphony Hall,37.777441, -122.419994,SIDEWALK,2,4
201 VAN NESS AVE,Davies Symphony Hall,37.777441, -122.419994,SIDEWALK,1,2
1234 POLK ST,Quetzal,37.78846836, -122.41998809,SIDEWALK,1,2
1399 BUSH ST,Polk Bush Garage,37.788468, -122.419988,GARAGE,2,4
3420 18TH ST,All Muffler Auto Service,37.762004, -122.419986,SIDEWALK,1,2
1509 VALENCIA ST,Salvation Army,37.748724, -122.419976,SIDEWALK,1,2
540 VAN NESS AVE,US Bank,37.780832, -122.419943,SIDEWALK,1,2
590 VAN NESS AVE,Chevy's,37.780832, -122.419943,SIDEWALK,1,2
770 NORTH POINT ST,Patagonia,37.806013, -122.419913,SIDEWALK,2,4
512 VAN NESS AVE,Corinthian Court Apartments,37.780405, -122.419905,SIDEWALK,2,4
2086 MISSION ST,Mission Adult Superstore,37.763744, -122.419863,SIDEWALK,1,2
22 OAK ST,vacant,37.77563611, -122.41986139,SIDEWALK,3,6
77 VAN NESS AVE,Subway / Camilo Riano D.D.S. / UPS Store,37.776063, -122.419850,SIDEWALK,1,2
3431 19TH ST,Hog & Rocks,37.760033, -122.419844,SIDEWALK,2,4
3188 MISSION ST,Caffeinated Comics,37.746164, -122.419833,SIDEWALK,1,2
3221 MISSION ST,Dusit Thai,37.745082, -122.419787,SIDEWALK,1,2
3223 MISSION ST,The Knockout,37.745082, -122.419787,SIDEWALK,1,2
3211 MISSION ST,Taqueria Can Cun,37.745270, -122.419776,SIDEWALK,1,2
2200 MISSION ST,Duc Loi Supermarket,37.761606, -122.419761,SIDEWALK,2,4
627 TURK ST,Tenderloin Elementary School,37.781813, -122.419744,SIDEWALK,3,6
2140 MISSION ST,"Sycamore, The",37.762785, -122.419734,SIDEWALK,2,4
1124 POLK ST,Let it Bleed Tattoo,37.787111, -122.419719,SIDEWALK,1,2
1173 SUTTER ST,The Popular Workshop,37.787540, -122.419711,SIDEWALK,1,2
400 VAN NESS AVE,City Hall bike messenger entrance,37.779214, -122.419669,SIDEWALK,4,8
3520 20TH ST,Her Majesty's Secret Beekeeper,37.758837, -122.419665,SIDEWALK,1,2
3520 20TH ST,Comics and Art Businesses,37.758837, -122.419665,SIDEWALK,2,4
32 OTIS ST,City Ballet School,37.772801, -122.419574,SIDEWALK,2,4
3242 22ND ST,Escape from New York Pizza,37.755527, -122.419552,PARKING_LANE,6,12
3242 22ND ST,Escape from New York Pizza,37.755527, -122.419552,SIDEWALK,2,4
3234 22ND ST,Lolo,37.755527, -122.419552,SIDEWALK,2,4
3160 MISSION ST,Atlas Motors,37.746674, -122.419544,SIDEWALK,2,4
1909 MISSION ST,4505 Meats,37.766473, -122.419527,SIDEWALK,1,2
3239 22ND ST,Cava 22,37.75519153, -122.41952097,SIDEWALK,1,2
2288 MISSION ST,Taqueria Cancun,37.760471, -122.419513,SIDEWALK,1,2
2288 MISSION ST,Taqueria Cancun,37.760471, -122.419513,SIDEWALK,1,2
3158 MISSION ST,El Rio,37.746817, -122.419467,SIDEWALK,1,2
2330 MISSION ST,Mission Thrift,37.759729, -122.419460,SIDEWALK,2,4
3120 MISSION ST,Career Link Center,37.747648, -122.419449,SIDEWALK,2,4
1933 MISSION ST,MediThrive,37.766272, -122.419434,SIDEWALK,1,2
3344 24TH ST,Campfire Art Gallery,37.75234202, -122.41942751,SIDEWALK,2,4
1077 POST ST,Grass Roots,37.786630, -122.419413,SIDEWALK,1,2
2366 MISSION ST,Siegel's Clothing Superstore,37.759222, -122.419412,SIDEWALK,1,2
2482 MISSION ST,multiple,37.75744036, -122.41937768,SIDEWALK,1,2
2390 MISSION ST,Bikram Yoga,37.758770, -122.419369,SIDEWALK,1,2
2390 MISSION ST,Mission Yoga,37.758770, -122.419369,SIDEWALK,1,2
214 VAN NESS AVE,,37.777692, -122.419356,SIDEWALK,1,2
3505 20TH ST,Mission Economic Development Association,37.758460, -122.419335,SIDEWALK,2,4
2534 MISSION ST,Foreign Cinema,37.756388, -122.419261,SIDEWALK,1,2
2534 MISSION ST,Foreign Cinema,37.756388, -122.419261,SIDEWALK,1,2
1421 PINE ST,Redding (SA) CDC,37.789521, -122.419254,SIDEWALK,1,2
1415 LARKIN ST,Contraband Coffee Bar,37.790993, -122.419254,SIDEWALK,1,2
161 ERIE ST,Public Works,37.768875, -122.419248,SIDEWALK,3,6
525 GOLDEN GATE AVE,SFPUC,37.780929, -122.419174,SIDEWALK,1,2
1695 MISSION ST,Discount Builders Supply,37.770494, -122.419124,SIDEWALK,1,2
3329 24TH ST,La Mejor Bakery,37.751967, -122.419119,SIDEWALK,1,2
2023 MISSION ST,Mission Plaza,37.764429, -122.419104,SIDEWALK,1,2
2141 MISSION ST,Meyer Boswellk Books Inc.,37.762686, -122.419086,SIDEWALK,1,2
2973 16TH ST,Yoga to the People,37.764849, -122.419029,PARKING_LANE,4,8
710 POLK ST,Thai Idea Vegetarian,37.783387, -122.419016,SIDEWALK,1,2
400 MCALLISTER ST,Superior Court House,37.780519, -122.419014,SIDEWALK,3,6
400 MCALLISTER ST,Superior Court House,37.780519, -122.419014,SIDEWALK,7,14
2101 MISSION ST,Thrift Town,37.763175, -122.419010,SIDEWALK,1,2
2101 MISSION ST,Thrift Town,37.763175, -122.419010,SIDEWALK,1,2
730 POLK ST,Asian & Pacific Islander Wellness Center,37.783819, -122.419007,SIDEWALK,1,2
2211 MISSION ST,Gracias Madre,37.761549, -122.418976,PARKING_LANE,5,10
2690 MISSION ST,Walgreens,37.754029, -122.418974,SIDEWALK,1,2
2690 MISSION ST,Walgreens,37.754029, -122.418974,SIDEWALK,2,4
950 GEARY ST,Edinburgh Castle Pub,37.786253, -122.418961,SIDEWALK,1,2
3388 19TH ST,Little Baobab,37.760381, -122.418938,SIDEWALK,1,2
2263 MISSION ST,The Dark Room Theater,37.760878, -122.418912,SIDEWALK,1,2
160 CAPP ST,Native American Health Center,37.764039, -122.418881,SIDEWALK,2,4
235 CORTLAND AVE,Avedano's Meats,37.739645, -122.418871,SIDEWALK,1,2
2961 16TH ST,Victoria Theater,37.764859, -122.418865,SIDEWALK,1,2
2961 16TH ST,Victoria Theater,37.764859, -122.418865,SIDEWALK,1,2
1451 JACKSON ST,Spring Valley (SA) CDC,37.794006, -122.418819,SIDEWALK,1,2
1 DR CARLTON B GOODLETT PL,City Hall,37.779324, -122.418817,SIDEWALK,2,4
1 DR CARLTON B GOODLETT PL,City Hall,37.779324, -122.418817,SIDEWALK,2,4
2323 MISSION ST,Cha Cha Cha,37.759864, -122.418815,SIDEWALK,1,2
50 FELL ST,,37.776719, -122.418811,SIDEWALK,1,2
3316 24TH ST,Dance Mission Theatre,37.752399, -122.418804,SIDEWALK,1,2
2798 MISSION ST,China Express,37.752399, -122.418804,SIDEWALK,1,2
3318 24TH ST,Cafe La Boheme,37.752399, -122.418804,SIDEWALK,1,2
3149 MISSION ST,Baby Blues BBQ,37.746873, -122.418784,SIDEWALK,2,4
937 GEARY ST,Amsterdam Cafe,37.785756, -122.418776,SIDEWALK,1,2
937 GEARY ST,Amsterdam Cafe,37.785756, -122.418776,SIDEWALK,1,2
250 14TH ST,San Francisco Herb Co,37.768639, -122.418765,SIDEWALK,1,2
2832 MISSION ST,Rosamunde Sausage Catering,37.751518, -122.418755,SIDEWALK,1,2
3400 CESAR CHAVEZ ST,Walgreens,37.748497, -122.418662,SIDEWALK,3,6
3032 MISSION ST,Mermaid Tattoo Salon,37.748497, -122.418662,SIDEWALK,1,2
3139 MISSION ST,CoffeeShop,37.746998, -122.418653,SIDEWALK,1,2
101 GROVE ST,Department of Public Health,37.778128, -122.418652,SIDEWALK,2,4
101 GROVE ST,DPH,37.778128, -122.418652,SIDEWALK,1,2
101 GROVE ST,San Francisco Department of Public Health,37.778128, -122.418652,SIDEWALK,1,2
2886 MISSION ST,Nueva Libreria Mexico,37.750796, -122.418649,SIDEWALK,1,2
233 14TH ST,Om Shan Tea,37.768155, -122.418647,SIDEWALK,1,2
2435 MISSION ST,office building,37.758062, -122.418642,SIDEWALK,1,2
935 GEARY ST,The President,37.785773, -122.418639,SIDEWALK,1,2
3190 21ST ST,Jujanelly Flower Shop,37.757258, -122.418605,SIDEWALK,1,2
1 SOUTH VAN NESS AVE,Bank of America / SFMTA Headquarters,37.774862, -122.418581,GARAGE,7,14
1525 MARKET ST,Bank of America,37.774862, -122.418581,SIDEWALK,1,2
11 SOUTH VAN NESS AVE,SFMTA Customer Service,37.774862, -122.418581,SIDEWALK,1,2
845 OFARRELL ST,residential,37.78482642, -122.41857906,SIDEWALK,1,2
200 CAPP ST,Uptown,37.763247, -122.418561,SIDEWALK,1,2
2950 MISSION ST,Mission CDC (PreK),37.749819, -122.418557,SIDEWALK,1,2
301 BOCANA ST,Mason Kirby Architecture,37.739130, -122.418445,SIDEWALK,1,2
2575 MISSION ST,Doc's Clock,37.755946, -122.418440,SIDEWALK,2,4
1095 HYDE ST,Cala Foods,37.790616, -122.417821,SIDEWALK,2,
3017 MISSION ST,Paisano's,37.748833, -122.417720,SIDEWALK,1,2
1543 MISSION ST,Urban Flow Yoga Studio,37.773481, -122.417716,SIDEWALK,2,4
3261 23RD ST,Mission Presbyterian Church,37.753661, -122.417709,SIDEWALK,2,4
3382 26TH ST,Jamestown Community Center,37.749243, -122.417686,SIDEWALK,3,6
400 CORTLAND AVE,Progressive Grounds,37.738953, -122.417686,SIDEWALK,1,2
816 LARKIN ST,New Century Theater,37.785484, -122.417683,SIDEWALK,2,4
131 SOUTH VAN NESS AVE,Dainese,37.771343, -122.417635,SIDEWALK,1,2
401 CORTLAND AVE,Red Hill Books,37.739365, -122.417618,SIDEWALK,1,2
355 MCALLISTER ST,Civic Center Garage,37.779480, -122.417600,GARAGE,4,8
351 MCALLISTER ST,Civic Center Plaza,37.77948045, -122.41759951,SIDEWALK,5,10
201 LARKIN ST,Civic Center Plaza,37.77948045, -122.41759951,SIDEWALK,10,20
100 GROVE ST,Civic Center Plaza,37.77948045, -122.41759951,SIDEWALK,17,34
670 SOUTH VAN NESS AVE,Heald College,37.762418, -122.417578,SIDEWALK,1,2
1047 SUTTER ST,Raphael House,37.787835, -122.417558,SIDEWALK,2,4
1455 MARKET ST,McDonald's / Gracie's Cafe,37.775228, -122.417466,SIDEWALK,1,2
1455 MARKET ST,McDonald's / Gracie's Cafe,37.775228, -122.417466,SIDEWALK,1,2
335 SOUTH VAN NESS AVE,POWER,37.767832, -122.417382,SIDEWALK,1,2
1390 MARKET ST,Fox Plaza,37.777224, -122.417361,SIDEWALK,5,10
1390 MARKET ST,Fox Plaza,37.777224, -122.417361,SIDEWALK,1,2
395 SOUTH VAN NESS AVE,Video Transfer Center,37.767014, -122.417356,SIDEWALK,1,2
381 SOUTH VAN NESS AVE,Walzwerk,37.767175, -122.417319,SIDEWALK,1,2
99 GROVE ST,Bill Graham Civic Auditorium,37.778083, -122.417316,SIDEWALK,1,2
417 SOUTH VAN NESS AVE,Housing Alliance of SF,37.766483, -122.417305,SIDEWALK,1,2
806 SOUTH VAN NESS AVE,Bender's Bar and Grill,37.760199, -122.417279,SIDEWALK,1,2
806 SOUTH VAN NESS AVE,Bender's Bar and Grill,37.760199, -122.417279,SIDEWALK,1,2
806 SOUTH VAN NESS AVE,Bender's Bar and Grill,37.760199, -122.417279,SIDEWALK,1,2
939 POST ST,SF Party Store,37.786894, -122.417278,SIDEWALK,1,2
815 HYDE ST,Hyde Street Wellness,37.788505, -122.417256,SIDEWALK,2,4
433 SOUTH VAN NESS AVE,Flying Pig Bistro,37.766356, -122.417240,SIDEWALK,1,2
433 SOUTH VAN NESS AVE,Flying Pig Bistro,37.766356, -122.417240,SIDEWALK,1,2
560 LARKIN ST,Saigon Sandwich,37.783170, -122.417225,SIDEWALK,1,2
3358 CESAR CHAVEZ ST,SF Day Labor Program,37.748442, -122.417195,SIDEWALK,2,4
500 LARKIN ST,Copy Center,37.782609, -122.417126,SIDEWALK,1,2
2886 16TH ST,Poc Chuc,37.765469, -122.417090,SIDEWALK,2,4
160 14TH ST,Cafe Gratitude (CLOSED),37.768697, -122.417032,SIDEWALK,1,2
648 ANDOVER ST,A&V Market,37.735735, -122.417025,SIDEWALK,1,2
601 SOUTH VAN NESS AVE,Bite Me Sandwiches,37.763458, -122.417005,SIDEWALK,1,2
822 GEARY ST,Goodwill,37.786530, -122.417005,SIDEWALK,1,2
24 SHOTWELL ST,Yoga Tree,37.767987, -122.416973,SIDEWALK,2,4
1449 MISSION ST,Henry Gertmenian Co.?,37.77458318, -122.4167827,SIDEWALK,1,2
1453 MISSION ST,California Institute of Integral Studies,37.774583, -122.416178,SIDEWALK,1,2
1453 MISSION ST,California Institute of Integral Studies,37.774583, -122.416178,SIDEWALK,1,2
500 CORTLAND AVE,,37.738536, -122.416149,SIDEWALK,1,2
1500 SOUTH VAN NESS AVE,My Corner Cafe Inc?,37.748922, -122.416118,SIDEWALK,1,2
1800 FOLSOM ST,Foods Co,37.767852, -122.416105,SIDEWALK,3,6
1199 SOUTH VAN NESS AVE,The Little Spot Cafe,37.754118, -122.416072,SIDEWALK,1,2
1256 MARKET ST,Wells Fargo/Munch Haven,37.778302, -122.416056,SIDEWALK,1,2
3141 17TH ST,Ocean Sash and Door Co.,37.763414, -122.416029,SIDEWALK,1,2
3350 20TH ST,Victor Delivery Flowers,37.759037, -122.415985,SIDEWALK,1,2
1700 VISITACION AVE,Coffman Pool,37.713580, -122.415970,SIDEWALK,1,2
1398 MISSION ST,Cumaica Coffee,37.775862, -122.415956,SIDEWALK,1,2
351 SHOTWELL ST,ODC Dance Commons,37.762811, -122.415843,SIDEWALK,2,4
351 SHOTWELL ST,ODC Dance Commons,37.762811, -122.415843,SIDEWALK,4,8
351 SHOTWELL ST,ODC Dance Commons,37.762811, -122.415843,SIDEWALK,1,2
351 SHOTWELL ST,ODC Dance Commons,37.762811, -122.415843,SIDEWALK,1,2
351 SHOTWELL ST,ODC Dance Commons,37.762811, -122.415843,SIDEWALK,2,4
24 GROVE ST,SF Main Library,37.779159, -122.415808,PARKING_LANE,19,38
1900 FOLSOM ST,Truck,37.766795, -122.415783,PARKING_LANE,7,14
1900 FOLSOM ST,Truck,37.766795, -122.415783,SIDEWALK,1,2
122 10TH ST,Compassion and Care Center,37.774764, -122.415753,SIDEWALK,1,2
1372 MISSION ST,St. James Infirmary,37.77573822, -122.41573603,SIDEWALK,1,2
1372 MISSION ST,St. James Infirmary,37.77573822, -122.41573603,SIDEWALK,1,2
1370 MISSION ST,Advance English Academy,37.775738, -122.415736,SIDEWALK,1,2
1370 MISSION ST,Advance English Academy,37.775738, -122.415736,SIDEWALK,1,2
3166 24TH ST,Chilli Cha Cha Thai Restaurant,37.752612, -122.415652,SIDEWALK,1,2
3349 20TH ST,Shotwells,37.758621, -122.415612,SIDEWALK,1,2
1220 MARKET ST,Sam's Diner,37.778524, -122.415608,SIDEWALK,3,6
200 MCALLISTER ST,UC Hastings College of the Law,37.780934, -122.415603,SIDEWALK,1,2
1575 SOUTH VAN NESS AVE,AutoZone,37.748489, -122.415563,SIDEWALK,1,2
2128 FOLSOM ST,Stable Cafe,37.763210, -122.415457,SIDEWALK,1,2
9 GROVE ST,multiple,37.778584, -122.415442,SIDEWALK,6,12
2150 FOLSOM ST,Workspace Artists Studio,37.762836, -122.415421,SIDEWALK,2,4
286 12TH ST,SF Chocolate Factory / Bridge Brands Chocolate,37.770896, -122.415416,SIDEWALK,2,4
2180 FOLSOM ST,Pseudo Studios,37.762489, -122.415388,SIDEWALK,1,2
3150 24TH ST,Wise Sons Deli,37.752631, -122.415346,SIDEWALK,1,2
3150 24TH ST,Wise Sons Deli,37.752631, -122.415346,SIDEWALK,1,2
3049 22ND ST,Push Bike,37.755462, -122.415315,SIDEWALK,1,2
1779 FOLSOM ST,Nihon,37.768697, -122.415290,SIDEWALK,1,2
1600 FOLSOM ST,Manora's Thai Cuisine,37.770842, -122.415290,SIDEWALK,1,2
583 SHOTWELL ST,,37.759080, -122.415275,SIDEWALK,1,2
587 SHOTWELL ST,Real Foods Organic,37.759080, -122.415275,SIDEWALK,1,2
800 POST ST,Cafe Royale,37.787600, -122.415268,SIDEWALK,1,2
1016 COLUMBUS AVE,,37.803966, -122.415160,SIDEWALK,1,2
631 OFARRELL ST,Dong Baek,37.78523999, -122.41512040,SIDEWALK,1,2
1582 FOLSOM ST,The Willows,37.771141, -122.415112,SIDEWALK,1,2
82 14TH ST,Chez Spencer,37.768814, -122.415111,SIDEWALK,1,2
701 CORTLAND AVE,fitBERNALfit,37.739084, -122.415106,SIDEWALK,1,2
1436 HOWARD ST,PariSoma Innovation Loft,37.773835, -122.415075,SIDEWALK,2,4
201 11TH ST,Discount Fabrics,37.773133, -122.415069,SIDEWALK,1,2
1745 FOLSOM ST,Rainbow Grocery,37.769109, -122.415058,PARKING_LANE,8,16
1745 FOLSOM ST,Rainbow Grocery,37.769109, -122.415058,SIDEWALK,1,2
3315 20TH ST,Moxie Yoga,37.758739, -122.415030,SIDEWALK,2,4
2400 FOLSOM ST,,37.758739, -122.415030,SIDEWALK,1,2
1339 MISSION ST,City Aikado,37.775603, -122.415028,SIDEWALK,1,2
985 SHOTWELL ST,,37.752653, -122.414989,SIDEWALK,1,2
991 SHOTWELL ST,,37.752653, -122.414989,SIDEWALK,1,2
940 FILBERT ST,,37.800949, -122.414971,SIDEWALK,1,2
2797 16TH ST,Soccer Cafe,37.765084, -122.414959,SIDEWALK,2,4
2797 16TH ST,Soccer Cafe,37.765084, -122.414959,SIDEWALK,2,4
225 11TH ST,Don Ramon's Mexican Restaurant,37.772938, -122.414952,SIDEWALK,1,2
3141 23RD ST,residence,37.753851, -122.414952,SIDEWALK,1,2
65 09TH ST,,37.776770, -122.414948,SIDEWALK,1,2
65 09TH ST,,37.776770, -122.414948,SIDEWALK,1,2
65 09TH ST,,37.776770, -122.414948,SIDEWALK,1,2
65 09TH ST,,37.776770, -122.414948,SIDEWALK,1,2
2099 FOLSOM ST,Rite Spot Cafe,37.763866, -122.414915,SIDEWALK,2,4
2099 FOLSOM ST,Rite Spot Cafe,37.763866, -122.414915,SIDEWALK,1,2
737 CORTLAND AVE,Tacos Los Altos,37.739059, -122.414912,SIDEWALK,1,2
2500 FOLSOM ST,Heirloom Cafe,37.757101, -122.414812,SIDEWALK,2,4
1231 MARKET ST,Hotel Whitcomb,37.777947, -122.414791,SIDEWALK,1,2
1231 MARKET ST,Hotel Whitcomb,37.777947, -122.414791,SIDEWALK,1,2
1321 MISSION ST,(VACANT),37.77599625, -122.41476071,SIDEWALK,1,2
3128 24TH ST,Sun Rise Restaurant,37.752701, -122.414703,SIDEWALK,1,2
245 11TH ST,multiple,37.772710, -122.414667,SIDEWALK,1,2
2169 FOLSOM ST,multiple,37.762822, -122.414658,SIDEWALK,1,2
957 COLUMBUS AVE,La Rocca's Corner Tavern,37.803165, -122.414608,SIDEWALK,1,2
3180 18TH ST,Pioneer Building,37.762385, -122.414601,SIDEWALK,1,2
3180 18TH ST,Pioneer Building,37.762385, -122.414601,SIDEWALK,1,2
2330 TAYLOR ST,,37.804025, -122.414600,SIDEWALK,1,2
2698 FOLSOM ST,Red Poppy Art House,37.754201, -122.414516,SIDEWALK,1,2
2301 FOLSOM ST,"Homestead, The",37.760396, -122.414516,PARKING_LANE,5,10
2301 FOLSOM ST,"Homestead, The",37.760396, -122.414516,SIDEWALK,2,4
2301 FOLSOM ST,"Homestead, The",37.760396, -122.414516,SIDEWALK,1,2
1516 FOLSOM ST,Sushi Groove,37.771824, -122.414515,SIDEWALK,1,2
2762 FOLSOM ST,Inglesia Zion,37.753073, -122.414487,SIDEWALK,2,4
803 CORTLAND AVE,Blue Elephant Thai Cuisine,37.739080, -122.414461,SIDEWALK,1,2
3111 24TH ST,Local Mission Eatery,37.752251, -122.414447,SIDEWALK,1,2
1380 HOWARD ST,San Francisco Department of Public Health,37.774458, -122.414411,SIDEWALK,1,2
3295 20TH ST,Kadist Art Foundation,37.758745, -122.414368,SIDEWALK,1,2
3289 20TH ST,People's Gallery,37.758745, -122.414368,SIDEWALK,1,2
990 COLUMBUS AVE,,37.803460, -122.414366,SIDEWALK,1,2
57 KISSLING ST,,37.772953, -122.414361,SIDEWALK,1,2
790 LOMBARD ST,,37.802895, -122.414334,SIDEWALK,1,2
754 POST ST,farm:table,37.787826, -122.414330,PARKING_LANE,2,4
2872 FOLSOM ST,The Yoga Society of SF,37.751435, -122.414328,SIDEWALK,2,4
1170 MARKET ST,The Art Institute of California,37.779497, -122.414301,SIDEWALK,5,10
1170 MARKET ST,The Art Institute of California,37.779497, -122.414301,SIDEWALK,1,2
3101 24TH ST,Philz Coffee,37.752330, -122.414265,SIDEWALK,1,2
3101 24TH ST,Philz Coffee,37.752330, -122.414265,SIDEWALK,3,6
3150 18TH ST,ActivSpace / Treat Street Bicycle Works,37.762699, -122.414256,SIDEWALK,1,2
3150 18TH ST,Treat Street Bicycle Works,37.76269900, -122.41425600,SIDEWALK,1,2
2898 FOLSOM ST,R Image Market,37.751020, -122.414245,SIDEWALK,2,4
2499 FOLSOM ST,Joe & Pat's Bakery & Coffee,37.757451, -122.414245,SIDEWALK,2,4
1260 MISSION ST,cannabis club,37.776961, -122.414225,SIDEWALK,1,2
1256 MISSION ST,Sparc (cannabis club),37.776961, -122.414225,SIDEWALK,1,2
2948 FOLSOM ST,La Cocina,37.750172, -122.414199,SIDEWALK,2,4
620 TREAT AVE,Southern Pacific Brewing,37.760111, -122.414118,SIDEWALK,3,6
575 OFARRELL ST,United Printing,37.78546652, -122.41407009,SIDEWALK,1,2
2979 21ST ST,Mozzo Bike Apparel,37.757145, -122.414007,SIDEWALK,2,4
1830 HARRISON ST,,37.767985, -122.413954,SIDEWALK,1,2
50 UNITED NATIONS PLZ,UN Plaza,37.780535, -122.41321,SIDEWALK,3,6
50 UNITED NATIONS PLZ,UN Plaza,37.780535, -122.413212,SIDEWALK,10,20
1200 15TH ST,Animal Care & Control,37.767436, -122.412946,SIDEWALK,2,4
26 07TH ST,,37.780071, -122.412400,SIDEWALK,1,
26 07TH ST,,37.780071, -122.412400,SIDEWALK,1,2
2301 HARRISON ST,multiple,37.760100, -122.412376,SIDEWALK,1,2
749 TAYLOR ST,Academy of Art University,37.789373, -122.412368,SIDEWALK,2,4
755 COLUMBUS AVE,Bristol Weeden Painting,37.801600, -122.412336,SIDEWALK,1,2
650 ALABAMA ST,Bike Kitchen / Adventurous Sports,37.760916, -122.412334,SIDEWALK,4,8
660 ALABAMA ST,multiple,37.760916, -122.412334,SIDEWALK,1,2
2295 HARRISON ST,Mission Cliffs,37.760916, -122.412334,SIDEWALK,1,2
2840 MARIPOSA ST,Theater of Yugen,37.763583, -122.411751,SIDEWALK,,2
1066 MARKET ST,Piper's Jewelers,37.781799, -122.411742,SIDEWALK,1,
234 EDDY ST,Urban Health Clinic,37.784342, -122.411680,SIDEWALK,1,2
299 09TH ST ,Azucar Lounge ,37.774058, -122.411668,SIDEWALK,2,4
1073 MARKET ST,Huckleberry Bicycles,37.780644, -122.411615,SIDEWALK,2,4
1133 MISSION ST,Asian Pacific Islander Legal?,37.778330, -122.411516,SIDEWALK,1,2
2981 24TH ST,Precita Eyes Mural Art and Visitor Center,37.752424, -122.411514,SIDEWALK,1,2
650 FLORIDA ST,In-Symmetry,37.761034, -122.411506,SIDEWALK,2,4
500 FLORIDA ST,Panorama Bakery,37.762590, -122.411484,SIDEWALK,2,4
2966 24TH ST,Leon Multiservicio,37.752885, -122.411477,SIDEWALK,1,2
1166 HOWARD ST,Ralph Gracie Jiu Jitsu,37.776808, -122.411474,SIDEWALK,2,4
191 08TH ST,Harvest Urban Market,37.776808, -122.411474,SIDEWALK,1,2
2977 24TH ST,J&W Laundromat,37.752429, -122.411428,SIDEWALK,1,2
3049 20TH ST,Atlas Cafe,37.758862, -122.411406,PARKING_LANE,5,10
3049 20TH ST,Atlas Cafe,37.758862, -122.411406,SIDEWALK,6,12
133 TURK ST,Aunt Charlie's Lounge,37.782849, -122.411384,SIDEWALK,2,4
1063 MARKET ST,Oriental Restaurant,37.780838, -122.411370,SIDEWALK,2,4
2929 19TH ST,Mission Language and Vocational,37.760124, -122.411364,SIDEWALK,1,2
1052 MARKET ST,Social Imprints,37.781883, -122.411323,SIDEWALK,1,2
3000 20TH ST,Central Kitchen,37.759325, -122.411282,PARKING_LANE,4,8
3030 20TH ST,Southern Exposure,37.759325, -122.411282,SIDEWALK,2,4
3030 20TH ST,Southern Exposure,37.759325, -122.411282,SIDEWALK,1,2
3030 20TH ST,Southern Exposure,37.759325, -122.411282,SIDEWALK,1,2
346 09TH ST,,37.773120, -122.411258,SIDEWALK,1,2
346 09TH ST,,37.773120, -122.411258,SIDEWALK,1,2
2064 POWELL ST,Citizen Chain Cyclery,37.80382297, -122.41125279,PARKING_LANE,3,6
2064 POWELL ST,Citizen Chain Cyclery,37.80382297, -122.41125279,SIDEWALK,2,4
1121 MISSION ST,Asian Pacific Islander Legal Outreach,37.778652, -122.411230,SIDEWALK,1,2
730 FLORIDA ST,residential,37.759922, -122.411225,SIDEWALK,1,2
486 GEARY ST,Alcatraz Gift and Tours,37.787159, -122.411202,SIDEWALK,1,2
1701 POWELL ST,Sushi Hunter,37.800385, -122.411171,SIDEWALK,1,2
2950 24TH ST,El Farolito Restaurant,37.752855, -122.411136,SIDEWALK,1,2
450 10TH ST,Costco,37.770488, -122.411106,SIDEWALK,1,2
840 BROADWAY,Jean Parker (SA) CDC,37.797620, -122.411038,SIDEWALK,1,2
2790 MARIPOSA ST,Coffee Bar,37.76310691, -122.41103404,SIDEWALK,1,2
2790 MARIPOSA ST,Coffee Bar,37.76310691, -122.41103404,SIDEWALK,2,4
420 TAYLOR ST,,37.786332, -122.411031,SIDEWALK,1,2
1657 POWELL ST,,37.799948, -122.411013,SIDEWALK,1,2
1246 FOLSOM ST,,37.774589, -122.410994,SIDEWALK,1,2
1000 MARKET ST,Community Housing Partnership San Cristina,37.782044, -122.410989,SIDEWALK,2,4
1020 MARKET ST,Show Dogs Sausages,37.782044, -122.410989,SIDEWALK,1,2
1020 MARKET ST,Show Dogs Sausages,37.782044, -122.410989,PARCEL,3,6
1000 MARKET ST,,37.782044, -122.410989,SIDEWALK,1,2
2701 17TH ST,BoomBotix (CLOSED),37.76408775, -122.41082772,SIDEWALK,1,2
405 FLORIDA ST,Vista Point Studio | Gallery?,37.764088, -122.410828,SIDEWALK,1,2
1035 MARKET ST,AIDS/LifeCycle office?,37.781219, -122.410785,SIDEWALK,2,4
2405 16TH ST,Skin Salvation,37.765342, -122.410774,SIDEWALK,3,6
2937 24TH ST,la Victoria Bakery,37.752520, -122.410756,SIDEWALK,1,2
2727 MARIPOSA ST,Bay Area Video Coalition / Starbucks,37.762687, -122.410735,SIDEWALK,1,2
625 SUTTER ST,Academy of Art University,37.788723, -122.410677,SIDEWALK,2,4
2929 24TH ST,Live Fit Gym,37.752477, -122.410625,SIDEWALK,1,2
1351 HARRISON ST,Circle Community Acupuncture,37.771865, -122.410613,SIDEWALK,1,2
1351 HARRISON ST,Circle Community Acupuncture,37.771865, -122.410613,SIDEWALK,1,2
290 08TH ST,Lutheran Social Services of Northern CA,37.775075, -122.410565,SIDEWALK,2,4
1200 FOLSOM ST,,37.775075, -122.410565,SIDEWALK,1,2
535 MASON ST,,37.788678, -122.410458,SIDEWALK,1,2
673 UNION ST,Rogue Ales,37.800000, -122.410421,SIDEWALK,1,2
663 UNION ST,AuburnCom Computer Store,37.800000, -122.410421,SIDEWALK,2,4
1017 MARKET ST,,37.781561, -122.410418,SIDEWALK,1,2
1665 BRYANT ST,Wardrobe Cleaners,37.766476, -122.410413,SIDEWALK,1,2
1560 POWELL ST,,37.799210, -122.410405,SIDEWALK,1,2
1655 BRYANT ST,UPSP,37.766478, -122.410405,SIDEWALK,1,2
500 PRECITA AVE,Precita Park Cafe,37.746972, -122.410399,SIDEWALK,2,4
1550 POWELL ST,,37.799024, -122.410367,SIDEWALK,1,2
2781 21ST ST,Pirate Cat Radio Cafe,37.75734234, -122.41035996,SIDEWALK,1,2
994 MARKET ST,Art Gallery,37.78268892, -122.41033991,SIDEWALK,2,4
1085 MISSION ST,AQ Restaurant & Bar,37.779364, -122.410328,SIDEWALK,2,4
865 FLORIDA ST,residential,37.758104, -122.410304,SIDEWALK,1,2
1225 FOLSOM ST,Driftwood,37.774473, -122.410297,SIDEWALK,1,2
2900 24TH ST,Alcoholics Anonymous,37.752898, -122.410272,SIDEWALK,1,2
678 GREEN ST,Beach Blanket Babylon,37.799636, -122.410267,SIDEWALK,1,2
1081 MISSION ST,De La Paz Coffee Roasters,37.779441, -122.410229,SIDEWALK,2,4
457 10TH ST,UrbanCore Development,37.771068, -122.410205,SIDEWALK,1,2
2170 BRYANT ST,Blowfish Sushi,37.759442, -122.410179,SIDEWALK,1,2
293 08TH ST,residential,37.77529618, -122.41007420,SIDEWALK,1,2
1201 FOLSOM ST,Leather Etc.,37.774668, -122.410050,SIDEWALK,1,2
972 MARKET ST,,37.783035, -122.409950,SIDEWALK,1,2
1186 FOLSOM ST,,37.775470, -122.409866,SIDEWALK,1,2
968 MARKET ST,St. Lukes Monteagle Medical Center,37.783072, -122.409823,SIDEWALK,1,2
2750 21ST ST,Serve-U Market,37.757799, -122.409798,SIDEWALK,1,2
430 09TH ST,,37.771949, -122.409791,SIDEWALK,1,2
430 09TH ST,,37.771949, -122.409791,SIDEWALK,1,2
490 POST ST,Medical/Dental building,37.788407, -122.409757,SIDEWALK,1,2
266 DORE ST,Lennon Rehearsal & Music Center,37.771061, -122.409740,SIDEWALK,1,2
2601 MARIPOSA ST,,37.762611, -122.409719,SIDEWALK,1,2
543 COLUMBUS AVE,La Boulange Cafe & Bakery,37.799669, -122.409665,SIDEWALK,1,2
543 COLUMBUS AVE,La Boulange Cafe & Bakery,37.799669, -122.409665,SIDEWALK,1,2
340 MASON ST,,37.786968, -122.409656,SIDEWALK,1,2
2406 BRYANT ST,El Metate Taqueria,37.755761, -122.409600,SIDEWALK,1,2
2500 BRYANT ST,Local's Corner,37.754253, -122.409588,SIDEWALK,2,4
2871 24TH ST,L'S Caffe,37.752545, -122.409583,SIDEWALK,1,2
2871 24TH ST,L's Caffe,37.752545, -122.409583,SIDEWALK,1,2
2747 19TH ST,Steven Wolf Fine Arts,37.759660, -122.409533,SIDEWALK,1,2
979 MARKET ST,Blick Arts Materials,37.782281, -122.409531,SIDEWALK,2,4
735 VALLEJO ST,North Beach Garage,37.798305, -122.409527,GARAGE,10,20
312 MASON ST,,37.786500, -122.409517,SIDEWALK,1,2
1527 STOCKTON ST,ROMA Design,37.800066, -122.409416,SIDEWALK,3,6
335 08TH ST,Gama-Go,37.774976, -122.409386,SIDEWALK,1,2
301 08TH ST,Prelinger Library,37.774976, -122.409386,SIDEWALK,1,2
301 08TH ST,Prelinger Library,37.774976, -122.409386,SIDEWALK,1,2
2857 24TH ST,Galeria de la Raza,37.75251838, -122.40933529,SIDEWALK,1,2
2857 24TH ST,Galeria de la Raza,37.75251838, -122.40933529,SIDEWALK,1,2
2301 BRYANT ST,Progressive Grounds Cafe,37.757477, -122.409301,SIDEWALK,2,4
2301 BRYANT ST,Progressive Grounds Cafe,37.757477, -122.409301,SIDEWALK,1,2
969 MARKET ST,,37.782520, -122.409229,SIDEWALK,1,2
302 MONTCALM ST,residential,37.745856, -122.409227,SIDEWALK,1,2
720 YORK ST,Benjamini Associates,37.759826, -122.409203,SIDEWALK,1,2
720 YORK ST,,37.759826, -122.409203,SIDEWALK,1,2
2950 25TH ST,Puerto Alegre,37.751378, -122.409183,SIDEWALK,1,2
451 09TH ST,Cup and Cakes Bakery,37.772118, -122.409109,SIDEWALK,1,2
2501 BRYANT ST,Bloodhound,37.754180, -122.409029,SIDEWALK,3,6
1640 STOCKTON ST,,37.801010, -122.408941,SIDEWALK,1,2
500 SUTTER ST,Lori's Dinner,37.789439, -122.408893,SIDEWALK,1,2
519 POWELL ST,Cozy Cable Car Cafe,37.78943926, -122.40889284,SIDEWALK,2,4
2 GOETTINGEN ST,,37.731129, -122.408874,SIDEWALK,1,2
400 POST ST,Morton's the Steakhouse,37.788494, -122.408830,SIDEWALK,1,2
942 MARKET ST,Radio Shack,37.783768, -122.408823,SIDEWALK,2,4
2845 24TH ST,Samy's Liquors,37.752592, -122.408791,SIDEWALK,2,4
945 MARKET ST,,37.782887, -122.408778,SIDEWALK,1,2
1 HALLIDIE PLZ,NextSpace,37.784131, -122.408771,SIDEWALK,3,6
2736 20TH ST,Jay'n Bee Club,37.75947198, -122.40874131,SIDEWALK,1,2
1520 STOCKTON ST,North East Medical Services,37.799941, -122.408725,SIDEWALK,1,2
2824 24TH ST,Five Markets,37.753053, -122.408705,SIDEWALK,1,2
2505 MARIPOSA ST,"Socratic Technologies, Inc.",37.762892, -122.408689,SIDEWALK,1,2
2505 MARIPOSA ST,"Socratic Technologies, Inc.",37.762892, -122.408689,SIDEWALK,2,4
385 08TH ST,Mr S Leather,37.774253, -122.408627,SIDEWALK,2,4
2817 24TH ST,Roosevelt Tamale Parlor,37.752632, -122.408587,SIDEWALK,1,2
2501 MARIPOSA ST,Slow Club,37.762781, -122.408549,SIDEWALK,2,4
2600 18TH ST,Cooactive Health Communications,37.762136, -122.408479,SIDEWALK,1,2
1090 BRYANT ST,Green Depot,37.771676, -122.408474,SIDEWALK,1,2
1306 STOCKTON ST,small grocery,37.797860, -122.408426,SIDEWALK,1,2
1362 STOCKTON ST,Victoria Pastry,37.798432, -122.408421,SIDEWALK,1,2
562 GREEN ST,Columbus Cafe,37.799763, -122.408410,SIDEWALK,1,2
1129 FOLSOM ST,,37.775988, -122.408373,SIDEWALK,1,2
2801 24TH ST,St Francis Fountain and Diner,37.752647, -122.408344,SIDEWALK,1,2
548 UNION ST,Cykel,37.800723, -122.408336,SIDEWALK,1,2
211 POWELL ST,,37.786612, -122.408326,SIDEWALK,1,2
135 POWELL ST,Walgreens,37.786006, -122.408294,SIDEWALK,1,2
290 DIVISION ST,mulitple,37.769512, -122.408256,SIDEWALK,1,2
540 09TH ST,MUJI,37.770559, -122.408183,SIDEWALK,2,4
2440 MARIPOSA ST,Runaway Films,37.763384, -122.408102,SIDEWALK,3,6
1456 YORK ST,Nani's Day Care,37.748903, -122.408090,SIDEWALK,1,2
111 ELLIS ST,Rasputin Music,37.785306, -122.408067,SIDEWALK,1,2
117 06TH ST,San Francisco HIV Prevention Project,37.780857, -122.408056,SIDEWALK,1,2
117 06TH ST,San Francisco HIV Prevention Project,37.780857, -122.408056,SIDEWALK,1,2
1028 HOWARD ST,San Francisco Green Party,37.779469, -122.407922,SIDEWALK,1,2
2415 17TH ST,ASN Natural Stone,37.764156, -122.407910,SIDEWALK,1,2
440 POTRERO AVE,,37.764156, -122.407910,SIDEWALK,1,2
76 MOSS ST,Mission Rehearsal Studios,37.777418, -122.407890,SIDEWALK,1,2
201 LELAND AVE,Visitacion Valley Library,37.712455, -122.407886,SIDEWALK,5,10
230 POWELL ST,,37.786876, -122.407870,SIDEWALK,1,2
950 MISSION ST,Barbary Coast,37.782056, -122.407859,SIDEWALK,1,2
450 SUTTER ST ,Medical / Dental building,37.789657, -122.407834,SIDEWALK,1,2
450 SUTTER ST,Medical / Dental building,37.789657, -122.407834,SIDEWALK,1,2
106 POWELL ST,,37.785770, -122.407677,SIDEWALK,1,2
510 GREEN ST,Sodini's Green Valley Restaurant,37.799847, -122.407650,SIDEWALK,1,2
1000 HOWARD ST,Mi Tierra Supermarket,37.779704, -122.407597,SIDEWALK,2,4
333 POST ST,Johnson & Murphy,37.78793122, -122.40750049,SIDEWALK,1,2
333 POST ST,Union Square,37.787931, -122.407500,PARCEL,14,28
159 LELAND AVE,,37.712177, -122.406900,SIDEWALK,1,
444 STOCKTON ST,Sutter - Stockton Garage,37.790126, -122.406740,GARAGE,32,64
444 STOCKTON ST,Sutter - Stockton Garage,37.790126, -122.406740,GARAGE,8,16
16 SHERMAN ST,New Nothing Cinema,37.776936, -122.406713,SIDEWALK,1,2
1040 FOLSOM ST,,37.777956, -122.406706,SIDEWALK,1,2
2704 24TH ST,Nutrition & Kids,37.753148, -122.406691,SIDEWALK,1,2
2700 24TH ST,Papa Potrero Pizza,37.753148, -122.406691,SIDEWALK,1,2
366 BAY SHORE BLVD,Jack in the Box,37.74174378, -122.40666128,SIDEWALK,1,2
166 LELAND AVE,vacant,37.712569, -122.406636,SIDEWALK,1,2
925 MISSION ST,The Hub and Intersection for the Arts,37.782154, -122.406601,SIDEWALK,4,8
261 COLUMBUS AVE,City Lights Bookstore,37.797601, -122.406579,SIDEWALK,2,4
1 STOCKTON ST,Apple Store,37.785852, -122.406529,SIDEWALK,1,2
141 LELAND AVE,residential,37.712026, -122.406471,SIDEWALK,1,2
1320 POTRERO AVE,,37.751012, -122.406470,SIDEWALK,1,2
375 07TH ST,Bessie Carmichael (PreK & SA) CDC,37.776091, -122.406448,SIDEWALK,1,2
835 MARKET ST,Westfield,37.784397, -122.406404,SIDEWALK,2,4
835 MARKET ST,San Francisco State Downtown Campus,37.784397, -122.406404,SIDEWALK,1,2
380 BACON ST,Portola Branch Library,37.727114, -122.406362,SIDEWALK,1,2
101 UTAH ST,Oceanic Restaurant,37.767882, -122.406311,SIDEWALK,1,2
999 BRANNAN ST,Dolby Labratories,37.770096, -122.406279,SIDEWALK,1,2
270 06TH ST,Gene Friend Recreation Center,37.778623, -122.406247,SIDEWALK,1,2
1451 HAMPSHIRE ST,James Rolph Jr. Playground,37.74972741, -122.40623124,SIDEWALK,1,2
868 MISSION ST,Wichcraft,37.78410039, -122.40614459,SIDEWALK,4,8
845 MARKET ST,Juicy Couture / Timberland,37.784100, -122.406145,SIDEWALK,5,10
701 BAY SHORE BLVD,San Francisco Antique and Design,37.73597064, -122.40613868,SIDEWALK,1,2
701 BAY SHORE BLVD,San Francisco Antique and Design,37.73597064, -122.40613868,SIDEWALK,1,2
825 MARKET ST,Walgreens,37.784803, -122.406071,SIDEWALK,2,4
50 OFARREL ST,Macys,37.78697967, -122.40595336,SIDEWALK,1,2
327 GRANT AVE,lululemon athletica,37.790150, -122.405870,SIDEWALK,1,2
110 LELAND AVE,Luen Fat Bakery,37.712237, -122.405782,SIDEWALK,1,2
1033 KEARNY ST,Lusty Lady Theater,37.797580, -122.405734,SIDEWALK,1,2
675 CALIFORNIA ST,Eight Inc,37.792280, -122.405694,SIDEWALK,3,6
26 04TH ST,Container Store,37.784990, -122.405677,SIDEWALK,1,2
26 04TH ST,Container Store,37.784990, -122.405677,SIDEWALK,1,2
801 MARKET ST,Old Navy,37.784990, -122.405677,SIDEWALK,2,4
941 KEARNY ST,,37.796778, -122.405592,SIDEWALK,1,2
200 COLUMBUS AVE,Reveille Coffee,37.797360, -122.405560,SIDEWALK,3,6
776 MARKET ST,Walgreens,37.786459, -122.405546,SIDEWALK,2,4
760 MARKET ST,Phelan Building,37.786459, -122.405546,SIDEWALK,1,2
71 LELAND AVE,Visiticion Valley One Link Career Center,37.711592, -122.405384,SIDEWALK,1,2
919 KEARNY ST,House of Nanking,37.796439, -122.405384,SIDEWALK,1,2
919 KEARNY ST,House of Nanking,37.796439, -122.405384,SIDEWALK,1,2
96 LELAND AVE,El Buen Saborz,37.712070, -122.405355,SIDEWALK,1,2
733 KEARNY ST,Portsmouth Garage,37.794835, -122.405351,GARAGE,13,26
2450 SAN BRUNO AVE,SFI Windows & Cabinets?,37.731022, -122.405302,SIDEWALK,1,2
494 BROADWAY ST,Green Tortoise Hotel,37.798263, -122.405282,SIDEWALK,1,2
101 GEARY ST,Swatch,37.787597, -122.405280,SIDEWALK,1,2
101 GEARY ST,Swatch,37.787597, -122.405280,SIDEWALK,1,2
799 MARKET ST,Ross,37.785647, -122.405265,SIDEWALK,2,4
799 MARKET ST,Ross,37.785647, -122.405265,SIDEWALK,5,10
59 GRANT AVE,Sisley (clothes),37.787520, -122.405264,SIDEWALK,1,2
23 GRANT AVE,,37.787147, -122.405207,SIDEWALK,1,2
888 BRANNAN ST,Gift Center and Jewelry Market,37.772015, -122.405193,SIDEWALK,1,2
921 HOWARD ST,Dreams Interior,37.780833, -122.405166,SIDEWALK,1,2
57 LELAND AVE,Visiticion Chinese Baptist Church,37.711502, -122.405152,SIDEWALK,1,2
818 MISSION ST,Community Vocational Enterprises (CVE),37.784296, -122.405083,SIDEWALK,2,4
833 MISSION ST,Fifth & Mission Garage,37.783371, -122.405069,GARAGE,12,24
833 MISSION ST,Fifth & Mission Garage,37.783371, -122.405069,GARAGE,16,32
266 SUTTER ST,Posh Bagel,37.789859, -122.405000,SIDEWALK,1,2
66 LELAND AVE,US Post Office,37.711919, -122.404967,SIDEWALK,1,2
170 GRANT AVE,Cannell Capital,37.788549, -122.404963,SIDEWALK,1,2
180 POST ST,The North Face,37.788939, -122.404939,SIDEWALK,1,2
917 BRYANT ST,Studio For Urban Projects,37.773799, -122.404935,SIDEWALK,1,2
166 GRANT AVE,,37.788410, -122.404935,SIDEWALK,1,2
631 KEARNY ST,R&G Lounge,37.794123, -122.404929,SIDEWALK,1,2
70 04TH ST,Cole Hardware,37.784685, -122.404910,SIDEWALK,1,2
800 HOWARD ST,Moscone West,37.782920, -122.404874,SIDEWALK,3,6
250 SUTTER ST,MCG Arcitecture,37.789988, -122.404817,SIDEWALK,1,2
680 08TH ST,,37.770128, -122.404719,SIDEWALK,1,2
680 08TH ST,Chronicle Books,37.770128, -122.404719,SIDEWALK,2,4
56 GRANT AVE,Ted Baker,37.787511, -122.404703,SIDEWALK,1,2
41 LELAND AVE,Hansan Interior,37.711329, -122.404672,SIDEWALK,1,2
944 FOLSOM ST,Boyd Lighting,37.779675, -122.404665,SIDEWALK,1,2
10 MARK LN,Irish Bank Bar,37.790394, -122.404637,SIDEWALK,1,2
150 POST ST,H & M,37.789069, -122.404613,SIDEWALK,1,2
410 BUSH ST,Academy of Art University,37.791170, -122.404547,SIDEWALK,1,2
410 BUSH ST,Academy of Art University,37.791170, -122.404547,SIDEWALK,1,2
260 05TH ST,,37.780461, -122.404506,SIDEWALK,1,2
260 05TH ST,,37.780461, -122.404506,SIDEWALK,1,2
553 PACIFIC AVE,Clubcard,37.797003, -122.404502,SIDEWALK,1,2
7 CLAUDE LN,Cafe Claude,37.790032, -122.404488,SIDEWALK,1,2
2574 SAN BRUNO AVE,North East Medical Services,37.729025, -122.404480,SIDEWALK,1,2
850 BRYANT ST,SFPD Southern Station,37.775398, -122.404389,PARCEL,0,1
530 KEARNY ST,Naked Eye News & Video,37.793342, -122.404214,SIDEWALK,,2
243 KEARNY ST,,37.790413, -122.404201,SIDEWALK,1,2
580 CALIFORNIA ST,,37.792968, -122.404140,SIDEWALK,1,2
141 KEARNY ST,,37.789471, -122.404113,SIDEWALK,1,2
899 HOWARD ST,Burlington Coat Factory,37.781681, -122.404102,SIDEWALK,1,2
735 MARKET ST,Golfsmith,37.786558, -122.404092,SIDEWALK,1,2
2565 SAN BRUNO AVE,Portola Family Connection,37.729476, -122.404057,SIDEWALK,1,2
653 CLAY ST,Thai Thai Gourmet Thai Food,37.794326, -122.403967,SIDEWALK,1,2
350 KANSAS ST,,37.765371, -122.403908,SIDEWALK,1,2
350 KANSAS ST,Horatius Bistro,37.765371, -122.403908,SIDEWALK,1,2
721 MARKET ST,Super Duper Burger,37.786856, -122.403905,SIDEWALK,2,4
635 08TH ST,Concourse Exhibition Center,37.771824, -122.403883,SIDEWALK,2,4
33 KEARNY ST,Discount Camera,37.788266, -122.403864,SIDEWALK,1,2
640 CLAY ST,,37.794793, -122.403864,SIDEWALK,1,2
9 COLUMBUS AVE,Hotel Whitcomb,37.795667, -122.403856,SIDEWALK,4,8
710 MARKET ST,One Kearny,37.787707, -122.403853,SIDEWALK,1,2
49 KEARNY ST,,37.788575, -122.403841,SIDEWALK,1,2
6 LELAND AVE,Bank of America,37.711473, -122.403821,SIDEWALK,1,2
264 KEARNY ST,Starbucks,37.790663, -122.403764,SIDEWALK,1,2
735 MONTGOMERY ST,multiple,37.796216, -122.403755,SIDEWALK,1,2
711 MARKET ST,Del Taco,37.787025, -122.403690,SIDEWALK,1,2
1200 VERMONT ST,Uni's Deli,37.754250, -122.403684,SIDEWALK,1,2
222 KEARNY ST,,37.790196, -122.403664,SIDEWALK,1,2
275 05TH ST,Renaissance Entrepreneurship Center,37.780732, -122.403588,SIDEWALK,1,2
789 MISSION ST,City Target / Starbucks / Active Apparel,37.784772, -122.403560,SIDEWALK,4,8
699 08TH ST,,37.771022, -122.403546,SIDEWALK,1,2
699 08TH ST,,37.771022, -122.403546,SIDEWALK,1,2
601 MONTGOMERY ST,Margolis & Tisman LLP and multiple,37.794836, -122.403527,SIDEWALK,1,2
851 HOWARD ST,Pacific Energy Center,37.782124, -122.403495,SIDEWALK,1,2
851 HOWARD ST,Pacific Energy Center,37.782124, -122.403495,SIDEWALK,1,2
19 HENRY ADAMS ST,,37.769201, -122.403473,SIDEWALK,1,2
736 MISSION ST,Contemporary Jewish Museum,37.785909, -122.403364,SIDEWALK,1,2
175 04TH ST,Jillian's,37.78399572, -122.40335190,SIDEWALK,3,6
235 KANSAS ST,16th and Kansas Streets Building LLC,37.766425, -122.403342,SIDEWALK,2,4
1301 SANSOME ST,Pearson Education,37.802327, -122.403298,SIDEWALK,1,2
478 JACKSON ST,Hunt Antiques,37.796609, -122.403181,SIDEWALK,2,4
708 MONTGOMERY ST,Clement St. Bar and Grill,37.795811, -122.403157,SIDEWALK,1,2
730 MONTGOMERY ST,Swiss Nex,37.796228, -122.403125,SIDEWALK,2,4
714 MONTGOMERY ST,Bubble Lounge,37.795902, -122.403068,SIDEWALK,1,2
333 BUSH ST,Escape from New York Pizza,37.790592, -122.403057,SIDEWALK,1,2
333 BUSH ST,office building,37.790592, -122.403057,SIDEWALK,1,2
50 POST ST,Crocker Galleria,37.789531, -122.403041,SIDEWALK,1,2
135 SUTTER ST,Crocker Galleria,37.78953121, -122.40304094,SIDEWALK,1,2
130 SUTTER ST,multiple,37.790237, -122.403040,SIDEWALK,1,2
130 SUTTER ST,multiple,37.790237, -122.403040,SIDEWALK,1,2
57 POST ST,Mechanic's Institute,37.788747, -122.403034,SIDEWALK,1,2
65 POST ST,,37.788747, -122.403034,SIDEWALK,1,2
7 03RD ST,Starbucks,37.78741044, -122.40303321,SIDEWALK,2,4
11 03RD ST,Subway,37.78741044, -122.40303321,SIDEWALK,1,2
5 03RD ST,Hearst Building,37.787410, -122.403033,SIDEWALK,1,2
691 MARKET ST,Limited Edition Speakeasy,37.787410, -122.403033,SIDEWALK,1,2
29 03RD ST,Dave's Bar,37.787410, -122.403033,SIDEWALK,1,2
450 RHODE ISLAND ST,Whole Foods,37.764113, -122.402987,PARKING_LANE,12,24
450 RHODE ISLAND ST,Whole Foods,37.764113, -122.402987,SIDEWALK,5,10
780 BRANNAN ST,ATS Auto Body,37.773525, -122.402843,SIDEWALK,1,2
685 MARKET ST,La Boulange Cafe & Bakery,37.787646, -122.402759,SIDEWALK,2,4
685 MARKET ST,Yocup Yogurt,37.787646, -122.402759,SIDEWALK,1,2
330 CLEMENTINA ST,Clementina Towers,37.782177, -122.402758,SIDEWALK,1,2
860 FOLSOM ST,,37.781102, -122.402724,SIDEWALK,1,2
440 JACKSON ST,John Velasquez Salon,37.796667, -122.402717,SIDEWALK,1,2
1370 SANSOME ST,Starbucks,37.802664, -122.402707,SIDEWALK,2,4
854 FOLSOM ST,Barber Lounge,37.781281, -122.402698,SIDEWALK,2,4
110 SUTTER ST,One Medical Group,37.790225, -122.402697,SIDEWALK,1,2
858 FOLSOM ST,Jamber,37.781146, -122.402668,SIDEWALK,1,2
848 FOLSOM ST,Little Pizza,37.781347, -122.402614,SIDEWALK,1,2
434 JACKSON ST,Arader Galleries,37.796687, -122.402556,SIDEWALK,1,2
700 MISSION ST,Rochester Big & Tall,37.78620610, -122.40253249,SIDEWALK,1,2
25 DIVISION ST,B.B. Hawk / Source Restaurant,37.769533, -122.402529,SIDEWALK,2,4
45 MONTGOMERY ST,24 Hour Fitness,37.789760, -122.402524,SIDEWALK,2,4
45 MONTGOMERY ST,24 Hour Fitness,37.789760, -122.402524,SIDEWALK,1,2
937 HARRISON ST,Mochica Restaurant,37.778167, -122.402440,SIDEWALK,1,2
275 RHODE ISLAND ST,Roll,37.766752, -122.402438,SIDEWALK,1,2
251 RHODE ISLAND ST,Dos Pinas,37.766752, -122.402438,SIDEWALK,1,2
251 RHODE ISLAND ST,Office Building / Gallery,37.766752, -122.402438,SIDEWALK,2,4
33 03RD ST,Office Depot,37.787173, -122.402401,SIDEWALK,1,2
53 03RD ST,California Pizza Kitchen,37.787173, -122.402401,SIDEWALK,1,2
300 MONTGOMERY ST,Walgreens,37.792346, -122.402385,SIDEWALK,1,2
3000 SAN BRUNO AVE,Money Mart,37.723812, -122.402354,SIDEWALK,1,2
412 JACKSON ST,The Antiques Gallery,37.796720, -122.402290,SIDEWALK,1,2
383 RHODE ISLAND ST,change.org,37.765023, -122.402279,SIDEWALK,3,6
250 MONTGOMERY ST,Peet's Coffee,37.791583, -122.402276,SIDEWALK,1,2
408 JACKSON ST,Montgomery Gallery,37.796739, -122.402136,SIDEWALK,1,2
1500 16TH ST,Wedding Day Dances,37.766772, -122.402094,SIDEWALK,1,2
371 05TH ST,,37.779543, -122.402089,SIDEWALK,1,2
371 05TH ST,,37.779543, -122.402089,SIDEWALK,1,2
95 03RD ST,UC Berkeley Extension,37.786554, -122.402030,SIDEWALK,1,2
91 03RD ST,,37.786554, -122.402030,SIDEWALK,1,2
360 PINE ST,office building,37.792177, -122.402028,SIDEWALK,1,2
300 DE HARO ST,San Francisco Center for the Book.,37.765725, -122.402024,SIDEWALK,1,2
220 MONTGOMERY ST,Bank of the West,37.791316, -122.401994,SIDEWALK,1,2
250 BUSH ST,Blood Centers of the Pacific,37.79131571, -122.40199384,SIDEWALK,2,4
369 PINE ST,,37.791722, -122.401984,SIDEWALK,1,2
180 MONTGOMERY ST,Bank of the West,37.790736, -122.401969,SIDEWALK,1,2
816 FOLSOM ST,,37.781800, -122.401840,SIDEWALK,1,2
505 SANSOME ST,Starbucks,37.795071, -122.401823,SIDEWALK,1,2
688 MISSION ST,A G Ferrari Foods,37.786724, -122.401815,SIDEWALK,1,2
500 DE HARO ST,St Gregory's Church,37.76335050, -122.40177521,SIDEWALK,1,2
500 DE HARO ST,St. Gregory's,37.763351, -122.401775,SIDEWALK,1,2
500 DE HARO ST,St. Gregory's,37.763351, -122.401775,SIDEWALK,1,2
44 MONTGOMERY ST,Union Bank,37.789808, -122.401767,SIDEWALK,1,2
880 HARRISON ST,Project 880,37.779613, -122.401682,SIDEWALK,2,4
185 CLARA ST,startupHQ,37.779613, -122.401682,PARKING_LANE,5,10
433 CALIFORNIA ST,Office Building,37.792686, -122.401668,SIDEWALK,1,2
350 PACIFIC AVE,,37.797818, -122.401623,SIDEWALK,1,2
678 MISSION ST,California Historical Society,37.78695752, -122.40161525,SIDEWALK,2,4
582 MARKET ST,Apotheca,37.789525, -122.401610,SIDEWALK,1,2
350 JACKSON ST,residential complex,37.796802, -122.401530,SIDEWALK,1,2
578 MARKET ST,Quizno's,37.789640, -122.401448,SIDEWALK,1,2
425 CALIFORNIA ST,Chase Building,37.792796, -122.401353,SIDEWALK,3,6
425 CALIFORNIA ST,Chase Building,37.792796, -122.401353,SIDEWALK,1,2
225 BUSH ST,office building,37.790937, -122.401337,SIDEWALK,1,2
220 BUSH ST,Mills Building,37.791392, -122.401307,SIDEWALK,1,2
301 PINE ST,Equinox,37.791834, -122.401280,SIDEWALK,3,6
301 PINE ST,Equinox,37.791834, -122.401280,SIDEWALK,1,2
734 BRYANT ST,Fight and Fitness Inc,37.777377, -122.401256,SIDEWALK,1,2
734 BRYANT ST,Fight and Fitness Inc,37.777377, -122.401256,SIDEWALK,1,2
300 PINE ST,Speedway,37.792257, -122.401242,SIDEWALK,1,2
654 MISSION ST,SPUR,37.787183, -122.401235,SIDEWALK,3,6
654 MISSION ST,SPUR,37.787183, -122.401235,SIDEWALK,1,2
564 MARKET ST,Dharmaspace Pilates,37.789879, -122.401188,SIDEWALK,1,2
562 MARKET ST,Grant's Tobacconists,37.789879, -122.401188,SIDEWALK,1,2
562 MARKET ST,Grant's Tobacconists,37.789879, -122.401188,SIDEWALK,1,2
633 BATTERY ST,One Jackson Place,37.797147, -122.401161,SIDEWALK,1,2
701 BATTERY ST,Starbucks,37.797721, -122.401153,SIDEWALK,1,2
650 MISSION ST,Sharethrough Inc,37.787264, -122.401133,SIDEWALK,1,2
326 JACKSON ST,Hair Designers of Jackson Square,37.796892, -122.401069,SIDEWALK,1,2
115 SANSOME ST,,37.791427, -122.401038,SIDEWALK,1,2
36 02ND ST,,37.788587, -122.400958,SIDEWALK,2,4
39 NEW MONTGOMERY ST,,37.788227, -122.400955,SIDEWALK,1,2
61 NEW MONTGOMERY ST,Bar Jules,37.788227, -122.400955,SIDEWALK,1,2
90 NEW MONTGOMERY ST,,37.787422, -122.400932,SIDEWALK,1,2
795 FOLSOM ST,Subway,37.782057, -122.400865,SIDEWALK,1,2
480 05TH ST,,37.777924, -122.400857,SIDEWALK,1,2
480 05TH ST,,37.777924, -122.400857,SIDEWALK,1,2
657 MISSION ST,GLBT Historical Society,37.786710, -122.400840,SIDEWALK,1,2
204 03RD ST,Moscone Center,37.78351336, -122.40081339,SIDEWALK,1,2
204 03RD ST,Moscone Center,37.78351336, -122.40081339,SIDEWALK,1,2
747 HOWARD ST,Moscone Center,37.783513, -122.400813,SIDEWALK,3,6
701 HOWARD ST,Zeum Museum,37.783513, -122.400813,SIDEWALK,1,2
15 SUTTER ST,,37.790057, -122.400783,SIDEWALK,1,2
151 03RD ST,SF MOMA,37.785923, -122.400750,SIDEWALK,1,2
595 MARKET ST,Country Bank/Commonwealth Club,37.789318, -122.400655,SIDEWALK,1,2
595 MARKET ST,Country Bank?,37.789318, -122.400655,SIDEWALK,1,2
79 NEW MONTGOMERY ST,Academy of Art University,37.787890, -122.400535,SIDEWALK,1,2
79 NEW MONTGOMERY ST,Academy of Art University,37.787890, -122.400535,SIDEWALK,1,2
79 NEW MONTGOMERY ST,Academy of Art University,37.787890, -122.400535,SIDEWALK,2,4
100 SANSOME ST,,37.791500, -122.400450,SIDEWALK,1,2
114 SANSOME ST,,37.791500, -122.400450,SIDEWALK,2,4
123 BATTERY ST,,37.792602, -122.400439,SIDEWALK,1,2
126 NEW MONTGOMERY ST,,37.787042, -122.400427,SIDEWALK,1,2
118 NEW MONTGOMERY ST,,37.787042, -122.400427,SIDEWALK,1,2
275 BATTERY ST,Embarcadero West building,37.793863, -122.400374,SIDEWALK,1,2
1 BUSH PLZ,One Bush Plaza,37.790548, -122.400334,SIDEWALK,1,2
1 BUSH PLZ,One Bush Plaza,37.790548, -122.400334,SIDEWALK,1,2
1315 16TH AVE,Urban Fauna Studio (CLOSED),37.76584514, -122.40023936,SIDEWALK,2,4
1 BUSH ST,multiple,37.790922, -122.400100,SIDEWALK,1,2
670 HOWARD ST,Hair Salon,37.785742, -122.400050,SIDEWALK,1,2
221 PINE ST,,37.792065, -122.400015,SIDEWALK,1,2
77 BATTERY ST,SF Sport and Spine Physical Therapy,37.791941, -122.399989,SIDEWALK,1,2
100 BUSH ST,Noah's Bagels,37.791569, -122.399964,SIDEWALK,1,2
117 NEW MONTGOMERY ST,,37.787247, -122.399959,SIDEWALK,1,2
444 BATTERY ST,LiveNation Punch Line Comedy Club,37.795514, -122.399944,SIDEWALK,1,2
1600 17TH ST,Thee Parkside,37.765168, -122.399885,SIDEWALK,1,2
85 02ND ST,,37.788457, -122.399884,SIDEWALK,1,2
85 02ND ST,,37.788457, -122.399884,SIDEWALK,1,2
399 04TH ST,Whole Foods,37.78133158, -122.39966893,SIDEWALK,2,4
71 STEVENSON ST,,37.789373, -122.399666,SIDEWALK,1,2
1 EMBARCADERO CENTER,1 Embarcadero Center,37.79464385, -122.39964430,GARAGE,7,14
244 CALIFORNIA ST FLOOR 4,Michael Mina Restaurant ,37.793520, -122.399604,SIDEWALK,2,4
124 02ND ST,Patelco Credit Union,37.787514, -122.399566,SIDEWALK,2,4
149 NEW MONTGOMERY ST,Kaplan Building,37.786964, -122.399560,SIDEWALK,2,4
180 NEW MONTGOMERY ST,Art Academy University,37.786251, -122.399521,SIDEWALK,4,8
180 NEW MONTGOMERY ST,Art Academy University,37.786251, -122.399521,SIDEWALK,1,2
180 NEW MONTGOMERY ST,Art Academy University,37.786251, -122.399521,SIDEWALK,1,2
1555 MARIPOSA ST,Live Oak School,37.763454, -122.399458,SIDEWALK,2,4
1555 MARIPOSA ST,Live Oak School,37.763454, -122.399458,SIDEWALK,1,2
120 BATTERY ST,,37.792525, -122.399416,SIDEWALK,1,2
142 02ND ST,SF Soup Company,37.787297, -122.399367,SIDEWALK,1,2
255 03RD ST,Moscone Garage,37.784712, -122.399367,GARAGE,12,24
49 STEVENSON ST,Yank Sing restaurant,37.789736, -122.399352,SIDEWALK,1,2
525 MARKET ST,Chipotle,37.790407, -122.399276,SIDEWALK,1,2
345 WILLIAMS AVE,Foodco,37.729805, -122.399247,SIDEWALK,1,2
144 02ND ST,,37.787209, -122.399211,SIDEWALK,1,2
764 HARRISON ST,Epicenter Cafe,37.781650, -122.399117,SIDEWALK,2,4
420 BERRY ST,,37.772009, -122.399084,SIDEWALK,3,6
701 FOLSOM ST,Chai-Am Thai Restaurant,37.78318025, -122.39908230,SIDEWALK,1,2
1500 17TH ST,Fenix International,37.765356, -122.399048,SIDEWALK,2,4
760 HARRISON ST,multiple,37.781765, -122.398972,SIDEWALK,1,2
1 FRONT ST,Office Building,37.791757, -122.398898,SIDEWALK,1,2
1 HAWTHORNE ST,One Hawthorne,37.785769, -122.398876,SIDEWALK,1,2
186 02ND ST,,37.786776, -122.398644,SIDEWALK,1,2
186 02ND ST,,37.786776, -122.398644,SIDEWALK,1,2
631 HOWARD ST,Howard-Hawthrone Center,37.786043, -122.398556,SIDEWALK,1,2
621 HOWARD ST,Health Haven,37.786043, -122.398556,SIDEWALK,1,2
250 CLAY ST,Golden Gateway Garage,37.795701, -122.398490,GARAGE,25,50
250 CLAY ST,Golden Gateway Garage,37.795701, -122.398490,GARAGE,8,16
2 SACRAMENTO ST,Banana Republic,37.794799, -122.398473,SIDEWALK,1,2
1435 17TH ST,J.B.'s Place,37.76487114, -122.39837483,SIDEWALK,1,2
181 02ND ST,,37.787175, -122.398362,SIDEWALK,1,2
181 02ND ST,,37.787175, -122.398362,SIDEWALK,1,2
388 MARKET ST,Sprint,37.792217, -122.398167,SIDEWALK,1,2
201 WILLIAMS AVE,SFPD Bayview Station,37.729658, -122.398163,SIDEWALK,2,4
500 04TH ST,,37.779293, -122.398131,SIDEWALK,1,2
500 04TH ST,,37.779293, -122.398131,SIDEWALK,1,2
451 BERRY ST,Mission Bay Parks Maintenance Facility,37.771499, -122.398000,SIDEWALK,3,6
568 HOWARD ST,Office Building,37.787445, -122.397847,SIDEWALK,1,2
655 FOLSOM ST,,37.784374, -122.397774,SIDEWALK,1,2
548 04TH ST,Natural Path Media,37.778773, -122.397711,SIDEWALK,2,4
589 HOWARD ST,GitHub,37.786906, -122.397672,SIDEWALK,1,2
300 CONNECTICUT ST,Goat Hill Pizzeria. Needs bike rack,37.762402, -122.397653,SIDEWALK,1,2
300 CONNECTICUT ST,Goat Hi,37.762402, -122.397653,SIDEWALK,1,2
620 FOLSOM ST,Rackspace / SF Wine Exchange / Meez / ICFI,37.785271, -122.397582,SIDEWALK,1,2
333 MARKET ST,Buchalter,37.791778, -122.397517,SIDEWALK,1,2
333 MARKET ST,Buchalter,37.791778, -122.397517,SIDEWALK,1,2
579 HOWARD ST,Kate O'Brien Irish Pub and Grill,37.787055, -122.397482,SIDEWALK,1,2
1601 20TH ST,Dave's Food Store,37.75976449, -122.39741163,SIDEWALK,1,2
246 02ND ST,SoMa Wines,37.785746, -122.397398,SIDEWALK,1,2
428 03RD ST,Rayko Photo Center,37.781969, -122.397291,SIDEWALK,1,2
428 03RD ST,Rayko Photo Center,37.781969, -122.397291,SIDEWALK,1,2
1426 18TH ST,Big Think Studios,37.76266262, -122.39719562,SIDEWALK,1,2
1453 18TH ST,Chez Maman,37.762346, -122.397163,SIDEWALK,1,2
580 04TH ST,Chrome Industries,37.778455, -122.397079,SIDEWALK,2,4
500 BRANNAN ST,CoCo 500,37.778279, -122.396858,SIDEWALK,1,2
426 BRANNAN ST,Brickhouse Cafe,37.779654, -122.395232,SIDEALK,1,2
150 MISSISSIPPI ST,Front Cafe,37.764412, -122.395182,SIDEWALK,2,4
560 03RD ST,,37.780411, -122.395095,SIDEWALK,1,2
560 03RD ST,,37.780411, -122.395095,SIDEWALK,1,2
383 KING ST,Avalon at Mission Bay,37.775308, -122.394934,SIDEWALK,3,6
353 KING ST,,37.775308, -122.394934,SIDEWALK,3,6
414 BRANNAN ST,Hattery,37.77993078, -122.39486849,SIDEWALK,1,2
1 MARKET ST,Blush School of Makeup,37.79387152, -122.39486524,SIDEWALK,2,4
201 MISSION ST,Bistro Burger,37.791034, -122.394768,SIDEWALK,1,2
255 BERRY ST,,37.774186, -122.394743,SIDEWALK,3,6
88 SPEAR ST,Walgreens,37.792536, -122.394593,SIDEWALK,1,2
100 MISSION ST,Lightening Food,37.792536, -122.394593,SIDEWALK,1,2
135 MISSISSIPPI ST,,37.764726, -122.394522,SIDEWALK,1,2
602 03RD ST,,37.77982478, -122.39435597,SIDEWALK,1,2
602 03RD ST,,37.77982478, -122.39435597,SIDEWALK,1,2
123 MISSION ST,multiple,37.791882, -122.394339,SIDEWALK,1,2
215 FREMONT ST,Supercuts,37.789139, -122.394299,SIDEWALK,1,2
480 02ND ST,Lumatic,37.78319488, -122.39425392,SIDEWALK,2,4
301 KING ST,Panera Bread,37.775519, -122.394228,SIDEWALK,3,6
155 SOUTH PARK,The Butler & The Chef,37.780898, -122.394214,PARKING_LANE,6,12
1800 OAKDALE AVE,,37.737053, -122.394129,SIDEWALK,1,2
201 BERRY ST,Philz Coffee,37.774704, -122.394083,SIDEWALK,3,6
960 04TH ST,Mission Bay Public Library,37.774704, -122.394083,SIDEWALK,6,12
201 BERRY ST,Philz Coffee,37.774704, -122.394083,SIDEWALK,1,2
201 BERRY ST,Philz Coffee,37.774704, -122.394083,SIDEWALK,3,6
50 POMONA ST,Dr Charles Drew CDC (Pre-K and SA),37.732132, -122.393810,SIDEWALK,1,2
214 TOWNSEND ST,,37.779097, -122.393650,SIDEWALK,1,2
461 02ND ST #127 C,David Baker + Partners Architects,37.783699, -122.393581,SIDEWALK,2,4
210 KING ST,Borders,37.777627, -122.393425,SIDEWALK,3,6
298 KING ST,Safeway,37.777642, -122.393418,SIDEWALK,3,6
298 KING ST,The Beacon,37.777642, -122.393418,SIDEWALK,7,14
8 MISSION ST,Hotel Vitale,37.793835, -122.393406,SIDEWALK,2,4
5300 03RD ST,Walgreens,37.729006, -122.393266,SIDEWALK,1,2
2 SOUTH PARK,Jeremy's Department Store,37.782424, -122.393236,SIDEWALK,1,2
665 03RD ST,Wine Bar,37.779561, -122.393040,SIDEWALK,1,2
665 03RD ST,,37.779561, -122.393040,SIDEWALK,1,2
5298 03RD ST,El Azteca Taqueria,37.72945900, -122.39292011,SIDEWALK,1,2
1 SOUTH PARK,The American Grilled Cheese Kitchen,37.782053, -122.392835,SIDEWALK,2,4
765 PENNSYLVANIA AVE,,37.756408, -122.392750,SIDEWALK,1,2
300 CHANNEL ST,,37.77344684, -122.39268338,SIDEWALK,3,6
180 TOWNSEND ST,Say Media ,37.77936919, -122.39260615,SIDEWALK,1,2
180 TOWNSEND ST,,37.779369, -122.392606,SIDEWALK,1,2
555 02ND ST,Nova Bar and Restaurant,37.782556, -122.392559,SIDEWALK,1,2
555 02ND ST,Nova Bar and Restaurant,37.782556, -122.392559,SIDEWALK,1,2
555 02ND ST,Nova Bar and Restaurant,37.782556, -122.392559,SIDEWALK,1,2
300 BRANNAN ST,United Barbell (CrossFit SOMA),37.781823, -122.392547,SIDEWALK,1,2
121 STEUART ST,Jewish Community Federation,37.793145, -122.392541,SIDEWALK,2,4
21 CLARENCE PL,residential complex,37.779734, -122.392511,SIDEWALK,2,4
563 02ND ST,,37.782539, -122.392461,SIDEWALK,1,2
563 02ND ST,,37.782539, -122.392461,SIDEWALK,1,2
131 STEUART ST,Little Saigon,37.793012, -122.392374,SIDEWALK,1,2
,Caltrain,37.757410, -122.392370,PARCEL,9,18
,Caltrain,37.757410, -122.392370,SIDEWALK,3,6
200 FOLSOM ST,,37.789286, -122.392299,SIDEWALK,1,2
221 MAIN ST,,37.790346, -122.392214,SIDEWALK,1,2
5251 03RD ST,Las Palmas,37.729771, -122.392154,SIDEWALK,1,2
577 02ND ST,,37.782263, -122.392143,SIDEWALK,1,2
577 02ND ST,,37.782263, -122.392143,SIDEWALK,1,2
595 02ND ST,,37.78226310, -122.39214260,SIDEWALK,1,2
595 02ND ST,,37.78226310, -122.39214260,SIDEWALK,1,2
161 STEUART ST,Ozumo Restaurant,37.792699, -122.391982,SIDEWALK,2,4
169 STEUART ST,YMCA,37.792699, -122.391982,SIDEWALK,1,2
5112 03RD ST,AA Photography,37.73220117, -122.39196216,SIDEWALK,1,2
5030 03RD ST,,37.732935, -122.391769,SIDEWALK,1,2
207 KING ST,,37.777528, -122.391686,SIDEWALK,3,6
201 KING ST,,37.77752751, -122.39168557,SIDEWALK,3,6
5131 03RD ST,Golden City Chinese Cuisine,37.731846, -122.391394,SIDEWALK,1,2
4920 03RD ST,Peking Wok,37.733820, -122.391388,SIDEWALK,1,2
151 TOWNSEND ST,Bagel Bakery,37.779252, -122.391369,SIDEWALK,1,2
157 TOWNSEND ST,Modern Dentistry,37.779252, -122.391369,SIDEWALK,2,4
680 02ND ST,Beach Blanket Babylon,37.780697, -122.391232,SIDEWALK,1,2
5029 03RD ST,Hop Li Restaurant,37.732624, -122.391169,SIDEWALK,1,2
4820 03RD ST,Ebony Beauty Supply,37.734589, -122.391116,SIDEWALK,1,2
5075 03RD ST,Bayview Library Branch,37.732453, -122.391023,SIDEWALK,1,2
5075 03RD ST,Bayview Library Branch,37.732453, -122.391023,SIDEWALK,3,6
1555 YOSEMITE AVE,Yosemite Business Center,37.726006, -122.391017,SIDEWALK,1,2
4744 03RD ST,Positive Directiond Equals Change,37.735120, -122.390942,SIDEWALK,1,2
4720 03RD ST,Positive Directiond Equals Change,37.735443, -122.390845,SIDEWALK,1,2
4923 03RD ST,,37.733543, -122.390807,SIDEWALK,1,2
128 KING ST,,37.779507, -122.390710,SIDEWALK,1,2
904 22ND ST,Rickshaw Bagworks,37.758032, -122.390585,SIDEWALK,2,4
4622 03RD ST,United Beauty Salon,37.736098, -122.390554,SIDEWALK,1,2
101 TOWNSEND ST,,37.780226, -122.390466,SIDEWALK,1,2
1325 INDIANA ST,Dekko Salon,37.753680, -122.390415,SIDEWALK,1,2
66 TOWNSEND ST,OM Power SF,37.781388, -122.390353,SIDEWALK,1,2
4526 03RD ST,Bakery San Marcos,37.73688568, -122.39027833,SIDEWALK,1,2
4705 03RD ST,Bayview Opera House,37.735004, -122.390172,SIDEWALK,1,2
4699 03RD ST,Providence Foundation,37.735686, -122.390032,SIDEWALK,1,2
1490 03RD ST,UCSF,37.77014638, -122.38987095,SIDEWALK,3,6
2 HARRISON ST,,37.789803, -122.389757,SIDEWALK,1,2
4348 03RD ST,Universal Martial Arts Academy,37.73825175, -122.38970207,SIDEWALK,1,2
4348 03RD ST,Universal Martial Arts Academy,37.73825175, -122.38970207,SIDEWALK,1,2
4517 03RD ST,Super Save,37.736551, -122.389700,SIDEWALK,1,2
1576 03RD ST,UCSF,37.76856044, -122.38967783,SIDEWALK,3,6
701 02ND ST,Paragon Restaurant,37.78063023, -122.38962498,SIDEWALK,1,2
701 02ND ST,Paragon Restaurant,37.78063023, -122.38962498,SIDEWALK,1,2
1601 LANE ST,YMCA Bay View,37.731805, -122.389581,SIDEWALK,3,6
1650 03RD ST,Laundry Locker Cleaners,37.767963, -122.389495,SIDEWALK,3,6
4343 03RD ST,,37.738093, -122.389208,SIDEWALK,1,2
1520 OAKDALE AVE,Burnett CDC (as known as Leona Havard),37.734384, -122.389127,SIDEWALK,1,2
1395 MENDELL ST,Joe Lee Rec Ctr,37.734384, -122.389127,SIDEWALK,1,2
1395 MENDELL ST,Joe Lee Rec Ctr,37.734384, -122.389127,SIDEWALK,1,2
2092 03RD ST,,37.763188, -122.389089,SIDEWALK,1,2
2092 03RD ST,,37.763188, -122.389089,SIDEWALK,1,2
1100 CESAR CHAVEZ ST,Veritable Vegetable,37.750453, -122.389020,SIDEWALK,1,2
600 THE EMBARCADERO,Delancy Street Restaurant,37.783486, -122.388893,SIDEWALK,2,4
2111 JENNINGS ST,Homeless shelter,37.726728, -122.388658,SIDEWALK,2,4
2496 03RD ST,Dogpatch Saloon,37.75815494, -122.38856125,SIDEWALK,1,2
2496 03RD ST,03RD St,37.75815494, -122.38856125,SIDEWALK,1,2
2496 03RD ST,,37.75815494, -122.38856125,SIDEWALK,1,2
2496 03RD ST,Dogpatch Saloon,37.75815494, -122.38856125,SIDEWALK,1,2
2496 03RD ST,,37.75815494, -122.38856125,SIDEWALK,1,2
2576 03RD ST,03RD Street Boxing Gym,37.756961, -122.388509,SIDEWALK,2,4
628 20TH ST,Retox Lounge,37.760684, -122.388228,SIDEWALK,1,2
810 ILLINOIS ST,Portrero Kids on Third,37.761183, -122.388119,SIDEWALK,2,4
2501 23RD ST,San Francisco General Hospital,37.756717, -122.387649,GARAGE,20,40
3801 03RD ST,Bayview Plaza,37.741940, -122.387432,SIDEWALK,1,2
1555 GALVEZ AVE,Nueva Castilla Company,37.740159, -122.387337,SIDEWALK,1,2
,Pier 52 Boat Launch,37.770980, -122.386260,SIDEWALK,2,4
1400 EVANS AVE,CCSF,37.741798, -122.384707,SIDEWALK,1,2
1400 EVANS AVE,CCSF,37.741798, -122.384707,SIDEWALK,1,2
315 LINDEN ST,Blue Bottle Cafe,37.776340, -122.423099,SIDEWALK,2,4
949 WASHINGTON ST,Commodore Stockton CDC (PreK & SA),37.794779, -122.409028,SIDEWALK,1,2
1299 CHURCH ST,Green Twig Salon,37.750131, -122.427210,SIDEWALK,1,2
251 FREMONT ST,Groove Salon,37.790226, -122.393799,SIDEWALK,1,2
900 NOE ST,Fitwell Chiropractic,37.754594, -122.432224,SIDEWALK,1,2
180 FAIR OAKS ST,Adda Clevenger Jr Prep School,37.753824, -122.424237,SIDEWALK,3,6
1670 NOE ST,Kate Kennedy (SA) CDC,37.742294, -122.431040,SIDEWALK,1,2
4826 MISSION ST,Doctor's Lounge,37.720872, -122.437796,SIDEWALK,1,2
1060 YORK ST,Bryant (PreK & SA) CDC,37.755085, -122.408471,SIDEWALK,1,2
1435 IRVING ST,Cafe Hollow,37.763680, -122.473198,SIDEWALK,1,2
421 BARTLETT ST,Mission Annex CDC,37.750243, -122.419293,SIDEWALK,1,2
2277 MISSION ST,FFDG Art Gallery,37.760618, -122.419184,SIDEWALK,1,2
301 FELL ST,Live Fit Gym,37.775891, -122.422909,SIDEWALK,2,4
300 POST ST,Levi's,37.788545, -122.406795,SIDEWALK,2,4
1234 MARKET ST,Bay 1 Fitness,37.778426, -122.415240,SIDEWALK,3,6
,33rd Ave and Clement (Lincoln Park playground),37.781611, -122.493429,SIDEWALK,1,2
,34TH Ave and Clement (Lincoln Park playground),37.781571, -122.494500,SIDEWALK,1,2
,21st St and Folsom (Jose Coronado Playground),37.757302, -122.414520,SIDEWALK,2,4
3111 25TH ST,Garfield Square,37.750975, -122.411988,SIDEWALK,2,4
580 DUBOCE AVE,Duboce Park,37.769285, -122.432945,SIDEWALK,2,4
1279 TREAT AVE,Garfield Square,37.749796, -122.412639,SIDEWALK,2,4
,Duboce and Noe (Duboce Park),37.769300, -122.433080,SIDEWALK,6,12
2115 VAN NESS AVE,Eyebrows To Die For,37.794964, -122.423418,SIDEWALK,1,2
2455 FILLMORE ST,Tully's Coffee,37.792071, -122.434535,SIDEWALK,1,2
100 IRVING ST,UCSF Medical Campus garage,37.764416, -122.458865,SIDEWALK,1,2
544 HAIGHT ST,Pandora's Trunk,37.772073, -122.431199,SIDEWALK,1,2
557 WALLER ST,Flourish: A Chiropractic Studio,37.770790, -122.432930,SIDEWALK,2,4
701 MISSION ST,Yerba Buena Center (Gallery),37.786217, -122.401972,SIDEWALK,1,2
595 MISSION ST,Peet's Coffee,37.788043, -122.399652,SIDEWALK,1,2
366 MISSION ST,Noah's Bagels,37.790732, -122.396467,SIDEWALK,1,2
180 STEUART ST,USPS,37.792214, -122.391979,SIDEWALK,1,2
410 ELLIS ST,Starlight Market,37.784928, -122.412999,SIDEWALK,1,2
1767 WALLER ST,Hand Printed Custom Shirts,37.768223, -122.452762,SIDEWALK,1,2
1100 DOUGLASS ST,Douglass Playground,37.747805, -122.438205,SIDEWALK,2,4
799 VALENCIA ST,Ali Baba's Cave,37.760164, -122.421334,SIDEWALK,2,4
1849 GEARY BLVD,US Post Office,37.784104, -122.433678,SIDEWALK,5,10
4 EMBARCADERO CENTER,4 Embarcadero Center,37.795143, -122.396140,GARAGE,7,14
3 EMBARCADERO CENTER,3 Embarcadero Center,37.795031, -122.397003,GARAGE,7,14
2 EMBARCADERO CENTER,2 Embarcadero Center,37.794810, -122.398770,GARAGE,7,14
,25TH ST AND SAN BRUNO (Potrero Del Sol Park),37.751851, -122.404230,PARCEL,2,4
1825 MARKET ST,Get Lost Travel Books,37.771358, -122.423944,SIDEWALK,1,2
3101 MISSION ST,Carecen,37.748112, -122.418119,SIDEWALK,1,2
699 VALENCIA ST,Taqueria El Buen Sabor,37.761743, -122.421492,SIDEWALK,1,2
473 VALENCIA ST,Clothes Contact,37.765395, -122.421854,SIDEWALK,1,2
647 VALENCIA ST,Elbo Room bar,37.762654, -122.421592,SIDEWALK,1,2
646 CLAY ST,Balmoral Hotel,37.794628, -122.403902,SIDEWALK,1,2
1495 OCEAN AVE,Ocean Psychic,37.724256, -122.458169,SIDEWALK,1,2
1300 OCEAN AVE,Viking Submarines,37.724040, -122.456539,SIDEWALK,1,2
1915 OCEAN AVE,In Style,37.725343, -122.462609,SIDEWALK,1,2
146 GRANT AVE,,37.788329, -122.405086,SIDEWALK,1,2
5654 GEARY BLVD,US Post Office,37.780419, -122.479974,SIDEWALK,1,2
816 IRVING ST,Sheng Kee Bakery,37.764089, -122.466519,SIDEWALK,1,2
,Grove and Polk (Opera House),37.778480, -122.418218,SIDEWALK,1,2
142 MASON ST,San Francisco International Hostel,37.784800, -122.409298,SIDEWALK,1,2
,Masonic and Page,37.771143, -122.445538,SIDEWALK,1,2
1967 MARKET ST,FedEx Office Print & Ship Center,37.769470, -122.426251,SIDEWALK,1,2
3045 24TH ST,Mission Skateboards,37.752525, -122.412912,SIDEWALK,1,2
2801 BRYANT ST,ABC Market,37.749612, -122.408789,SIDEWALK,1,2
2299 MISSION ST,Beauty Bar,37.760276, -122.419152,SIDEWALK,1,2
,05TH St and Market,37.783971, -122.408097,SIDEWALK,1,2
,Filbert and Stockton (Embacadero Promenade),37.801371, -122.409359,SIDEWALK,1,2
1431 CASTRO ST,Video Wave,37.750228, -122.433907,SIDEWALK,1,2
2780 24TH ST,Brava Theatre,37.752943, -122.407918,SIDEWALK,1,2
2543 24TH ST,J&E,37.753046, -122.404764,SIDEWALK,1,2
2800 24TH ST,Pop's Bar,37.752926, -122.408210,SIDEWALK,1,2
2789 24TH ST,Brava Theater Center,37.752829, -122.407981,SIDEWALK,1,2
3980 24TH ST,Green 11,37.751515, -122.431418,SIDEWALK,1,2
3320 24TH ST,Cafe La Boheme,37.752281, -122.418974,SIDEWALK,1,2
2807 24TH ST,Madrigal Printing,37.752811, -122.408313,SIDEWALK,1,2
3422 25TH ST,Luz de Luna,37.750688, -122.418702,SIDEWALK,1,2
900 ALABAMA ST,Mullen & Mullen Sewing Contractor,37.757451, -122.411472,SIDEWALK,1,2
110 BARTLETT ST,CCSF Mission,37.755011, -122.419888,SIDEWALK,1,2
525 BRYANT ST,Polaris Group,37.780728, -122.396475,SIDEWALK,1,2
1688 BRYANT ST,Jade Cafe,37.765755, -122.410601,SIDEWALK,1,2
1414 CALIFORNIA ST,Nob Hill Hardware,37.791013, -122.417677,SIDEWALK,1,2
1420 CALIFORNIA ST,,37.791001, -122.417772,SIDEWALK,1,2
1625 CARROLL AVE,Bayview Hunter Point Foundation,37.725038, -122.393620,SIDEWALK,1,2
427 CASTRO ST,Castro Coffee Company,37.761976, -122.435031,SIDEWALK,1,2
1782 CHURCH ST,,37.742359, -122.426580,SIDEWALK,1,2
268 CHURCH ST,Underglass Framing,37.766427, -122.428900,SIDEWALK,1,2
1810 CLEMENT ST,Blue Fin Sushi,37.782350, -122.478606,SIDEWALK,1,2
101 CLEMENT ST,Fabrix,37.783085, -122.460178,SIDEWALK,1,2
343 CLEMENT ST,JavaSource Coffee House,37.782967, -122.462741,SIDEWALK,1,2
659 COLUMBUS AVE,,37.800851, -122.411062,SIDEWALK,1,2
651 DIVISADERO ST,Cara Glass and Sash Co.,37.775459, -122.437954,SIDEWALK,1,2
728 DIVISADERO ST,The Perish Trust,37.776219, -122.437964,SIDEWALK,1,2
369 DIVISADERO ST,Vinyl Wine Bar,37.772837, -122.437433,SIDEWALK,1,2
126 ELLIS ST,Infusion Lounge,37.785519, -122.408275,SIDEWALK,1,2
771 ELLIS ST,,37.784051, -122.418852,SIDEWALK,1,2
2597 FOLSOM ST,,37.755804, -122.414328,SIDEWALK,1,2
2101 FOLSOM ST,digipop,37.763650, -122.415075,SIDEWALK,1,2
567 GOLDEN GATE AVE,,37.781045, -122.419843,SIDEWALK,1,2
275 GOUGH ST,Shear Bliss,37.775764, -122.422812,SIDEWALK,1,2
125 GRANT AVE,,37.788109, -122.405180,SIDEWALK,1,2
199 GUERRERO ST,,37.768043, -122.424342,SIDEWALK,1,2
583 HAIGHT ST,,37.771881, -122.431769,SIDEWALK,1,2
547 HAIGHT ST,,37.771961, -122.431205,SIDEWALK,1,2
1506 HAIGHT ST,,37.770037, -122.447076,SIDEWALK,1,2
503 HAIGHT ST,,37.772059, -122.430516,SIDEWALK,1,2
1680 HAIGHT ST,,37.769667, -122.449948,SIDEWALK,1,2
1474 HAIGHT ST,,37.770109, -122.446524,SIDEWALK,1,2
1369 HAIGHT ST,,37.770223, -122.444803,SIDEWALK,1,2
687 HAIGHT ST,Groove Merchant Records,37.771666, -122.433477,SIDEWALK,1,2
2900 HARRISON ST,Cycle Gear,37.751018, -122.411795,SIDEWALK,1,2
232 HARRISON ST,Main Postal Service Location,37.787951, -122.390673,SIDEWALK,1,2
801 HAYES ST,H&W Liquors,37.775980, -122.429577,SIDEWALK,1,2
544 HAYES ST,nida,37.776630, -122.425398,SIDEWALK,1,2
322 HAYES ST,,37.777103, -122.421635,SIDEWALK,1,2
855 HOLLOWAY AVE,,37.721768, -122.461809,SIDEWALK,1,2
822 HOWARD ST,Good Will,37.782886, -122.403287,SIDEWALK,1,2
644 IRVING ST,Amazing Fantasy,37.764168, -122.464655,SIDEWALK,1,2
538 JONES ST,,37.786187, -122.412972,SIDEWALK,1,2
110 JULIAN AVE,,37.766402, -122.421073,SIDEWALK,1,2
1635 MARKET ST,,37.773624, -122.421127,SIDEWALK,1,2
2249 MARKET ST,,37.764975, -122.431931,SIDEWALK,1,2
538 MARKET ST,One Bush Plaza,37.790245, -122.400299,SIDEWALK,1,2
654 MARKET ST,Skin Deep,37.788205, -122.402842,SIDEWALK,1,2
1301 MCALLISTER ST,Green Chile Kitchen & Market,37.778362, -122.433436,SIDEWALK,1,2
5799 MISSION ST,Woodiz Liquor,37.709507, -122.450481,SIDEWALK,1,2
4170 MISSION ST,Ocon Enterprises,37.730254, -122.429857,SIDEWALK,1,2
1231 MISSION ST,,37.777075, -122.413563,SIDEWALK,1,2
1653 MISSION ST,,37.771784, -122.419203,SIDEWALK,1,2
4780 MISSION ST,Burger King,37.721629, -122.437219,SIDEWALK,1,2
910 MONTGOMERY ST,The Purple Onion,37.797438, -122.403613,SIDEWALK,1,2
300 NAPLES ST,Don Chuys Mexi-Mercado,37.723955, -122.428942,SIDEWALK,1,2
,Chestnut and Divisadero (Harvey Milk Plaza),37.799984, -122.442839,SIDEWALK,1,2
,Hill and Valencia,37.756102, -122.421037,SIDEWALK,1,2
,The Embarcadero and Washington St,37.796643, -122.395559,SIDEWALK,1,2
,02ND St and Market,37.789243, -122.401398,SIDEWALK,1,2
,02ND St and Market,37.789243, -122.401398,SIDEWALK,1,2
,03RD St and Folsom,37.783784, -122.398958,SIDEWALK,1,2
,03RD St and Folsom,37.783784, -122.398958,SIDEWALK,1,2
,04TH St and Market,37.785702, -122.405889,SIDEWALK,1,2
,04TH St and Mission,37.784524, -122.404257,SIDEWALK,1,2
,04TH St and Mission,37.784524, -122.404257,SIDEWALK,1,2
,04TH St and Mission,37.784524, -122.404257,SIDEWALK,1,2
,05TH St and Market,37.783971, -122.408097,SIDEWALK,1,2
,06TH Ave and Balboa,37.777213, -122.464017,SIDEWALK,1,2
,06TH St and Brannan,37.774832, -122.400961,SIDEWALK,1,2
,06TH St and Brannan,37.774832, -122.400961,SIDEWALK,1,2
,08TH Ave and Irving,37.764091, -122.465249,SIDEWALK,1,2
,08TH St and Market,37.778712, -122.414757,SIDEWALK,1,2
,24th St and Potrero,37.752993, -122.406317,SIDEWALK,1,2
,26th Ave and Clement,37.781973, -122.485940,SIDEWALK,1,2
,29th St and Church,37.743702, -122.426657,SIDEWALK,1,2
,Battery and Washington,37.795894, -122.400497,SIDEWALK,1,2
,Beale and Howard,37.789921, -122.394279,SIDEWALK,1,2
,Beulah and Stanyan,37.767293, -122.453147,SIDEWALK,1,2
,Broderick and Oak,37.772914, -122.439079,SIDEWALK,1,2
,Broderick and Page,37.772004, -122.438901,SIDEWALK,1,2
,California and Divisadero,37.788083, -122.440449,SIDEWALK,1,2
,California and Polk,37.790572, -122.420680,SIDEWALK,1,2
,California and Spruce,37.786402, -122.453411,SIDEWALK,1,2
,California and Spruce,37.786402, -122.453411,SIDEWALK,1,2
,Cole and Parnassus,37.764862, -122.449780,SIDEWALK,1,2
,Diamond and Wilder,37.734264, -122.433927,SIDEWALK,1,2
,Ellis and Polk,37.784042, -122.419351,SIDEWALK,1,2
,Fillmore and O'Farrell,37.783284, -122.432710,SIDEWALK,1,2
,Franklin and Grove (Xtreme Pizza),37.778021, -122.421519,SIDEWALK,1,2
,Frederick and Stanyan,37.766370, -122.452960,SIDEWALK,1,2
,Golden Gate Ave and Masonic,37.777673, -122.446840,SIDEWALK,1,2
,Gough and Grove,37.777811, -122.423160,SIDEWALK,1,2
,Howard and Spear,37.791322, -122.392548,SIDEWALK,1,2
,Howard and Steuart,37.792022, -122.391638,SIDEWALK,1,2
,Ivy and Webster,37.776522, -122.429610,SIDEWALK,1,2
,Kearny and Sutter,37.789832, -122.403837,SIDEWALK,1,2
,Kirkwood and La Salle,37.727792, -122.372249,SIDEWALK,1,2
,McAllister and Polk (City Hall),37.780273, -122.418597,SIDEWALK,1,2
,Mission and New Montgomery,37.787450, -122.400497,SIDEWALK,1,2
,Mission and Spear,37.792562, -122.394069,SIDEWALK,1,2
,Mission and Spear (Rincon Center),37.792562, -122.394069,SIDEWALK,1,2
,Pacific and Polk,37.795033, -122.421577,SIDEWALK,1,2
,Post and Powell (CCA),37.788293, -122.408400,SIDEWALK,1,2
,Post and Steiner,37.784943, -122.434717,SIDEWALK,1,2
,Stockton and Union,37.800434, -122.409168,SIDEWALK,1,2
,The Embarcadero and Harrison St,37.789502, -122.388610,SIDEWALK,1,2
,The Embarcadero and Washington St,37.796643, -122.395559,SIDEWALK,1,2
,Ulloa and West Portal,37.740892, -122.465757,SIDEWALK,1,2
,04TH St and Harrison,37.780782, -122.399627,SIDEWALK,1,2
,04TH St and Howard,37.783271, -122.402700,SIDEWALK,1,2
,04TH St and Howard,37.783271, -122.402700,SIDEWALK,1,2
,04TH St and Market,37.785702, -122.405889,SIDEWALK,1,2
,06TH Ave and Balboa,37.777213, -122.464017,SIDEWALK,1,2
,08TH Ave and Irving,37.764091, -122.465249,SIDEWALK,1,2
,16TH AND SAN BRUNO (UPS),37.765893, -122.405568,SIDEWALK,1,2
,16th St and Church,37.764501, -122.428651,SIDEWALK,1,2
,18th St and Castro,37.760893, -122.434998,SIDEWALK,1,2
,23rd St and S Van Ness (Cala),37.753961, -122.416438,SIDEWALK,1,2
,27TH ST AND SAN JOSE (St. Luke's),37.747222, -122.421398,SIDEWALK,1,2
,Broadway and Romolo,37.797941, -122.406219,SIDEWALK,1,2
,California and Grant,37.792464, -122.405889,SIDEWALK,1,2
,Carl and Stanyan,37.765420, -122.452750,SIDEWALK,1,2
,Clay and Polk,37.792392, -122.421050,SIDEWALK,1,2
,Clay and Van Ness,37.792174, -122.422768,SIDEWALK,1,2
,Columbus and Union,37.800314, -122.410167,SIDEWALK,1,2
,Fillmore and O'Farrell,37.783284, -122.432710,SIDEWALK,1,2
,Fillmore and Post,37.785162, -122.433080,SIDEWALK,1,2
,Fillmore and Waller,37.771192, -122.430239,SIDEWALK,1,2
,Fillmore and Waller,37.771192, -122.430239,SIDEWALK,1,2
,Frederick and Stanyan,37.766370, -122.452960,SIDEWALK,1,2
,Great Highway and John F Kennedy,37.770474, -122.510950,SIDEWALK,1,2
,Grove and Polk,37.778480, -122.418218,SIDEWALK,1,2
,Grove and Van Ness,37.778253, -122.419957,SIDEWALK,1,2
,Guerrero and San Jose,37.744991, -122.422379,SIDEWALK,1,2
,O'Farrell and Polk,37.784970, -122.419547,SIDEWALK,1,2
,O'Farrell and Polk,37.784970, -122.419547,SIDEWALK,1,2
,O'Farrell and Stockton,37.786634, -122.406389,SIDEWALK,1,2
,Polk and Turk (El Super Bu),37.782173, -122.418998,SIDEWALK,1,2
,Post and Van Ness,37.786611, -122.421648,SIDEWALK,1,2
,Post and Webster,37.785363, -122.431430,SIDEWALK,1,2
,Steiner and Waller,37.770982, -122.431889,SIDEWALK,1,2
,Stockton and Vallejo (Bean The,37.798592, -122.408780,SIDEWALK,1,2
,The Embarcadero and Harrison St,37.789502, -122.388610,SIDEWALK,1,2
,18TH ST AND ALABAMA (CCSF),37.761664, -122.412018,SIDEWALK,1,2
,Larkin and Pine (Cafe),37.789832, -122.418860,SIDEWALK,1,2
,03RD St and Townsend,37.778864, -122.392749,SIDEWALK,1,2
,03RD St and Townsend,37.778864, -122.392749,SIDEWALK,1,2
,04TH Ave and Clement,37.783043, -122.462278,SIDEWALK,1,2
,04TH St and Brannan,37.778333, -122.396540,SIDEWALK,1,2
,Broadway and Columbus,37.797892, -122.406639,SIDEWALK,1,2
,Columbus and Taylor,37.803552, -122.414877,SIDEWALK,1,2
,Duboce and Steiner (Duboce Park),37.769323, -122.431577,SIDEWALK,1,2
,Folsom and Spear,37.790082, -122.391000,SIDEWALK,1,2
,Front and Jackson,37.796942, -122.399480,SIDEWALK,1,2
,Gough and Hayes,37.776883, -122.422968,SIDEWALK,1,2
,Gough and Linden (clothing store),37.776424, -122.422879,SIDEWALK,1,2
,04TH St and Brannan,37.778333, -122.396540,SIDEWALK,1,2
,04TH St and Harrison,37.780782, -122.399627,SIDEWALK,1,2
,Clay and Van Ness,37.792174, -122.422768,SIDEWALK,1,2
,Columbus and Kearny,37.797062, -122.405390,SIDEWALK,1,2
,Faxon and Ocean,37.724763, -122.460239,SIDEWALK,1,2
,Howard and Spear,37.791322, -122.392548,SIDEWALK,1,2
,Laguna and Page,37.773663, -122.425698,SIDEWALK,1,2
,Minna and New Montgomery,37.787031, -122.399988,SIDEWALK,1,2
,Revere and 03RD St,37.732453, -122.391607,SIDEWALK,1,2
,Shafter and 03RD St,37.731641, -122.391888,SIDEWALK,1,2
1356 PACIFIC AVE,,37.795606, -122.417622,SIDEWALK,1,2
1168 POLK ST,,37.787558, -122.419981,SIDEWALK,1,2
1141 POLK ST,Space Gallery,37.787363, -122.420076,SIDEWALK,1,2
247 POWELL ST,,37.786867, -122.408183,SIDEWALK,1,2
2991 SACRAMENTO ST,Liege Home and Garden,37.788759, -122.442103,SIDEWALK,1,2
3641 SACRAMENTO ST,,37.787412, -122.452610,SIDEWALK,1,2
3566 SACRAMENTO ST,,37.787671, -122.451406,SIDEWALK,1,2
620 SHRADER ST,,37.769172, -122.451745,SIDEWALK,1,2
427 SOUTH VAN NESS AVE,Hertz Rental,37.766385, -122.417533,SIDEWALK,1,2
663 SOUTH VAN NESS AVE,Citywide Logistics,37.762561, -122.417184,SIDEWALK,1,2
1500 TREAT AVE,,37.792044, -122.480165,SIDEWALK,1,2
1079 VALENCIA ST,,37.755649, -122.420929,SIDEWALK,1,2
828 VALENCIA ST,,37.759668, -122.421432,SIDEWALK,1,2
147 VALENCIA ST,,37.770802, -122.422381,SIDEWALK,1,2
105 VALENCIA ST,,37.771502, -122.422448,SIDEWALK,1,2
611 VALLEJO ST,,37.798708, -122.407474,SIDEWALK,1,2
1305 VAN NESS AVE,,37.787580, -122.421919,SIDEWALK,1,2
550 WASHINGTON ST,,37.795671, -122.402460,SIDEWALK,1,2
775 YORK ST,Jay'n Bee Club,37.759604, -122.408810,SIDEWALK,1,2
300 BARTLETT ST,Mission Library,37.752130, -122.419612,SIDEWALK,1,2
422 CASTRO ST,Louies Barber Shop,37.762013, -122.435174,SIDEWALK,1,2
298 DIVISADERO ST,The Page Bar,37.772194, -122.437154,SIDEWALK,1,2
398 GEARY ST,Max's On the Square,37.787233, -122.409819,SIDEWALK,1,2
602 HAYES ST,HSM Realty,37.776516, -122.426352,SIDEWALK,1,2
729 MARKET ST,Perish Trust,37.786895, -122.404333,SIDEWALK,1,2
695 MINNA ST,Grove restaurant,37.777091, -122.412446,SIDEWALK,1,2
4221 MISSION ST,Farmers Insurance,37.729607, -122.430327,SIDEWALK,1,2
,Duboce and Scott,37.769113, -122.434909,SIDEWALK,1,2
,07TH Ave and Irving,37.764131, -122.464160,SIDEWALK,1,2
,16TH ST AND DE HARO (Wedding Day Dances),37.766152, -122.401688,SIDEWALK,1,2
,Balboa and Great Highway,37.775081, -122.511289,SIDEWALK,1,2
,Divisadero and O'Farrell (residential),37.782432, -122.439298,SIDEWALK,1,2
,Jackson and Polk,37.794141, -122.421389,SIDEWALK,1,2
,Kearny and Post,37.788904, -122.403659,SIDEWALK,1,2
990 SUTTER ST,Arts and Craftsman Supplies.,37.788257, -122.416645,SIDEWALK,1,2
2199 SUTTER ST,Pacific Food Mart,37.785623, -122.436498,SIDEWALK,1,2
1630 OCEAN AVE,Walgreens,37.724680, -122.459623,SIDEWALK,2,4
,21st St and Folsom (playground),37.757302, -122.414520,SIDEWALK,2,4
1567 PACIFIC AVE,Consignment Sports Store (rematchSports),37.795052, -122.421006,SIDEWALK,2,4
359 DIVISADERO ST,On The Corner Cafe,37.772748, -122.437414,SIDEWALK,2,4
,McAllister and Polk (City Hall),37.780273, -122.418597,SIDEWALK,2,4
,19th St and Bryant,37.760500, -122.410020,SIDEWALK,2,4
,23rd St and Treat (playground),37.754171, -122.413120,SIDEWALK,2,4
,25th St and Harrison (Martin Luther King Park),37.751044, -122.411728,SIDEWALK,2,4
,26th St and Treat (Martin Luther King Park),37.749394, -122.412669,SIDEWALK,2,4
,Polk and Sutter,37.787762, -122.420100,SIDEWALK,2,4
,Steiner and Sutter,37.785893, -122.434900,SIDEWALK,2,4
98 HOWARD ST,Rincon Market,37.791370, -122.392585,SIDEWALK,2,4
1755 MARKET ST,Nomad Body Piercing,37.772032, -122.423064,SIDEWALK,2,4
,Battery and Pine,37.792263, -122.399770,SIDEWALK,2,4
,Greenwich and Sansome (parking lot & restrooms),37.803111, -122.403137,SIDEWALK,2,4
,Haight and Steiner (pavement to parks),37.771892, -122.432081,SIDEWALK,2,4
,Howard and Main (triangle of unused land),37.790621, -122.393400,SIDEWALK,2,4
,Vicente and West Portal,37.739741, -122.467019,SIDEWALK,2,4
814 EDDY ST,Benders Bar,37.782895, -122.421163,SIDEWALK,3,6
,Folsom and Russ,37.777642, -122.406728,SIDEWALK,3,6
500 VALENCIA ST,Money Mart,37.764859, -122.421953,SIDEWALK,4,8
,17th St and Castro (pavement to parks),37.762641, -122.435159,SIDEWALK,4,8
501 VALENCIA ST,K & H Liquors,37.764867, -122.421815,SIDEWALK,5,10
,04TH St and Berry,37.775782, -122.393338,SIDEWALK,1,2
295 CHANNEL ST,parking lot,37.772644, -122.393795,SIDEWALK,2,4
,03RD St and Mission Bay Blvd North,37.771071, -122.389618,SIDEWALK,2,4
,Bridgeview Way and Mission Bay Blvd N,37.771207, -122.387778,SIDEWALK,2,4
,Bridgeview Way and Mission Bay Blvd N,37.771207, -122.387778,SIDEWALK,2,4
,03RD St and Mission Bay Blvd North,37.771071, -122.389618,SIDEWALK,2,4
225 KING ST,Rich Sorro Commons,37.777131, -122.392664,SIDEWALK,3,6
433 BERRY ST,,37.771251, -122.398995,SIDEWALK,3,6
265 KING ST,Avalon at Mission Bay,37.776793, -122.393084,SIDEWALK,3,6
,04TH St and 16th St,37.766843, -122.390777,SIDEWALK,3,6
,Campus Way and Owens (UCSF),37.767613, -122.393717,SIDEWALK,3,6
,03RD St and Berry,37.777530, -122.391107,SIDEWALK,3,6
,04TH St and Berry,37.775782, -122.393338,SIDEWALK,3,6
,04TH St and Berry,37.775782, -122.393338,SIDEWALK,3,6
,04TH St and Townsend,37.777111, -122.394988,SIDEWALK,3,6
,06TH St and Berry,37.772270, -122.397772,SIDEWALK,3,6
,Berry St and King St,37.775634, -122.394651,SIDEWALK,3,6
CHANNEL ST,,37.772741, -122.393907,SIDEWALK,12,24
428 BERRY ST,,37.771298, -122.399134,SIDEWALK,3,6